icao_id,obs_time_utc,receipt_time_utc,temp_c,dewpoint_c,wind_dir_deg,wind_speed_kt,wind_gust_kt,visibility_sm,altimeter_hpa,flight_category,weather_code,cloud_layers_json,raw_text
K00U,2026-04-13 10:55:00+00:00,2026-04-13 10:55:00+00:00,3.0,3.0,0.0,0.0,,0.25,1005.4191910000001,LIFR,FG,"[{""cover"": ""OVC"", ""base_ft_agl"": 100.0}]",METAR K00U 131055Z AUTO 00000KT M1/4SM FG OVC001 03/03 A2969 RMK A01
K01M,2026-04-13 10:55:00+00:00,2026-04-13 10:55:00+00:00,17.1,11.2,180.0,5.0,,10.0,1023.0284190000001,VFR,,,METAR K01M 131055Z AUTO 18005KT 10SM CLR 17/11 A3021 RMK AO2 T01710112
K04V,2026-04-13 10:55:00+00:00,2026-04-13 10:55:00+00:00,0.0,-10.0,320.0,5.0,,10.0,1017.948834,VFR,,,METAR K04V 131055Z AUTO 32005KT 10SM CLR 00/M10 A3006 RMK AO2
K04W,2026-04-13 10:55:00+00:00,2026-04-13 10:55:00+00:00,11.0,9.0,0.0,0.0,,10.0,1008.128303,MVFR,,"[{""cover"": ""OVC"", ""base_ft_agl"": 1300.0}]",METAR K04W 131055Z AUTO 00000KT 10SM OVC013 11/09 A2977 RMK AO2
K05U,2026-04-13 10:55:00+00:00,2026-04-13 10:55:00+00:00,-4.0,-5.0,0.0,0.0,,10.0,1016.2556390000001,VFR,,,METAR K05U 131055Z AUTO 00000KT 10SM CLR M04/M05 A3001 RMK A01
K06C,2026-04-13 10:55:00+00:00,2026-04-13 10:55:00+00:00,17.5,16.6,250.0,10.0,14.0,10.0,1011.176054,IFR,,"[{""cover"": ""OVC"", ""base_ft_agl"": 800.0}]",METAR K06C 131055Z AUTO 25010G14KT 10SM OVC008 18/17 A2986 RMK AO2 T01750166
K06D,2026-04-13 10:55:00+00:00,2026-04-13 10:55:00+00:00,-1.0,-1.0,290.0,3.0,,10.0,1011.5146930000001,MVFR,,"[{""cover"": ""BKN"", ""base_ft_agl"": 2400.0}]",METAR K06D 131055Z AUTO 29003KT 10SM BKN024 M01/M01 A2987 RMK AO2
K08D,2026-04-13 10:55:00+00:00,2026-04-13 10:55:00+00:00,1.0,1.0,120.0,10.0,,10.0,1009.821498,LIFR,,"[{""cover"": ""OVC"", ""base_ft_agl"": 400.0}]",METAR K08D 131055Z AUTO 12010KT 10SM OVC004 01/01 A2982 RMK AO2
K0A0,2026-04-13 10:55:00+00:00,2026-04-13 10:55:00+00:00,12.0,1.0,160.0,7.0,,10.0,1018.6261119999999,VFR,,,METAR K0A0 131055Z AUTO 16007KT 10SM CLR 12/01 A3008 RMK AO2
K0A9,2026-04-13 10:35:00+00:00,2026-04-13 10:35:00+00:00,11.0,8.0,0.0,0.0,,10.0,1024.721614,VFR,,,METAR K0A9 131035Z AUTO 00000KT 10SM CLR 11/08 A3026 RMK AO2
K0CO,2026-04-13 10:55:00+00:00,2026-04-13 10:55:00+00:00,-5.0,-15.0,290.0,23.0,38.0,10.0,1017.271556,VFR,,,METAR K0CO 131055Z AUTO 29023G38KT 10SM CLR M05/M15 A3004 RMK AO2
K0E0,2026-04-13 10:55:00+00:00,2026-04-13 10:55:00+00:00,8.1,-0.5,230.0,8.0,,10.0,1019.30339,VFR,,,METAR K0E0 131055Z AUTO 23008KT 10SM CLR 08/00 A3010 RMK AO2 T00811005
K0F2,2026-04-13 10:55:00+00:00,2026-04-13 10:55:00+00:00,21.0,19.0,180.0,13.0,16.0,10.0,1015.578361,MVFR,,"[{""cover"": ""OVC"", ""base_ft_agl"": 1800.0}]",METAR K0F2 131055Z AUTO 18013G16KT 10SM OVC018 21/19 A2999 RMK AO2 T02100190
K0J4,2026-04-13 10:58:00+00:00,2026-04-13 10:58:00+00:00,13.3,12.8,0.0,0.0,,10.0,1026.753448,VFR,,,METAR K0J4 131058Z AUTO 00000KT 10SM CLR 13/13 A3032 RMK AO2 RAB18E52 SLP263 P0000 T01330128
K0R0,2026-04-13 10:55:00+00:00,2026-04-13 10:55:00+00:00,17.0,17.0,140.0,4.0,,5.0,1023.0284190000001,MVFR,-RA BR,,METAR K0R0 131055Z AUTO 14004KT 5SM -RA BR CLR 17/17 A3021 RMK AO2
K0R4,2026-04-13 10:55:00+00:00,2026-04-13 10:55:00+00:00,20.5,17.6,150.0,4.0,,10.0,1023.0284190000001,MVFR,,"[{""cover"": ""BKN"", ""base_ft_agl"": 1900.0}, {""cover"": ""OVC"", ""base_ft_agl"": 2700.0}]",METAR K0R4 131055Z AUTO 15004KT 10SM BKN019 OVC027 21/18 A3021 RMK AO2 T02050176
K0S9,2026-04-13 10:55:00+00:00,2026-04-13 10:55:00+00:00,9.0,7.0,290.0,9.0,16.0,10.0,1012.8692490000001,MVFR,,"[{""cover"": ""BKN"", ""base_ft_agl"": 1600.0}, {""cover"": ""OVC"", ""base_ft_agl"": 2900.0}]",METAR K0S9 131055Z AUTO 29009G16KT 10SM BKN016 OVC029 09/07 A2991 RMK AO2
K0V4,2026-04-13 10:55:00+00:00,2026-04-13 10:55:00+00:00,17.0,12.0,190.0,11.0,,10.0,1025.060253,VFR,,,METAR K0V4 131055Z AUTO 19011KT 10SM CLR 17/12 A3027 RMK AO1
K0VG,2026-04-13 10:55:00+00:00,2026-04-13 10:55:00+00:00,13.0,10.0,0.0,0.0,,10.0,1024.721614,VFR,,"[{""cover"": ""FEW"", ""base_ft_agl"": 10000.0}]",METAR K0VG 131055Z AUTO 00000KT 10SM FEW100 13/10 A3026 RMK AO2
K0W3,2026-04-13 10:55:00+00:00,2026-04-13 10:55:00+00:00,14.4,14.4,190.0,8.0,,9.0,1020.657946,VFR,,,METAR K0W3 131055Z AUTO 19008KT 9SM CLR 14/14 A3014 RMK AO2 T01440144
K10G,2026-04-13 10:55:00+00:00,2026-04-13 10:55:00+00:00,18.0,12.0,240.0,14.0,34.0,7.0,1016.9329170000001,VFR,-RA,"[{""cover"": ""BKN"", ""base_ft_agl"": 4500.0}, {""cover"": ""OVC"", ""base_ft_agl"": 6000.0}]",METAR K10G 131055Z AUTO 24014G34KT 7SM -RA BKN045 OVC060 18/12 A3003 RMK AO2
K10U,2026-04-13 10:55:00+00:00,2026-04-13 10:55:00+00:00,0.0,-2.0,190.0,9.0,,10.0,1014.562444,VFR,,,METAR K10U 131055Z AUTO 19009KT 10SM CLR M00/M02 A2996 RMK AO2
K11R,2026-04-13 10:55:00+00:00,2026-04-13 10:55:00+00:00,21.8,21.0,160.0,5.0,,7.0,1018.964751,MVFR,RA,"[{""cover"": ""OVC"", ""base_ft_agl"": 1000.0}]",METAR K11R 131055Z AUTO 16005KT 7SM RA OVC010 22/21 A3009 RMK AO2 T02180210
K12N,2026-04-13 10:54:00+00:00,2026-04-13 10:54:00+00:00,10.0,6.1,210.0,4.0,,,1020.657946,,,,METAR K12N 131054Z AUTO 21004KT 10/06 A3014 RMK AO1 SLP208 T01000061
K13K,2026-04-13 10:55:00+00:00,2026-04-13 10:55:00+00:00,19.7,18.2,180.0,12.0,18.0,10.0,1011.176054,MVFR,,"[{""cover"": ""OVC"", ""base_ft_agl"": 1200.0}]",METAR K13K 131055Z AUTO 18012G18KT 10SM OVC012 20/18 A2986 RMK AO2 T01970182
K14Y,2026-04-13 10:55:00+00:00,2026-04-13 10:55:00+00:00,8.0,7.0,0.0,0.0,,10.0,1008.128303,IFR,,"[{""cover"": ""OVC"", ""base_ft_agl"": 600.0}]",METAR K14Y 131055Z AUTO 00000KT 10SM OVC006 08/07 A2977 RMK AO2
K15M,2026-04-13 10:55:00+00:00,2026-04-13 10:55:00+00:00,17.3,13.8,180.0,3.0,,3.0,1023.0284190000001,MVFR,HZ,"[{""cover"": ""BKN"", ""base_ft_agl"": 13000.0}]",METAR K15M 131055Z AUTO 18003KT 3SM HZ BKN130 17/14 A3021 RMK AO2 T01730138 $
K16J,2026-04-13 10:55:00+00:00,2026-04-13 10:55:00+00:00,11.0,11.0,290.0,1.0,,10.0,1026.4148089999999,VFR,,,METAR K16J 131055Z AUTO 29001KT 10SM CLR 11/11 A3031 RMK AO2
K18A,2026-04-13 10:55:00+00:00,2026-04-13 10:55:00+00:00,12.4,11.1,0.0,0.0,,10.0,1027.430726,VFR,,,METAR K18A 131055Z AUTO 00000KT 10SM CLR 12/11 A3034 RMK AO2 T01240111
K18H,2026-04-13 10:50:00+00:00,2026-04-13 10:50:00+00:00,24.0,19.0,0.0,4.0,10.0,9.0,1019.642029,VFR,,"[{""cover"": ""FEW"", ""base_ft_agl"": 4700.0}]",METAR K18H 131050Z AUTO VRB04G10KT 9SM FEW047 24/19 A3011 RMK A01
K19S,2026-04-13 10:55:00+00:00,2026-04-13 10:55:00+00:00,10.5,-0.3,220.0,9.0,,10.0,1008.805581,VFR,,,METAR K19S 131055Z AUTO 22009KT 10SM CLR 11/00 A2979 RMK AO2 T01051003
K1A5,2026-04-13 10:55:00+00:00,2026-04-13 10:55:00+00:00,6.8,5.3,0.0,0.0,,10.0,1028.785282,VFR,,,METAR K1A5 131055Z AUTO 00000KT 10SM CLR 07/05 A3038 RMK AO2 T00680053
K1A6,2026-04-13 10:55:00+00:00,2026-04-13 10:55:00+00:00,20.7,6.0,0.0,0.0,,10.0,1024.382975,VFR,,"[{""cover"": ""SCT"", ""base_ft_agl"": 7500.0}, {""cover"": ""OVC"", ""base_ft_agl"": 9500.0}]",METAR K1A6 131055Z AUTO 00000KT 10SM SCT075 OVC095 21/06 A3025 RMK AO2 T02070060
K1A9,2026-04-13 10:55:00+00:00,2026-04-13 10:55:00+00:00,11.2,10.6,0.0,0.0,,10.0,1025.3988920000002,VFR,,,METAR K1A9 131055Z AUTO 00000KT 10SM CLR 11/11 A3028 RMK AO2 T01120106
K1AM,2026-04-13 10:55:00+00:00,2026-04-13 10:55:00+00:00,3.4,2.4,0.0,0.0,,10.0,1005.080552,VFR,,"[{""cover"": ""BKN"", ""base_ft_agl"": 8000.0}, {""cover"": ""OVC"", ""base_ft_agl"": 21000.0}]",METAR K1AM 131055Z AUTO 00000KT 10SM BKN080 OVC210 03/02 A2968 RMK AO2 LTG DSNT S SLP063 T00340024 $
K1AW,2026-04-13 10:55:00+00:00,2026-04-13 10:55:00+00:00,9.0,-6.0,360.0,16.0,,10.0,1009.482859,VFR,,,METAR K1AW 131055Z AUTO 36016KT 10SM CLR 09/M06 A2981 RMK AO2 SLP046 T00901060 $
K1B9,2026-04-13 10:55:00+00:00,2026-04-13 10:55:00+00:00,9.3,5.7,200.0,9.0,,10.0,1021.6738630000001,MVFR,,"[{""cover"": ""BKN"", ""base_ft_agl"": 2000.0}, {""cover"": ""OVC"", ""base_ft_agl"": 3000.0}]",METAR K1B9 131055Z AUTO 20009KT 10SM BKN020 OVC030 09/06 A3017 RMK AO2 CIG 020V024 T00930057
K1BM,2026-04-13 09:55:00+00:00,2026-04-13 09:55:00+00:00,4.6,2.9,210.0,7.0,,10.0,1004.7419130000001,VFR,,"[{""cover"": ""SCT"", ""base_ft_agl"": 6500.0}, {""cover"": ""SCT"", ""base_ft_agl"": 17000.0}, {""cover"": ""OVC"", ""base_ft_agl"": 20000.0}]",METAR K1BM 130955Z AUTO 21007KT 10SM SCT065 SCT170 OVC200 05/03 A2967 RMK AO2 SLP056 T00460029 $
K1BW,2026-04-13 10:55:00+00:00,2026-04-13 10:55:00+00:00,10.3,-5.7,290.0,14.0,,10.0,1010.160137,VFR,,"[{""cover"": ""SCT"", ""base_ft_agl"": 13000.0}]",METAR K1BW 131055Z AUTO 29014KT 10SM SCT130 10/M06 A2983 RMK AO2 SLP054 T01031057 $
K1CN,2026-04-13 10:55:00+00:00,2026-04-13 10:55:00+00:00,2.5,2.2,70.0,8.0,,1.75,,LIFR,BR,"[{""cover"": ""OVC"", ""base_ft_agl"": 200.0}]",METAR K1CN 131055Z AUTO 07008KT 1 3/4SM BR OVC002 03/02 M RMK AO2 VIS 1 3/4V2 1/4 SLPNO T00250022 $
K1CW,2026-04-13 10:55:00+00:00,2026-04-13 10:55:00+00:00,9.4,-6.9,280.0,10.0,,10.0,1008.466942,VFR,,"[{""cover"": ""SCT"", ""base_ft_agl"": 14000.0}]",METAR K1CW 131055Z AUTO 28010KT 10SM SCT140 09/M07 A2978 RMK AO2 SLP043 T00941069 PWINO $
K1D1,2026-04-13 10:55:00+00:00,2026-04-13 10:55:00+00:00,7.0,7.0,350.0,10.0,,6.0,1008.466942,LIFR,BR,"[{""cover"": ""OVC"", ""base_ft_agl"": 300.0}]",METAR K1D1 131055Z AUTO 35010KT 6SM BR OVC003 07/07 A2978 RMK AO2
K1D8,2026-04-13 10:55:00+00:00,2026-04-13 10:55:00+00:00,8.0,8.0,20.0,13.0,,0.5,1006.7737470000001,LIFR,BR,"[{""cover"": ""OVC"", ""base_ft_agl"": 200.0}]",METAR K1D8 131055Z AUTO 02013KT 1/2SM BR OVC002 08/08 A2973 RMK AO2
K1DM,2026-04-13 09:55:00+00:00,2026-04-13 09:55:00+00:00,4.9,3.9,0.0,0.0,,10.0,1004.7419130000001,VFR,,"[{""cover"": ""BKN"", ""base_ft_agl"": 7500.0}, {""cover"": ""BKN"", ""base_ft_agl"": 16000.0}]",METAR K1DM 130955Z AUTO 00000KT 10SM BKN075 BKN160 05/04 A2967 RMK AO2 SLP058 T00490039 $
K1DN,2026-04-13 10:55:00+00:00,2026-04-13 10:55:00+00:00,1.9,1.5,70.0,9.0,,3.0,1008.466942,LIFR,BR,"[{""cover"": ""BKN"", ""base_ft_agl"": 300.0}, {""cover"": ""OVC"", ""base_ft_agl"": 900.0}]",METAR K1DN 131055Z AUTO 07009KT 3SM BR BKN003 OVC009 02/02 A2978 RMK AO2 SLP098 T00190015 $
K1EM,2026-04-13 10:55:00+00:00,2026-04-13 10:55:00+00:00,4.6,1.8,0.0,0.0,,10.0,1004.403274,VFR,,"[{""cover"": ""BKN"", ""base_ft_agl"": 8500.0}]",METAR K1EM 131055Z AUTO 00000KT 10SM BKN085 05/02 A2966 RMK AO2 SLP052 T00460018 $
K1EW,2026-04-13 10:55:00+00:00,2026-04-13 10:55:00+00:00,9.9,-6.9,310.0,13.0,,10.0,1008.466942,VFR,,"[{""cover"": ""BKN"", ""base_ft_agl"": 12000.0}]",METAR K1EW 131055Z AUTO 31013KT 10SM BKN120 10/M07 A2978 RMK AO2 SLP036 T00991069 $
K1F0,2026-04-13 10:55:00+00:00,2026-04-13 10:55:00+00:00,21.4,18.3,190.0,10.0,,10.0,1015.578361,MVFR,,"[{""cover"": ""OVC"", ""base_ft_agl"": 1600.0}]",METAR K1F0 131055Z AUTO 19010KT 10SM OVC016 21/18 A2999 RMK AO2 T02140183
K1GM,2026-04-13 10:55:00+00:00,2026-04-13 10:55:00+00:00,4.2,3.9,140.0,7.0,,10.0,,VFR,,"[{""cover"": ""FEW"", ""base_ft_agl"": 200.0}, {""cover"": ""BKN"", ""base_ft_agl"": 22000.0}]",METAR K1GM 131055Z AUTO 14007KT 10SM FEW002 BKN220 04/04 M RMK AO2 SLPNO T00420039 $
K1GW,2026-04-13 10:55:00+00:00,2026-04-13 10:55:00+00:00,10.6,-6.7,40.0,8.0,,10.0,1007.7896640000001,VFR,,"[{""cover"": ""OVC"", ""base_ft_agl"": 14000.0}]",METAR K1GW 131055Z AUTO 04008KT 10SM OVC140 11/M07 A2976 RMK AO2 SLP037 T01061067 $
K1H2,2026-04-13 10:55:00+00:00,2026-04-13 10:55:00+00:00,21.1,16.6,190.0,13.0,18.0,10.0,1016.594278,VFR,,"[{""cover"": ""BKN"", ""base_ft_agl"": 4200.0}, {""cover"": ""BKN"", ""base_ft_agl"": 5000.0}]",METAR K1H2 131055Z AUTO 19013G18KT 10SM BKN042 BKN050 21/17 A3002 RMK AO2 T02110166
K1HM,2026-04-13 09:55:00+00:00,2026-04-13 09:55:00+00:00,4.4,3.5,0.0,0.0,,10.0,1004.403274,MVFR,,"[{""cover"": ""OVC"", ""base_ft_agl"": 2300.0}]",METAR K1HM 130955Z AUTO 00000KT 10SM OVC023 04/04 A2966 RMK AO2 RAB0855E00 SLP057 P0000 T00440035 $
K1HN,2026-04-13 10:55:00+00:00,2026-04-13 10:55:00+00:00,1.8,0.9,70.0,5.0,,5.0,1008.466942,IFR,BR,"[{""cover"": ""OVC"", ""base_ft_agl"": 500.0}]",METAR K1HN 131055Z AUTO 07005KT 5SM BR OVC005 02/01 A2978 RMK AO2 SLP095 T00180009 $
K1HW,2026-04-13 10:55:00+00:00,2026-04-13 10:55:00+00:00,8.7,-7.1,320.0,7.0,,10.0,1005.4191910000001,VFR,,,METAR K1HW 131055Z AUTO 32007KT 10SM CLR 09/M07 A2969 RMK AO2 SLP017 T00871071 $
K1IM,2026-04-13 10:55:00+00:00,2026-04-13 10:55:00+00:00,4.5,3.9,0.0,0.0,,4.0,1004.403274,MVFR,BR,,METAR K1IM 131055Z AUTO 00000KT 4SM BR CLR 05/04 A2966 RMK AO2 SLP057 T00450039 $
K1IN,2026-04-13 10:55:00+00:00,2026-04-13 10:55:00+00:00,0.6,-0.3,100.0,7.0,,10.0,,IFR,,"[{""cover"": ""OVC"", ""base_ft_agl"": 500.0}]",METAR K1IN 131055Z AUTO 10007KT 10SM OVC005 01/M00 M RMK AO2 SLPNO T00061003 $
K1JM,2026-04-13 10:55:00+00:00,2026-04-13 10:55:00+00:00,4.2,3.6,0.0,0.0,,9.0,1004.403274,MVFR,,"[{""cover"": ""BKN"", ""base_ft_agl"": 2300.0}, {""cover"": ""OVC"", ""base_ft_agl"": 7000.0}]",METAR K1JM 131055Z AUTO 00000KT 9SM BKN023 OVC070 04/04 A2966 RMK AO2 BKN V OVC SLP057 T00420036 $
K1JN,2026-04-13 10:55:00+00:00,2026-04-13 10:55:00+00:00,0.5,0.2,80.0,4.0,,2.75,1008.805581,LIFR,BR,"[{""cover"": ""OVC"", ""base_ft_agl"": 300.0}]",METAR K1JN 131055Z AUTO 08004KT 2 3/4SM BR OVC003 01/00 A2979 RMK AO2 SLP100 T00050002 $
K1K8,2026-04-13 10:55:00+00:00,2026-04-13 10:55:00+00:00,22.0,19.0,190.0,16.0,25.0,10.0,1013.885166,MVFR,,"[{""cover"": ""OVC"", ""base_ft_agl"": 2100.0}]",METAR K1K8 131055Z AUTO 19016G25KT 10SM OVC021 22/19 A2994 RMK AO2
K1KM,2026-04-13 09:55:00+00:00,2026-04-13 09:55:00+00:00,1.5,1.1,50.0,6.0,,0.38,1005.080552,LIFR,FG,"[{""cover"": ""BKN"", ""base_ft_agl"": 100.0}, {""cover"": ""OVC"", ""base_ft_agl"": 1800.0}]",METAR K1KM 130955Z AUTO 05006KT 3/8SM FG BKN001 OVC018 02/01 A2968 RMK AO2 CIG 001V018 BKN V SCT SLP059 T00150011 RVRNO $
K1KN,2026-04-13 10:55:00+00:00,2026-04-13 10:55:00+00:00,0.4,-0.5,90.0,4.0,,10.0,1009.14422,IFR,,"[{""cover"": ""OVC"", ""base_ft_agl"": 500.0}]",METAR K1KN 131055Z AUTO 09004KT 10SM OVC005 00/M00 A2980 RMK AO2 SLP105 T00041005 $
K1KW,2026-04-13 10:55:00+00:00,2026-04-13 10:55:00+00:00,9.6,-7.6,240.0,8.0,,10.0,1006.7737470000001,VFR,,"[{""cover"": ""OVC"", ""base_ft_agl"": 13000.0}]",METAR K1KW 131055Z AUTO 24008KT 10SM OVC130 10/M08 A2973 RMK AO2 SLP021 T00961076 $
K1LN,2026-04-13 10:55:00+00:00,2026-04-13 10:55:00+00:00,1.3,-0.6,120.0,4.0,,10.0,1009.482859,MVFR,,"[{""cover"": ""OVC"", ""base_ft_agl"": 1000.0}]",METAR K1LN 131055Z AUTO 12004KT 10SM OVC010 01/M01 A2981 RMK AO2 SLP109 T00131006 $
K1M4,2026-04-13 10:56:00+00:00,2026-04-13 10:56:00+00:00,15.6,11.1,160.0,6.0,,10.0,1024.382975,VFR,,,METAR K1M4 131056Z AUTO 16006KT 10SM CLR 16/11 A3025 RMK AO2 SLP002 T01560111 $
K1MM,2026-04-13 10:55:00+00:00,2026-04-13 10:55:00+00:00,3.0,1.4,160.0,8.0,,10.0,1004.403274,VFR,,"[{""cover"": ""SCT"", ""base_ft_agl"": 14000.0}]",METAR K1MM 131055Z AUTO 16008KT 10SM SCT140 03/01 A2966 RMK AO2 SLP054 T00300014 $
K1MN,2026-04-13 10:25:00+00:00,2026-04-13 10:25:00+00:00,1.0,0.0,90.0,5.0,,10.0,,IFR,,"[{""cover"": ""OVC"", ""base_ft_agl"": 900.0}]",SPECI K1MN 131025Z AUTO 09005KT 10SM OVC009 01/M00 M RMK AO2 SLPNO $
K1NM,2026-04-13 10:55:00+00:00,2026-04-13 10:55:00+00:00,2.3,1.6,350.0,5.0,,10.0,1003.725996,VFR,,"[{""cover"": ""FEW"", ""base_ft_agl"": 23000.0}]",METAR K1NM 131055Z AUTO 35005KT 10SM FEW230 02/02 A2964 RMK AO2 SLP048 T00230016 $
K1NW,2026-04-13 10:55:00+00:00,2026-04-13 10:55:00+00:00,12.3,-8.8,320.0,6.0,,10.0,1007.7896640000001,VFR,,,METAR K1NW 131055Z AUTO 32006KT 10SM CLR 12/M09 A2976 RMK AO2 SLP023 T01231088 $
K1OM,2026-04-13 10:55:00+00:00,2026-04-13 10:55:00+00:00,5.2,1.9,170.0,9.0,,10.0,1003.725996,VFR,,"[{""cover"": ""SCT"", ""base_ft_agl"": 9000.0}]",METAR K1OM 131055Z AUTO 17009KT 10SM SCT090 05/02 A2964 RMK AO2 SLP046 T00520019 $
K1OW,2026-04-13 10:55:00+00:00,2026-04-13 10:55:00+00:00,7.0,-7.1,320.0,9.0,,10.0,1013.546527,VFR,,,METAR K1OW 131055Z AUTO 32009KT 10SM CLR 07/M07 A2993 RMK AO2 SLP090 T00701071 $
K1P1,2026-04-13 10:55:00+00:00,2026-04-13 10:55:00+00:00,4.0,3.5,0.0,0.0,,7.0,1018.964751,IFR,,"[{""cover"": ""OVC"", ""base_ft_agl"": 800.0}]",METAR K1P1 131055Z AUTO 00000KT 7SM OVC008 04/04 A3009 RMK AO2 T00400035
K1R7,2026-04-13 10:55:00+00:00,2026-04-13 10:55:00+00:00,,,140.0,7.0,,8.0,1022.012502,MVFR,,"[{""cover"": ""SCT"", ""base_ft_agl"": 1000.0}, {""cover"": ""BKN"", ""base_ft_agl"": 1600.0}]",METAR K1R7 131055Z AUTO 14007KT 8SM SCT010 BKN016 A3018 RMK A01 TSNO
K1R8,2026-04-13 10:15:00+00:00,2026-04-13 10:15:00+00:00,13.0,13.0,0.0,0.0,,10.0,1024.044336,VFR,,"[{""cover"": ""FEW"", ""base_ft_agl"": 2700.0}, {""cover"": ""FEW"", ""base_ft_agl"": 3500.0}]",METAR K1R8 131015Z AUTO 00000KT 10SM FEW027 FEW035 13/13 A3024 RMK AO2
K1S3,2026-04-13 10:55:00+00:00,2026-04-13 10:55:00+00:00,4.3,4.3,90.0,4.0,,6.0,1006.0964690000001,VFR,BR,,METAR K1S3 131055Z AUTO 09004KT 6SM BR CLR 04/04 A2971 RMK AO2 T00430043
K1U7,2026-04-13 10:55:00+00:00,2026-04-13 10:55:00+00:00,-1.0,-1.0,0.0,0.0,,10.0,1014.223805,VFR,,,METAR K1U7 131055Z AUTO 00000KT 10SM M01/M01 A2995 RMK A01
K1V4,2026-04-13 10:54:00+00:00,2026-04-13 10:54:00+00:00,6.1,2.8,,,,,1014.901083,,,,METAR K1V4 131054Z AUTO 06/03 A2997 RMK AO1 SLP153 T00610028
K1V6,2026-04-13 10:55:00+00:00,2026-04-13 10:55:00+00:00,13.0,-11.0,290.0,13.0,18.0,10.0,1010.8374150000001,VFR,,,METAR K1V6 131055Z AUTO 29013G18KT 10SM CLR 13/M11 A2985 RMK AO1
K1YT,2026-04-13 10:55:00+00:00,2026-04-13 10:55:00+00:00,8.3,3.1,210.0,4.0,,10.0,1007.112386,VFR,,,METAR K1YT 131055Z AUTO 21004KT 10SM CLR 08/03 A2974 RMK AO2 SLP073 T00830031 $
K20U,2026-04-13 10:55:00+00:00,2026-04-13 10:55:00+00:00,6.0,6.0,110.0,10.0,,,1007.4510250000001,,,,METAR K20U 131055Z AUTO 11010KT 06/06 A2975 RMK AO2 TSNO
K20V,2026-04-13 10:55:00+00:00,2026-04-13 10:55:00+00:00,7.0,-8.0,250.0,15.0,29.0,10.0,1014.223805,VFR,,,METAR K20V 131055Z AUTO 25015G29KT 10SM CLR 07/M08 A2995 RMK AO2
K21D,2026-04-13 10:55:00+00:00,2026-04-13 10:55:00+00:00,7.0,7.0,0.0,0.0,,10.0,1007.4510250000001,VFR,,,METAR K21D 131055Z AUTO 00000KT 10SM CLR 07/07 A2975 RMK AO2
K22N,2026-04-13 10:55:00+00:00,2026-04-13 10:55:00+00:00,10.0,7.0,0.0,0.0,,10.0,1020.996585,MVFR,,"[{""cover"": ""OVC"", ""base_ft_agl"": 1400.0}]",METAR K22N 131055Z AUTO 00000KT 10SM OVC014 10/07 A3015 RMK AO2
K24A,2026-04-13 10:55:00+00:00,2026-04-13 10:55:00+00:00,13.0,5.8,140.0,6.0,,10.0,1028.108004,VFR,,,METAR K24A 131055Z AUTO 14006KT 10SM CLR 13/06 A3036 RMK AO2 T01300058
K24J,2026-04-13 10:55:00+00:00,2026-04-13 10:55:00+00:00,12.0,12.0,0.0,0.0,,10.0,1026.07617,MVFR,,"[{""cover"": ""BKN"", ""base_ft_agl"": 2300.0}, {""cover"": ""BKN"", ""base_ft_agl"": 3300.0}]",METAR K24J 131055Z AUTO 00000KT 10SM BKN023 BKN033 12/12 A3030 RMK A01
K27K,2026-04-13 10:55:00+00:00,2026-04-13 10:55:00+00:00,20.7,11.7,240.0,9.0,,9.0,1019.30339,VFR,,"[{""cover"": ""SCT"", ""base_ft_agl"": 23000.0}]",METAR K27K 131055Z AUTO 24009KT 9SM SCT230 21/12 A3010 RMK AO2 T02070117
K28J,2026-04-13 10:55:00+00:00,2026-04-13 10:55:00+00:00,11.0,11.0,0.0,0.0,,9.0,1025.737531,VFR,,,METAR K28J 131055Z AUTO 00000KT 9SM 11/11 A3029 RMK AO2 TSNO
K2A0,2026-04-13 10:55:00+00:00,2026-04-13 10:55:00+00:00,13.0,13.0,0.0,0.0,,10.0,1024.044336,VFR,,"[{""cover"": ""BKN"", ""base_ft_agl"": 11000.0}]",METAR K2A0 131055Z AUTO 00000KT 10SM BKN110 13/13 A3024 RMK A01
K2C8,2026-04-13 10:55:00+00:00,2026-04-13 10:55:00+00:00,2.0,2.0,340.0,6.0,12.0,10.0,1011.176054,MVFR,,"[{""cover"": ""OVC"", ""base_ft_agl"": 1800.0}]",METAR K2C8 131055Z AUTO 34006G12KT 10SM OVC018 02/02 A2986 RMK AO2
K2D5,2026-04-13 10:55:00+00:00,2026-04-13 10:55:00+00:00,4.0,4.0,60.0,9.0,,,1009.821498,,,"[{""cover"": ""OVC"", ""base_ft_agl"": 600.0}]",METAR K2D5 131055Z AUTO 06009KT OVC006 04/04 A2982 RMK AO2
K2DP,2026-04-13 10:55:00+00:00,2026-04-13 10:55:00+00:00,15.0,14.2,210.0,5.0,,10.0,1026.753448,VFR,,,METAR K2DP 131055Z AUTO 21005KT 10SM CLR 15/14 A3032 RMK AO2 SLP274 T01500142 $
K2G2,2026-04-13 10:55:00+00:00,2026-04-13 10:55:00+00:00,21.0,6.0,230.0,16.0,24.0,10.0,1015.917,VFR,,"[{""cover"": ""OVC"", ""base_ft_agl"": 6500.0}]",METAR K2G2 131055Z AUTO 23016G24KT 10SM OVC065 21/06 A3000 RMK A01
K2G4,2026-04-13 10:55:00+00:00,2026-04-13 10:55:00+00:00,18.0,6.0,240.0,14.0,28.0,10.0,1020.657946,VFR,,,METAR K2G4 131055Z AUTO 24014G28KT 10SM CLR 18/06 A3014 RMK AO2
K2G9,2026-04-13 10:55:00+00:00,2026-04-13 10:55:00+00:00,17.0,6.0,240.0,12.0,17.0,10.0,1019.30339,VFR,,,METAR K2G9 131055Z AUTO 24012G17KT 10SM CLR 17/06 A3010 RMK AO2
K2I0,2026-04-13 10:55:00+00:00,2026-04-13 10:55:00+00:00,22.1,11.7,230.0,12.0,,10.0,1019.30339,VFR,,"[{""cover"": ""BKN"", ""base_ft_agl"": 6500.0}, {""cover"": ""BKN"", ""base_ft_agl"": 8000.0}]",METAR K2I0 131055Z AUTO 23012KT 10SM BKN065 BKN080 22/12 A3010 RMK AO2 T02210117
K2J9,2026-04-13 10:55:00+00:00,2026-04-13 10:55:00+00:00,13.0,12.0,0.0,0.0,,10.0,1027.092087,VFR,,,METAR K2J9 131055Z AUTO 00000KT 10SM CLR 13/12 A3033 RMK AO2
K2M2,2026-04-13 10:55:00+00:00,2026-04-13 10:55:00+00:00,17.0,11.0,160.0,4.0,,10.0,1023.0284190000001,MVFR,,"[{""cover"": ""OVC"", ""base_ft_agl"": 2000.0}]",METAR K2M2 131055Z AUTO 16004KT 10SM OVC020 17/11 A3021 RMK A01
K2M8,2026-04-13 10:55:00+00:00,2026-04-13 10:55:00+00:00,21.7,15.0,180.0,7.0,,10.0,1019.980668,VFR,,"[{""cover"": ""BKN"", ""base_ft_agl"": 11000.0}]",METAR K2M8 131055Z AUTO 18007KT 10SM BKN110 22/15 A3012 RMK AO2 T02170150 $
K2P2,2026-04-13 10:55:00+00:00,2026-04-13 10:55:00+00:00,8.5,7.7,220.0,3.0,,0.5,1004.7419130000001,LIFR,FG,"[{""cover"": ""OVC"", ""base_ft_agl"": 200.0}]",METAR K2P2 131055Z AUTO 22003KT 1/2SM FG OVC002 09/08 A2967 RMK AO2 T00850077
K2R2,2026-04-13 10:55:00+00:00,2026-04-13 10:55:00+00:00,19.1,16.3,230.0,8.0,,10.0,1016.2556390000001,VFR,,"[{""cover"": ""BKN"", ""base_ft_agl"": 3500.0}]",METAR K2R2 131055Z AUTO 23008KT 10SM BKN035 19/16 A3001 RMK AO2 T01910163 $
K2R9,2026-04-13 10:55:00+00:00,2026-04-13 10:55:00+00:00,23.0,21.0,140.0,6.0,,10.0,1017.6101950000001,IFR,,"[{""cover"": ""OVC"", ""base_ft_agl"": 900.0}]",METAR K2R9 131055Z AUTO 14006KT 10SM OVC009 23/21 A3005 RMK AO2
K2V5,2026-04-13 10:55:00+00:00,2026-04-13 10:55:00+00:00,8.0,-5.0,240.0,7.0,,10.0,1006.7737470000001,VFR,,,METAR K2V5 131055Z AUTO 24007KT 10SM CLR 08/M05 A2973 RMK AO2
K2V6,2026-04-13 10:54:00+00:00,2026-04-13 10:54:00+00:00,8.0,-6.0,260.0,8.0,,10.0,1007.4510250000001,VFR,,,METAR K2V6 131054Z AUTO 26008KT 10SM CLR 08/M06 A2975 RMK AO2
K2W6,2026-04-13 10:55:00+00:00,2026-04-13 10:55:00+00:00,16.5,15.1,220.0,9.0,,10.0,1023.0284190000001,VFR,,"[{""cover"": ""BKN"", ""base_ft_agl"": 19000.0}]",METAR K2W6 131055Z AUTO 22009KT 10SM BKN190 17/15 A3021 RMK AO2 T01650151 $
K2WX,2026-04-13 10:56:00+00:00,2026-04-13 10:56:00+00:00,6.7,5.6,90.0,12.0,,,1006.435108,,,,METAR K2WX 131056Z AUTO 09012KT 07/06 A2972 RMK AO1 SLP058 T00670056 $
K33N,2026-04-13 10:55:00+00:00,2026-04-13 10:55:00+00:00,16.0,15.0,220.0,12.0,17.0,10.0,1021.335224,VFR,,,METAR K33N 131055Z AUTO 22012G17KT 10SM 16/15 A3016 RMK A01
K33V,2026-04-13 10:55:00+00:00,2026-04-13 10:55:00+00:00,2.0,-6.0,220.0,10.0,,10.0,1014.223805,VFR,,,METAR K33V 131055Z AUTO 22010KT 10SM CLR 02/M06 A2995 RMK AO1
K35A,2026-04-13 10:55:00+00:00,2026-04-13 10:55:00+00:00,13.0,12.5,0.0,0.0,,10.0,1028.785282,VFR,,,METAR K35A 131055Z AUTO 00000KT 10SM CLR 13/13 A3038 RMK A02 T01300125
K36K,2026-04-13 10:55:00+00:00,2026-04-13 10:55:00+00:00,11.0,-3.0,210.0,9.0,,10.0,1009.14422,VFR,,,METAR K36K 131055Z AUTO 21009KT 10SM 11/M03 A2980 RMK AO2
K3AU,2026-04-13 10:55:00+00:00,2026-04-13 10:55:00+00:00,20.0,17.0,190.0,12.0,20.0,10.0,1010.160137,MVFR,,"[{""cover"": ""OVC"", ""base_ft_agl"": 1200.0}]",METAR K3AU 131055Z AUTO 19012G20KT 10SM OVC012 20/17 A2983 RMK AO2
K3D2,2026-04-13 10:55:00+00:00,2026-04-13 10:55:00+00:00,11.9,11.4,250.0,8.0,,5.0,1004.7419130000001,LIFR,BR,"[{""cover"": ""OVC"", ""base_ft_agl"": 300.0}]",METAR K3D2 131055Z AUTO 25008KT 5SM BR OVC003 12/11 A2967 RMK AO2 T01190114
K3F3,2026-04-13 10:55:00+00:00,2026-04-13 10:55:00+00:00,20.8,19.6,180.0,13.0,,10.0,1021.335224,IFR,,"[{""cover"": ""OVC"", ""base_ft_agl"": 900.0}]",METAR K3F3 131055Z AUTO 18013KT 10SM OVC009 21/20 A3016 RMK AO2 LTG DSNT SW T02080196
K3J1,2026-04-13 10:55:00+00:00,2026-04-13 10:55:00+00:00,11.0,11.0,0.0,0.0,,0.25,1027.092087,LIFR,FG,"[{""cover"": ""OVX"", ""base_ft_agl"": 200.0}]",METAR K3J1 131055Z AUTO 00000KT 1/4SM FG VV002 11/11 A3033 RMK AO2
K3K3,2026-04-13 10:55:00+00:00,2026-04-13 10:55:00+00:00,13.0,-5.0,320.0,4.0,,10.0,1008.128303,VFR,,,METAR K3K3 131055Z AUTO 32004KT 10SM CLR 13/M05 A2977 RMK AO2
K3K7,2026-04-13 10:55:00+00:00,2026-04-13 10:55:00+00:00,12.0,-4.0,270.0,9.0,,10.0,1007.7896640000001,VFR,,,METAR K3K7 131055Z AUTO 27009KT 10SM CLR 12/M04 A2976 RMK AO2
K3L4,2026-04-13 10:55:00+00:00,2026-04-13 10:55:00+00:00,21.0,21.0,150.0,5.0,,,1020.319307,,,,METAR K3L4 131055Z AUTO 15005KT 21/21 A3013 RMK A01
K3LF,2026-04-13 10:55:00+00:00,2026-04-13 10:55:00+00:00,16.4,14.6,170.0,9.0,,10.0,1015.239722,VFR,,,METAR K3LF 131055Z AUTO 17009KT 10SM CLR 16/15 A2998 RMK AO2 T01640146
K3N8,2026-04-13 10:55:00+00:00,2026-04-13 10:55:00+00:00,3.9,3.9,10.0,7.0,,10.0,1009.482859,LIFR,,"[{""cover"": ""OVC"", ""base_ft_agl"": 400.0}]",METAR K3N8 131055Z AUTO 01007KT 10SM OVC004 04/04 A2981 RMK AO2 T00390039
K3R7,2026-04-13 10:55:00+00:00,2026-04-13 10:55:00+00:00,20.9,18.4,0.0,0.0,,10.0,1020.657946,VFR,,,METAR K3R7 131055Z AUTO 00000KT 10SM CLR 21/18 A3014 RMK AO2 T02090184
K3S8,2026-04-13 10:55:00+00:00,2026-04-13 10:55:00+00:00,5.0,4.0,0.0,0.0,,9.0,1018.964751,VFR,,"[{""cover"": ""FEW"", ""base_ft_agl"": 200.0}, {""cover"": ""SCT"", ""base_ft_agl"": 8000.0}, {""cover"": ""BKN"", ""base_ft_agl"": 9500.0}]",METAR K3S8 131055Z AUTO 00000KT 9SM FEW002 SCT080 BKN095 05/04 A3009 RMK AO2
K3T5,2026-04-13 10:55:00+00:00,2026-04-13 10:55:00+00:00,22.3,22.3,160.0,6.0,,10.0,1018.2874730000001,MVFR,,"[{""cover"": ""BKN"", ""base_ft_agl"": 1100.0}, {""cover"": ""OVC"", ""base_ft_agl"": 1900.0}]",METAR K3T5 131055Z AUTO 16006KT 10SM BKN011 OVC019 22/22 A3007 RMK AO2 CIG 009V013 BKN V OVC T02230223 $
K3U3,2026-04-13 10:55:00+00:00,2026-04-13 10:55:00+00:00,2.6,-0.8,200.0,17.0,,10.0,1007.112386,VFR,,,METAR K3U3 131055Z AUTO 20017KT 10SM CLR 03/M01 A2974 RMK AO2 T00261008 $
K3W7,2026-04-13 10:55:00+00:00,2026-04-13 10:55:00+00:00,7.0,7.0,0.0,0.0,,10.0,1005.75783,VFR,,"[{""cover"": ""SCT"", ""base_ft_agl"": 7000.0}, {""cover"": ""OVC"", ""base_ft_agl"": 9000.0}]",METAR K3W7 131055Z AUTO 00000KT 10SM SCT070 OVC090 07/07 A2970 RMK AO2
K40U,2026-04-13 10:55:00+00:00,2026-04-13 10:55:00+00:00,0.3,-2.9,,,,10.0,1013.546527,VFR,,"[{""cover"": ""SCT"", ""base_ft_agl"": 12000.0}]",METAR K40U 131055Z AUTO 10SM SCT120 00/M03 A2993 RMK AO2 T00031029
K41U,2026-04-13 10:55:00+00:00,2026-04-13 10:55:00+00:00,0.7,0.3,0.0,0.0,,10.0,1015.578361,VFR,,,METAR K41U 131055Z AUTO 00000KT 10SM CLR 01/00 A2999 RMK AO1 T00070003
K42A,2026-04-13 10:50:00+00:00,2026-04-13 10:50:00+00:00,,,210.0,6.0,,10.0,1017.6101950000001,MVFR,,"[{""cover"": ""OVC"", ""base_ft_agl"": 2000.0}]",METAR K42A 131050Z AUTO 21006KT 10SM OVC020 A3005 RMK AO2
K42J,2026-04-13 10:55:00+00:00,2026-04-13 10:55:00+00:00,12.0,11.0,0.0,0.0,,7.0,1025.737531,MVFR,,"[{""cover"": ""BKN"", ""base_ft_agl"": 2800.0}]",METAR K42J 131055Z AUTO 00000KT 7SM BKN028 12/11 A3029 RMK A01
K46D,2026-04-13 10:55:00+00:00,2026-04-13 10:55:00+00:00,3.0,3.0,,,,2.5,1010.498776,LIFR,BR,"[{""cover"": ""OVC"", ""base_ft_agl"": 200.0}]",METAR K46D 131055Z AUTO 2 1/2SM BR OVC002 03/03 A2984 RMK A01
K46U,2026-04-13 10:55:00+00:00,2026-04-13 10:55:00+00:00,1.0,0.0,0.0,0.0,,10.0,1014.223805,MVFR,,"[{""cover"": ""BKN"", ""base_ft_agl"": 1100.0}, {""cover"": ""BKN"", ""base_ft_agl"": 3200.0}, {""cover"": ""OVC"", ""base_ft_agl"": 4200.0}]",METAR K46U 131055Z AUTO 00000KT 10SM BKN011 BKN032 OVC042 01/00 A2995 RMK A01 P0002
K48A,2026-04-13 10:55:00+00:00,2026-04-13 10:55:00+00:00,12.3,11.8,0.0,0.0,,10.0,1027.092087,VFR,,,METAR K48A 131055Z AUTO 00000KT 10SM CLR 12/12 A3033 RMK AO2 T01230118
K48I,2026-04-13 10:55:00+00:00,2026-04-13 10:55:00+00:00,22.1,6.3,0.0,5.0,,7.0,1020.657946,VFR,,"[{""cover"": ""BKN"", ""base_ft_agl"": 11000.0}, {""cover"": ""OVC"", ""base_ft_agl"": 15000.0}]",METAR K48I 131055Z AUTO VRB05KT 7SM BKN110 OVC150 22/06 A3014 RMK AO2 T02210063 $
K49A,2026-04-13 10:55:00+00:00,2026-04-13 10:55:00+00:00,14.0,9.0,150.0,4.0,,10.0,1026.753448,VFR,,,METAR K49A 131055Z AUTO 15004KT 10SM CLR 14/09 A3032 RMK AO2
K49B,2026-04-13 10:55:00+00:00,2026-04-13 10:55:00+00:00,9.0,7.0,350.0,5.0,,10.0,1007.112386,VFR,,"[{""cover"": ""SCT"", ""base_ft_agl"": 7500.0}, {""cover"": ""SCT"", ""base_ft_agl"": 9000.0}, {""cover"": ""OVC"", ""base_ft_agl"": 11000.0}]",METAR K49B 131055Z AUTO 35005KT 10SM SCT075 SCT090 OVC110 09/07 A2974 RMK AO2
K4A6,2026-04-13 10:55:00+00:00,2026-04-13 10:55:00+00:00,15.0,13.0,0.0,0.0,,10.0,1025.060253,VFR,,"[{""cover"": ""FEW"", ""base_ft_agl"": 4500.0}]",METAR K4A6 131055Z AUTO 00000KT 10SM FEW045 15/13 A3027 RMK AO2
K4A9,2026-04-13 10:55:00+00:00,2026-04-13 10:55:00+00:00,10.2,9.4,0.0,0.0,,10.0,1025.737531,VFR,,,METAR K4A9 131055Z AUTO 00000KT 10SM CLR 10/09 A3029 RMK AO2 T01020094
K4B8,2026-04-13 10:55:00+00:00,2026-04-13 10:55:00+00:00,9.3,5.9,190.0,6.0,,10.0,1020.996585,MVFR,,"[{""cover"": ""OVC"", ""base_ft_agl"": 1700.0}]",METAR K4B8 131055Z AUTO 19006KT 10SM OVC017 09/06 A3015 RMK AO2 T00930059 $
K4BM,2026-04-13 10:55:00+00:00,2026-04-13 10:55:00+00:00,0.0,-11.0,160.0,16.0,24.0,10.0,1018.2874730000001,VFR,,"[{""cover"": ""SCT"", ""base_ft_agl"": 10000.0}]",METAR K4BM 131055Z AUTO 16016G24KT 10SM SCT100 00/M11 A3007 RMK AO2
K4F2,2026-04-13 10:55:00+00:00,2026-04-13 10:55:00+00:00,19.8,19.1,190.0,9.0,,10.0,1019.30339,MVFR,,"[{""cover"": ""OVC"", ""base_ft_agl"": 1100.0}]",METAR K4F2 131055Z AUTO 19009KT 10SM OVC011 20/19 A3010 RMK AO2 LTG DSNT SW AND W P0001 T01980191
K4I3,2026-04-13 10:55:00+00:00,2026-04-13 10:55:00+00:00,17.0,13.0,210.0,6.0,15.0,10.0,1016.2556390000001,VFR,,"[{""cover"": ""SCT"", ""base_ft_agl"": 4800.0}, {""cover"": ""BKN"", ""base_ft_agl"": 6000.0}, {""cover"": ""OVC"", ""base_ft_agl"": 11000.0}]",METAR K4I3 131055Z AUTO 21006G15KT 10SM SCT048 BKN060 OVC110 17/13 A3001 RMK AO2 PK WND 26037/04
K4M3,2026-04-13 10:55:00+00:00,2026-04-13 10:55:00+00:00,20.0,17.0,190.0,9.0,,9.0,1018.6261119999999,VFR,,"[{""cover"": ""FEW"", ""base_ft_agl"": 2300.0}, {""cover"": ""FEW"", ""base_ft_agl"": 3200.0}]",METAR K4M3 131055Z AUTO 19009KT 9SM FEW023 FEW032 20/17 A3008 RMK A01
K4M9,2026-04-13 10:55:00+00:00,2026-04-13 10:55:00+00:00,22.0,18.0,200.0,15.0,20.0,10.0,1018.2874730000001,MVFR,,"[{""cover"": ""OVC"", ""base_ft_agl"": 2700.0}]",METAR K4M9 131055Z AUTO 20015G20KT 10SM OVC027 22/18 A3007 RMK A01
K4MR,2026-04-13 10:55:00+00:00,2026-04-13 10:55:00+00:00,13.2,0.9,190.0,12.0,,10.0,1015.239722,VFR,,,METAR K4MR 131055Z AUTO 19012KT 10SM CLR 13/01 A2998 RMK AO2 SLP078 T01320009 $
K4O4,2026-04-13 10:55:00+00:00,2026-04-13 10:55:00+00:00,19.0,19.0,140.0,5.0,,10.0,1018.2874730000001,MVFR,,"[{""cover"": ""OVC"", ""base_ft_agl"": 1800.0}]",METAR K4O4 131055Z AUTO 14005KT 10SM OVC018 19/19 A3007 RMK AO2
K4R5,2026-04-13 10:55:00+00:00,2026-04-13 10:55:00+00:00,8.1,6.7,360.0,4.0,,10.0,1007.112386,MVFR,,"[{""cover"": ""OVC"", ""base_ft_agl"": 2200.0}]",METAR K4R5 131055Z AUTO 36004KT 10SM OVC022 08/07 A2974 RMK AO2 T00810067
K4S1,2026-04-13 10:55:00+00:00,2026-04-13 10:55:00+00:00,9.0,9.0,20.0,6.0,,2.5,1019.30339,IFR,-DZ BR,"[{""cover"": ""SCT"", ""base_ft_agl"": 600.0}, {""cover"": ""BKN"", ""base_ft_agl"": 2000.0}, {""cover"": ""OVC"", ""base_ft_agl"": 2500.0}]",METAR K4S1 131055Z AUTO 02006KT 2 1/2SM -DZ BR SCT006 BKN020 OVC025 09/09 A3010 RMK AO2 P0003
K4S2,2026-04-13 10:55:00+00:00,2026-04-13 10:55:00+00:00,8.0,6.0,300.0,4.0,,10.0,1013.546527,VFR,,"[{""cover"": ""SCT"", ""base_ft_agl"": 2500.0}, {""cover"": ""SCT"", ""base_ft_agl"": 3700.0}, {""cover"": ""OVC"", ""base_ft_agl"": 4600.0}]",METAR K4S2 131055Z AUTO 30004KT 10SM SCT025 SCT037 OVC046 08/06 A2993 RMK AO2
K4V0,2026-04-13 10:55:00+00:00,2026-04-13 10:55:00+00:00,6.0,-3.5,220.0,6.0,,10.0,1014.562444,VFR,,,METAR K4V0 131055Z AUTO 22006KT 10SM CLR 06/M03 A2996 RMK AO2 T00601035
K4V1,2026-04-13 10:55:00+00:00,2026-04-13 10:55:00+00:00,13.0,-8.0,250.0,14.0,23.0,10.0,1013.546527,VFR,,,METAR K4V1 131055Z AUTO 25014G23KT 10SM CLR 13/M08 A2993 RMK AO2
K4V9,2026-04-13 10:55:00+00:00,2026-04-13 10:55:00+00:00,11.0,9.0,120.0,6.0,,10.0,1003.725996,VFR,,,METAR K4V9 131055Z AUTO 12006KT 10SM CLR 11/09 A2964 RMK AO2
K54A,2026-04-13 10:55:00+00:00,2026-04-13 10:55:00+00:00,18.0,15.0,80.0,6.0,,10.0,1023.7056970000001,VFR,,"[{""cover"": ""SCT"", ""base_ft_agl"": 3500.0}]",METAR K54A 131055Z AUTO 08006KT 10SM SCT035 18/15 A3023 RMK AO2
K57C,2026-04-13 10:55:00+00:00,2026-04-13 10:55:00+00:00,16.5,15.2,250.0,8.0,,10.0,1009.821498,IFR,,"[{""cover"": ""OVC"", ""base_ft_agl"": 900.0}]",METAR K57C 131055Z AUTO 25008KT 10SM OVC009 17/15 A2982 RMK AO2 T01650152
K5A9,2026-04-13 10:55:00+00:00,2026-04-13 10:55:00+00:00,11.0,10.1,0.0,0.0,,10.0,1026.753448,VFR,,,METAR K5A9 131055Z AUTO 00000KT 10SM CLR 11/10 A3032 RMK AO2 T01100101
K5C1,2026-04-13 10:55:00+00:00,2026-04-13 10:55:00+00:00,,,170.0,5.0,,5.0,1018.2874730000001,LIFR,,"[{""cover"": ""OVC"", ""base_ft_agl"": 400.0}]",METAR K5C1 131055Z AUTO 17005KT 5SM OVC004 A3007 RMK AO1 P0001
K5H4,2026-04-13 10:55:00+00:00,2026-04-13 10:55:00+00:00,2.0,1.0,70.0,6.0,,10.0,1011.853332,MVFR,,"[{""cover"": ""OVC"", ""base_ft_agl"": 1300.0}]",METAR K5H4 131055Z AUTO 07006KT 10SM OVC013 02/01 A2988 RMK AO2
K5R8,2026-04-13 10:55:00+00:00,2026-04-13 10:55:00+00:00,21.0,18.8,150.0,4.0,,10.0,1020.657946,VFR,,"[{""cover"": ""SCT"", ""base_ft_agl"": 1600.0}]",METAR K5R8 131055Z AUTO 15004KT 10SM SCT016 21/19 A3014 RMK AO2 T02100188
K5SM,2026-04-13 10:55:00+00:00,2026-04-13 10:55:00+00:00,-2.0,-10.0,,,,10.0,1018.6261119999999,VFR,,,METAR K5SM 131055Z AUTO 10SM CLR M02/M10 A3008 RMK AO2
K5T9,2026-04-13 10:55:00+00:00,2026-04-13 10:55:00+00:00,22.0,22.0,150.0,4.0,,,1015.917,,,,METAR K5T9 131055Z AUTO 15004KT 22/22 A3000 RMK A01
K60R,2026-04-13 10:55:00+00:00,2026-04-13 10:55:00+00:00,22.0,22.0,160.0,6.0,,10.0,1018.964751,MVFR,,"[{""cover"": ""BKN"", ""base_ft_agl"": 1000.0}, {""cover"": ""OVC"", ""base_ft_agl"": 1700.0}]",METAR K60R 131055Z AUTO 16006KT 10SM BKN010 OVC017 22/22 A3009 RMK AO2 LTG DSNT NE CIG 009V013 SLP107 T02200220
K63S,2026-04-13 10:55:00+00:00,2026-04-13 10:55:00+00:00,6.0,6.0,70.0,3.0,,10.0,1005.75783,VFR,,"[{""cover"": ""FEW"", ""base_ft_agl"": 4900.0}, {""cover"": ""BKN"", ""base_ft_agl"": 6500.0}, {""cover"": ""OVC"", ""base_ft_agl"": 9500.0}]",METAR K63S 131055Z AUTO 07003KT 10SM FEW049 BKN065 OVC095 06/06 A2970 RMK A01
K65S,2026-04-13 10:55:00+00:00,2026-04-13 10:55:00+00:00,7.0,6.0,350.0,4.0,,10.0,1005.75783,MVFR,,"[{""cover"": ""OVC"", ""base_ft_agl"": 2900.0}]",METAR K65S 131055Z AUTO 35004KT 10SM OVC029 07/06 A2970 RMK AO2
K66R,2026-04-13 10:55:00+00:00,2026-04-13 10:55:00+00:00,22.1,21.3,160.0,4.0,,10.0,1018.964751,MVFR,,"[{""cover"": ""OVC"", ""base_ft_agl"": 1000.0}]",METAR K66R 131055Z AUTO 16004KT 10SM OVC010 22/21 A3009 RMK AO2 T02210213
K6A2,2026-04-13 10:55:00+00:00,2026-04-13 10:55:00+00:00,11.0,11.0,0.0,0.0,,10.0,1026.753448,VFR,,,METAR K6A2 131055Z AUTO 00000KT 10SM CLR 11/11 A3032 RMK AO2
K6B0,2026-04-13 10:55:00+00:00,2026-04-13 10:55:00+00:00,8.4,2.7,170.0,5.0,,10.0,1015.578361,VFR,,"[{""cover"": ""OVC"", ""base_ft_agl"": 12000.0}]",METAR K6B0 131055Z AUTO 17005KT 10SM OVC120 08/03 A2999 RMK AO2 T00840027
K6B9,2026-04-13 10:55:00+00:00,2026-04-13 10:55:00+00:00,15.0,7.0,190.0,8.0,16.0,10.0,1013.2078880000001,VFR,,"[{""cover"": ""FEW"", ""base_ft_agl"": 9500.0}, {""cover"": ""SCT"", ""base_ft_agl"": 12000.0}]",METAR K6B9 131055Z AUTO 19008G16KT 150V220 10SM FEW095 SCT120 15/07 A2992 RMK AO2
K6E5,2026-04-13 10:55:00+00:00,2026-04-13 10:55:00+00:00,9.0,9.0,60.0,6.0,11.0,0.5,1006.7737470000001,LIFR,BR,"[{""cover"": ""OVC"", ""base_ft_agl"": 200.0}]",METAR K6E5 131055Z AUTO 06006G11KT 1/2SM BR OVC002 09/09 A2973 RMK AO2
K6I2,2026-04-13 10:55:00+00:00,2026-04-13 10:55:00+00:00,21.0,10.0,190.0,13.0,19.0,10.0,1020.657946,VFR,,,METAR K6I2 131055Z AUTO 19013G19KT 10SM CLR 21/10 A3014 RMK AO2
K6L4,2026-04-13 10:55:00+00:00,2026-04-13 10:55:00+00:00,20.0,6.0,0.0,5.0,,10.0,1022.68978,VFR,,"[{""cover"": ""BKN"", ""base_ft_agl"": 10000.0}, {""cover"": ""OVC"", ""base_ft_agl"": 12000.0}]",METAR K6L4 131055Z AUTO VRB05KT 10SM BKN100 OVC120 20/06 A3020 RMK AO2
K6P9,2026-04-13 10:55:00+00:00,2026-04-13 10:55:00+00:00,21.0,19.2,210.0,12.0,16.0,10.0,1016.2556390000001,MVFR,,"[{""cover"": ""OVC"", ""base_ft_agl"": 2000.0}]",METAR K6P9 131055Z AUTO 21012G16KT 10SM OVC020 21/19 A3001 RMK AO2 T02100192
K6R6,2026-04-13 10:51:00+00:00,2026-04-13 10:51:00+00:00,19.4,17.8,50.0,5.0,,,1017.271556,,,,METAR K6R6 131051Z AUTO 05005KT 19/18 A3004 RMK AO1 SLP138 T01940178 $
K6S0,2026-04-13 10:55:00+00:00,2026-04-13 10:55:00+00:00,5.0,0.0,290.0,11.0,18.0,10.0,1007.112386,VFR,,,METAR K6S0 131055Z AUTO 29011G18KT 10SM CLR 05/00 A2974 RMK A01
K6S2,2026-04-13 10:55:00+00:00,2026-04-13 10:55:00+00:00,9.0,9.0,320.0,7.0,,10.0,1018.6261119999999,MVFR,,"[{""cover"": ""FEW"", ""base_ft_agl"": 900.0}, {""cover"": ""BKN"", ""base_ft_agl"": 2000.0}, {""cover"": ""OVC"", ""base_ft_agl"": 3500.0}]",METAR K6S2 131055Z AUTO 32007KT 10SM FEW009 BKN020 OVC035 09/09 A3008 RMK AO2
K6S8,2026-04-13 10:55:00+00:00,2026-04-13 10:55:00+00:00,5.0,5.0,,,,10.0,1006.435108,VFR,,,METAR K6S8 131055Z AUTO 10SM CLR 05/05 A2972 RMK A01
K74V,2026-04-13 10:55:00+00:00,2026-04-13 10:55:00+00:00,7.0,-1.0,260.0,11.0,,10.0,1013.885166,VFR,,"[{""cover"": ""SCT"", ""base_ft_agl"": 12000.0}]",METAR K74V 131055Z AUTO 26011KT 10SM SCT120 07/M01 A2994 RMK AO2
K77S,2026-04-13 10:55:00+00:00,2026-04-13 10:55:00+00:00,10.0,9.0,220.0,4.0,,10.0,1017.271556,MVFR,,"[{""cover"": ""OVC"", ""base_ft_agl"": 2400.0}]",METAR K77S 131055Z AUTO 22004KT 10SM OVC024 10/09 A3004 RMK A01
K79J,2026-04-13 10:56:00+00:00,2026-04-13 10:56:00+00:00,12.2,12.2,110.0,3.0,,7.0,1025.737531,VFR,,,METAR K79J 131056Z AUTO 11003KT 7SM CLR 12/12 A3029 RMK AO2 SLP253 T01220122 TSNO $
K79S,2026-04-13 10:55:00+00:00,2026-04-13 10:55:00+00:00,7.9,7.6,200.0,5.0,,9.0,1005.080552,VFR,,"[{""cover"": ""FEW"", ""base_ft_agl"": 800.0}, {""cover"": ""BKN"", ""base_ft_agl"": 6000.0}, {""cover"": ""BKN"", ""base_ft_agl"": 7500.0}]",METAR K79S 131055Z AUTO 20005KT 9SM FEW008 BKN060 BKN075 08/08 A2968 RMK AO2 T00790076 $
K7BM,2026-04-13 10:55:00+00:00,2026-04-13 10:55:00+00:00,3.0,-12.0,240.0,12.0,21.0,10.0,1017.271556,VFR,,,METAR K7BM 131055Z AUTO 24012G21KT 10SM CLR 03/M12 A3004 RMK AO2
K7L2,2026-04-13 10:55:00+00:00,2026-04-13 10:55:00+00:00,7.0,7.0,60.0,8.0,,10.0,1009.821498,IFR,,"[{""cover"": ""OVC"", ""base_ft_agl"": 600.0}]",METAR K7L2 131055Z AUTO 06008KT 10SM OVC006 07/07 A2982 RMK AO2
K7S0,2026-04-13 10:55:00+00:00,2026-04-13 10:55:00+00:00,8.0,4.0,230.0,6.0,,10.0,1006.0964690000001,VFR,,"[{""cover"": ""OVC"", ""base_ft_agl"": 5000.0}]",METAR K7S0 131055Z AUTO 23006KT 10SM OVC050 08/04 A2971 RMK A01
K7W4,2026-04-13 10:55:00+00:00,2026-04-13 10:55:00+00:00,16.9,14.9,220.0,6.0,,10.0,1023.367058,VFR,,,METAR K7W4 131055Z AUTO 22006KT 10SM CLR 17/15 A3022 RMK AO1 T01690149
K7W6,2026-04-13 10:55:00+00:00,2026-04-13 10:55:00+00:00,16.0,14.6,210.0,4.0,,10.0,1027.769365,VFR,,,METAR K7W6 131055Z AUTO 21004KT 10SM CLR 16/15 A3035 RMK AO2 T01600146
K81R,2026-04-13 10:55:00+00:00,2026-04-13 10:55:00+00:00,21.5,20.3,180.0,4.0,,10.0,1017.6101950000001,MVFR,,"[{""cover"": ""OVC"", ""base_ft_agl"": 1000.0}]",METAR K81R 131055Z AUTO 18004KT 10SM OVC010 21/20 A3005 RMK AO2 T02150203
K82C,2026-04-13 10:55:00+00:00,2026-04-13 10:55:00+00:00,16.7,16.7,240.0,7.0,,10.0,1007.7896640000001,VFR,,,METAR K82C 131055Z AUTO 24007KT 10SM CLR 17/17 A2976 RMK AO2 T01670167
K82V,2026-04-13 10:55:00+00:00,2026-04-13 10:55:00+00:00,7.0,-7.0,290.0,9.0,,10.0,1009.821498,VFR,,,METAR K82V 131055Z AUTO 29009KT 10SM 07/M07 A2982 RMK AO2
K8A1,2026-04-13 10:55:00+00:00,2026-04-13 10:55:00+00:00,14.0,13.0,0.0,1.0,,10.0,1025.060253,VFR,,"[{""cover"": ""FEW"", ""base_ft_agl"": 4600.0}]",METAR K8A1 131055Z AUTO VRB01KT 10SM FEW046 14/13 A3027 RMK AO2
K8A3,2026-04-13 10:55:00+00:00,2026-04-13 10:55:00+00:00,18.0,10.0,230.0,10.0,,10.0,1023.0284190000001,VFR,,"[{""cover"": ""FEW"", ""base_ft_agl"": 3200.0}, {""cover"": ""SCT"", ""base_ft_agl"": 5500.0}, {""cover"": ""BKN"", ""base_ft_agl"": 7000.0}]",METAR K8A3 131055Z AUTO 23010KT 10SM FEW032 SCT055 BKN070 18/10 A3021 RMK A01
K8D3,2026-04-13 10:56:00+00:00,2026-04-13 10:56:00+00:00,6.1,5.0,360.0,14.0,,,1008.805581,,,,METAR K8D3 131056Z AUTO 36014KT 06/05 A2979 RMK AO1 SLP082 T00610050
K8D4,2026-04-13 10:55:00+00:00,2026-04-13 10:55:00+00:00,16.0,14.0,240.0,13.0,,10.0,1008.805581,IFR,,"[{""cover"": ""OVC"", ""base_ft_agl"": 500.0}]",METAR K8D4 131055Z AUTO 24013KT 10SM OVC005 16/14 A2979 RMK AO2 P0001
K8T6,2026-04-13 10:55:00+00:00,2026-04-13 10:55:00+00:00,23.0,22.0,140.0,7.0,,8.0,1016.9329170000001,IFR,,"[{""cover"": ""OVC"", ""base_ft_agl"": 900.0}]",METAR K8T6 131055Z AUTO 14007KT 8SM OVC009 23/22 A3003 RMK AO2
K8V7,2026-04-13 10:55:00+00:00,2026-04-13 10:55:00+00:00,15.0,-9.0,250.0,9.0,,10.0,1010.8374150000001,VFR,,,METAR K8V7 131055Z AUTO 25009KT 10SM CLR 15/M09 A2985 RMK AO2
K8W2,2026-04-13 10:55:00+00:00,2026-04-13 10:55:00+00:00,18.2,10.1,240.0,7.0,,10.0,1021.6738630000001,VFR,,,METAR K8W2 131055Z AUTO 24007KT 10SM CLR 18/10 A3017 RMK AO1 T01820101
K96D,2026-04-13 10:55:00+00:00,2026-04-13 10:55:00+00:00,1.0,1.0,340.0,7.0,,10.0,1011.5146930000001,MVFR,,"[{""cover"": ""OVC"", ""base_ft_agl"": 1900.0}]",METAR K96D 131055Z AUTO 34007KT 10SM OVC019 01/01 A2987 RMK AO2
K9A4,2026-04-13 11:00:00+00:00,2026-04-13 11:00:00+00:00,,,0.0,0.0,,10.0,1024.382975,VFR,,,METAR K9A4 131100Z AUTO 00000KT 10SM CLR A3025 RMK AO2
K9D7,2026-04-13 10:55:00+00:00,2026-04-13 10:55:00+00:00,-1.0,0.0,360.0,7.0,,10.0,1011.853332,MVFR,,"[{""cover"": ""OVC"", ""base_ft_agl"": 2700.0}]",METAR K9D7 131055Z AUTO 36007KT 10SM OVC027 M01/M00 A2988 RMK AO2
K9K7,2026-04-13 10:55:00+00:00,2026-04-13 10:55:00+00:00,20.0,17.0,200.0,13.0,23.0,10.0,1007.4510250000001,VFR,,,METAR K9K7 131055Z AUTO 20013G23KT 10SM CLR 20/17 A2975 RMK AO2 PK WND 20027/39
K9L2,2026-04-13 10:55:00+00:00,2026-04-13 10:55:00+00:00,9.4,5.4,210.0,10.0,,10.0,1015.239722,VFR,,"[{""cover"": ""OVC"", ""base_ft_agl"": 6000.0}]",METAR K9L2 131055Z AUTO 21010KT 10SM OVC060 09/05 A2998 RMK AO2 SLPNO T00940054 $
K9MN,2026-04-13 10:55:00+00:00,2026-04-13 10:55:00+00:00,13.5,13.6,130.0,6.0,,10.0,1007.4510250000001,VFR,,,METAR K9MN 131055Z AUTO 13006KT 10SM CLR 14/14 A2975 RMK AO1 T01350136
K9S2,2026-04-13 10:55:00+00:00,2026-04-13 10:55:00+00:00,1.0,0.0,130.0,6.0,,10.0,1008.466942,VFR,,"[{""cover"": ""BKN"", ""base_ft_agl"": 6000.0}, {""cover"": ""OVC"", ""base_ft_agl"": 7500.0}]",METAR K9S2 131055Z AUTO 13006KT 10SM BKN060 OVC075 01/00 A2978 RMK AO2
K9S9,2026-04-13 10:55:00+00:00,2026-04-13 10:55:00+00:00,8.0,6.0,250.0,7.0,,10.0,1011.853332,VFR,,"[{""cover"": ""FEW"", ""base_ft_agl"": 3300.0}, {""cover"": ""BKN"", ""base_ft_agl"": 6000.0}, {""cover"": ""OVC"", ""base_ft_agl"": 9000.0}]",METAR K9S9 131055Z AUTO 25007KT 10SM FEW033 BKN060 OVC090 08/06 A2988 RMK AO2
K9V9,2026-04-13 10:55:00+00:00,2026-04-13 10:55:00+00:00,13.1,6.0,60.0,5.0,,10.0,1004.7419130000001,VFR,,,METAR K9V9 131055Z AUTO 06005KT 10SM CLR 13/06 A2967 RMK AO2 T01310060
K9Y1,2026-04-13 10:55:00+00:00,2026-04-13 10:55:00+00:00,2.0,2.0,80.0,7.0,,6.0,1008.466942,LIFR,BR,"[{""cover"": ""OVC"", ""base_ft_agl"": 400.0}]",METAR K9Y1 131055Z AUTO 08007KT 6SM BR OVC004 02/02 A2978 RMK AO2
KA39,2026-04-13 10:55:00+00:00,2026-04-13 10:55:00+00:00,18.0,5.0,100.0,5.0,,10.0,1015.239722,VFR,,"[{""cover"": ""BKN"", ""base_ft_agl"": 7000.0}]",METAR KA39 131055Z AUTO 10005KT 10SM BKN070 18/05 A2998 RMK AO2
KAAA,2026-04-13 10:55:00+00:00,2026-04-13 10:55:00+00:00,20.0,14.7,200.0,6.0,,10.0,1013.546527,VFR,,,METAR KAAA 131055Z AUTO 20006KT 10SM CLR 20/15 A2993 RMK AO2 T02000147
KAAF,2026-04-13 10:53:00+00:00,2026-04-13 10:53:00+00:00,20.0,16.1,150.0,10.0,,10.0,1025.3988920000002,VFR,,"[{""cover"": ""SCT"", ""base_ft_agl"": 2000.0}]",METAR KAAF 131053Z AUTO 15010KT 10SM SCT020 20/16 A3028 RMK AO1 SLP254 T02000161 $
KAAO,2026-04-13 10:54:00+00:00,2026-04-13 10:54:00+00:00,20.0,17.8,190.0,21.0,30.0,10.0,1009.482859,MVFR,,"[{""cover"": ""OVC"", ""base_ft_agl"": 1500.0}]",METAR KAAO 131054Z AUTO 19021G30KT 10SM OVC015 20/18 A2981 RMK AO2 PK WND 20030/1053 SLP083 T02000178 $
KAAS,2026-04-13 10:55:00+00:00,2026-04-13 10:55:00+00:00,21.0,12.0,230.0,10.0,18.0,10.0,1023.0284190000001,VFR,,"[{""cover"": ""BKN"", ""base_ft_agl"": 6000.0}, {""cover"": ""OVC"", ""base_ft_agl"": 7000.0}]",METAR KAAS 131055Z AUTO 23010G18KT 10SM BKN060 OVC070 21/12 A3021 RMK AO1
KAAT,2026-04-13 10:55:00+00:00,2026-04-13 10:55:00+00:00,-1.7,-2.2,0.0,0.0,,10.0,1016.594278,MVFR,,"[{""cover"": ""OVC"", ""base_ft_agl"": 2100.0}]",METAR KAAT 131055Z AUTO 00000KT 10SM OVC021 M02/M02 A3002 RMK AO2 SLP168 T10171022
KABE,2026-04-13 10:51:00+00:00,2026-04-13 10:51:00+00:00,12.2,8.3,190.0,4.0,,10.0,1020.657946,MVFR,,"[{""cover"": ""OVC"", ""base_ft_agl"": 1400.0}]",METAR KABE 131051Z 19004KT 10SM OVC014 12/08 A3014 RMK AO2 SLP206 T01220083 $
KABI,2026-04-13 10:52:00+00:00,2026-04-13 10:52:00+00:00,21.1,19.4,190.0,14.0,22.0,10.0,1016.2556390000001,VFR,,,METAR KABI 131052Z 19014G22KT 10SM CLR 21/19 A3001 RMK AO2 SLP137 T02110194 $
KABQ,2026-04-13 10:52:00+00:00,2026-04-13 10:52:00+00:00,14.4,-1.1,250.0,5.0,,10.0,1018.2874730000001,VFR,,"[{""cover"": ""SCT"", ""base_ft_agl"": 15000.0}, {""cover"": ""BKN"", ""base_ft_agl"": 25000.0}]",METAR KABQ 131052Z 25005KT 10SM SCT150 BKN250 14/M01 A3007 RMK AO2 SLP113 T01441011 $
KABR,2026-04-13 10:53:00+00:00,2026-04-13 10:53:00+00:00,6.1,5.6,40.0,14.0,23.0,10.0,1008.128303,LIFR,,"[{""cover"": ""OVC"", ""base_ft_agl"": 400.0}]",METAR KABR 131053Z AUTO 04014G23KT 10SM OVC004 06/06 A2977 RMK AO2 SLP078 T00610056
KABY,2026-04-13 10:53:00+00:00,2026-04-13 10:53:00+00:00,14.4,12.2,0.0,0.0,,10.0,1027.092087,VFR,,,METAR KABY 131053Z AUTO 00000KT 10SM CLR 14/12 A3033 RMK AO2 SLP269 T01440122 $
KACJ,2026-04-13 10:55:00+00:00,2026-04-13 10:55:00+00:00,12.2,12.2,0.0,0.0,,10.0,1025.3988920000002,VFR,,,METAR KACJ 131055Z AUTO 00000KT 10SM CLR 12/12 A3028 RMK AO2 T01220122
KACK,2026-04-13 10:53:00+00:00,2026-04-13 10:53:00+00:00,8.3,6.1,180.0,17.0,,10.0,1024.721614,VFR,,"[{""cover"": ""OVC"", ""base_ft_agl"": 4600.0}]",METAR KACK 131053Z 18017KT 10SM OVC046 08/06 A3026 RMK AO2 SLP246 T00830061
KACP,2026-04-13 10:55:00+00:00,2026-04-13 10:55:00+00:00,20.0,18.0,0.0,0.0,,10.0,1020.657946,VFR,,,METAR KACP 131055Z AUTO 00000KT 10SM CLR 20/18 A3014 RMK AO2
KACQ,2026-04-13 10:55:00+00:00,2026-04-13 10:55:00+00:00,8.0,8.0,140.0,6.0,,0.5,1007.112386,LIFR,FG,"[{""cover"": ""OVX"", ""base_ft_agl"": 500.0}]",METAR KACQ 131055Z AUTO 14006KT 1/2SM FG VV005 08/08 A2974 RMK AO2
KACT,2026-04-13 11:05:00+00:00,2026-04-13 11:05:00+00:00,21.7,20.0,160.0,9.0,,10.0,1017.6101950000001,IFR,,"[{""cover"": ""BKN"", ""base_ft_agl"": 900.0}, {""cover"": ""OVC"", ""base_ft_agl"": 1400.0}]",SPECI KACT 131105Z 16009KT 10SM BKN009 OVC014 22/20 A3005 RMK AO2 CIG 007V011 T02170200
KACV,2026-04-13 10:53:00+00:00,2026-04-13 10:53:00+00:00,8.9,7.8,0.0,0.0,,10.0,1018.964751,VFR,,"[{""cover"": ""OVC"", ""base_ft_agl"": 4300.0}]",METAR KACV 131053Z AUTO 00000KT 10SM OVC043 09/08 A3009 RMK AO2 SLP194 T00890078
KACY,2026-04-13 10:54:00+00:00,2026-04-13 10:54:00+00:00,13.9,11.1,190.0,7.0,,10.0,1022.3511410000001,VFR,,,METAR KACY 131054Z AUTO 19007KT 10SM CLR 14/11 A3019 RMK AO2 SLP223 T01390111
KADC,2026-04-13 10:55:00+00:00,2026-04-13 10:55:00+00:00,7.0,6.0,10.0,7.0,,7.0,1008.128303,IFR,,"[{""cover"": ""OVC"", ""base_ft_agl"": 600.0}]",METAR KADC 131055Z AUTO 01007KT 7SM OVC006 07/06 A2977 RMK AO2
KADF,2026-04-13 10:55:00+00:00,2026-04-13 10:55:00+00:00,19.4,19.4,150.0,4.0,,10.0,1019.30339,VFR,,"[{""cover"": ""FEW"", ""base_ft_agl"": 2200.0}, {""cover"": ""BKN"", ""base_ft_agl"": 3800.0}]",METAR KADF 131055Z AUTO 15004KT 10SM FEW022 BKN038 19/19 A3010 RMK AO2 RAB0958E03 SLP191 T01940194
KADG,2026-04-13 10:53:00+00:00,2026-04-13 10:53:00+00:00,18.3,13.9,240.0,8.0,,10.0,1012.1919710000001,MVFR,,"[{""cover"": ""OVC"", ""base_ft_agl"": 2700.0}]",METAR KADG 131053Z AUTO 24008KT 10SM OVC027 18/14 A2989 RMK AO2 SLP119 T01830139 $
KADH,2026-04-13 10:55:00+00:00,2026-04-13 10:55:00+00:00,21.0,21.0,190.0,13.0,21.0,10.0,1015.239722,MVFR,,"[{""cover"": ""OVC"", ""base_ft_agl"": 1900.0}]",METAR KADH 131055Z AUTO 19013G21KT 10SM OVC019 21/21 A2998 RMK AO2
KADM,2026-04-13 10:55:00+00:00,2026-04-13 10:55:00+00:00,22.0,19.0,200.0,13.0,,10.0,1015.239722,MVFR,,"[{""cover"": ""OVC"", ""base_ft_agl"": 1800.0}]",METAR KADM 131055Z AUTO 20013KT 10SM OVC018 22/19 A2998 RMK AO2
KADS,2026-04-13 10:47:00+00:00,2026-04-13 10:47:00+00:00,22.0,17.0,190.0,12.0,18.0,10.0,1017.271556,MVFR,,"[{""cover"": ""OVC"", ""base_ft_agl"": 1200.0}]",METAR KADS 131047Z 19012G18KT 10SM OVC012 22/17 A3004
KADT,2026-04-13 10:55:00+00:00,2026-04-13 10:55:00+00:00,10.5,-4.7,210.0,7.0,,10.0,1006.435108,VFR,,,METAR KADT 131055Z AUTO 21007KT 10SM CLR 11/M05 A2972 RMK AO2 T01051047
KADU,2026-04-13 10:55:00+00:00,2026-04-13 10:55:00+00:00,15.0,14.0,180.0,6.0,,3.0,1007.112386,IFR,BR,"[{""cover"": ""OVC"", ""base_ft_agl"": 900.0}]",METAR KADU 131055Z AUTO 18006KT 3SM BR OVC009 15/14 A2974 RMK AO2
KADW,2026-04-13 10:55:00+00:00,2026-04-13 10:55:00+00:00,17.3,14.0,210.0,15.0,,10.0,1021.335224,VFR,,,METAR KADW 131055Z AUTO 21015KT 10SM CLR 17/14 A3016 RMK AO2 SLP219 T01730140 $
KAEG,2026-04-13 10:55:00+00:00,2026-04-13 10:55:00+00:00,11.2,0.1,240.0,10.0,,10.0,1018.6261119999999,VFR,,,METAR KAEG 131055Z AUTO 24010KT 10SM CLR 11/00 A3008 RMK AO2 T01120001
KAEJ,2026-04-13 10:55:00+00:00,2026-04-13 10:55:00+00:00,6.3,-12.1,290.0,8.0,,10.0,1015.578361,VFR,,,METAR KAEJ 131055Z AUTO 29008KT 10SM CLR 06/M12 A2999 RMK AO2 T00631121
KAEL,2026-04-13 10:55:00+00:00,2026-04-13 10:55:00+00:00,12.6,12.6,180.0,5.0,,7.0,1006.7737470000001,VFR,,,METAR KAEL 131055Z AUTO 18005KT 7SM CLR 13/13 A2973 RMK AO2 T01260126
KAEX,2026-04-13 10:53:00+00:00,2026-04-13 10:53:00+00:00,19.4,17.2,140.0,4.0,,10.0,1020.657946,VFR,,,METAR KAEX 131053Z 14004KT 10SM CLR 19/17 A3014 RMK AO2 SLP209 T01940172
KAFF,2026-04-13 10:55:00+00:00,2026-04-13 10:55:00+00:00,11.6,-14.2,80.0,6.0,,10.0,1011.853332,VFR,,"[{""cover"": ""BKN"", ""base_ft_agl"": 22000.0}]",METAR KAFF 131055Z AUTO 08006KT 10SM BKN220 12/M14 A2988 RMK AO2 SLP041 T01161142
KAFJ,2026-04-13 10:56:00+00:00,2026-04-13 10:56:00+00:00,22.2,7.2,220.0,14.0,22.0,10.0,1018.6261119999999,VFR,,"[{""cover"": ""FEW"", ""base_ft_agl"": 7500.0}, {""cover"": ""OVC"", ""base_ft_agl"": 10000.0}]",METAR KAFJ 131056Z AUTO 22014G22KT 10SM FEW075 OVC100 22/07 A3008 RMK AO2 SLP177 T02220072 $
KAFK,2026-04-13 10:55:00+00:00,2026-04-13 10:55:00+00:00,18.4,17.7,180.0,10.0,,10.0,1006.435108,VFR,,,METAR KAFK 131055Z AUTO 18010KT 10SM CLR 18/18 A2972 RMK AO2 T01840177
KAFN,2026-04-13 10:59:00+00:00,2026-04-13 10:59:00+00:00,8.3,2.8,210.0,8.0,17.0,10.0,1018.964751,MVFR,,"[{""cover"": ""BKN"", ""base_ft_agl"": 1900.0}]",SPECI KAFN 131059Z AUTO 21008G17KT 10SM BKN019 08/03 A3009 RMK AO2 T00830028
KAFO,2026-04-13 10:55:00+00:00,2026-04-13 10:55:00+00:00,0.0,-1.0,190.0,6.0,,10.0,1014.223805,VFR,,"[{""cover"": ""SCT"", ""base_ft_agl"": 3400.0}, {""cover"": ""BKN"", ""base_ft_agl"": 6500.0}, {""cover"": ""OVC"", ""base_ft_agl"": 7000.0}]",METAR KAFO 131055Z AUTO 19006KT 10SM SCT034 BKN065 OVC070 00/M01 A2995 RMK AO2
KAFW,2026-04-13 10:53:00+00:00,2026-04-13 10:53:00+00:00,21.7,19.4,180.0,14.0,,10.0,1015.917,MVFR,,"[{""cover"": ""OVC"", ""base_ft_agl"": 1600.0}]",METAR KAFW 131053Z 18014KT 10SM OVC016 22/19 A3000 RMK AO2 PK WND 17027/1000 SLP149 T02170194 $
KAGC,2026-04-13 10:53:00+00:00,2026-04-13 10:53:00+00:00,21.7,6.7,230.0,14.0,21.0,10.0,1016.594278,VFR,,"[{""cover"": ""BKN"", ""base_ft_agl"": 10000.0}]",METAR KAGC 131053Z 23014G21KT 10SM BKN100 22/07 A3002 RMK AO2 PK WND 23027/1043 SLP162 T02170067
KAGI,2026-04-13 10:55:00+00:00,2026-04-13 10:55:00+00:00,23.0,19.0,130.0,19.0,,10.0,1019.642029,VFR,,,METAR KAGI 131055Z AUTO 13019KT 10SM CLR 23/19 A3011 RMK AO2
KAGO,2026-04-13 10:55:00+00:00,2026-04-13 10:55:00+00:00,20.0,18.0,0.0,3.0,,9.0,1019.30339,MVFR,,"[{""cover"": ""OVC"", ""base_ft_agl"": 1900.0}]",METAR KAGO 131055Z AUTO VRB03KT 9SM OVC019 20/18 A3010 RMK A01
KAGS,2026-04-13 10:59:00+00:00,2026-04-13 10:59:00+00:00,10.6,10.6,0.0,0.0,,1.5,1027.092087,LIFR,BR,"[{""cover"": ""BKN"", ""base_ft_agl"": 200.0}]",SPECI KAGS 131059Z AUTO 00000KT 1 1/2SM BR BKN002 11/11 A3033 RMK AO2 T01060106
KAGZ,2026-04-13 10:55:00+00:00,2026-04-13 10:55:00+00:00,14.0,8.0,50.0,13.0,17.0,10.0,1004.403274,VFR,,"[{""cover"": ""FEW"", ""base_ft_agl"": 2300.0}, {""cover"": ""SCT"", ""base_ft_agl"": 6000.0}, {""cover"": ""BKN"", ""base_ft_agl"": 9000.0}]",METAR KAGZ 131055Z AUTO 05013G17KT 10SM FEW023 SCT060 BKN090 14/08 A2966 RMK AO2 PRESFR
KAHN,2026-04-13 10:51:00+00:00,2026-04-13 10:51:00+00:00,13.9,11.7,0.0,0.0,,10.0,1027.092087,VFR,,,METAR KAHN 131051Z AUTO 00000KT 10SM CLR 14/12 A3033 RMK AO2 SLP265 T01390117
KAHQ,2026-04-13 10:55:00+00:00,2026-04-13 10:55:00+00:00,18.1,16.7,150.0,9.0,,10.0,1005.080552,VFR,,"[{""cover"": ""SCT"", ""base_ft_agl"": 1300.0}]",METAR KAHQ 131055Z AUTO 15009KT 10SM SCT013 18/17 A2968 RMK AO2 T01810167
KAIA,2026-04-13 10:53:00+00:00,2026-04-13 10:53:00+00:00,3.9,-2.2,290.0,6.0,,10.0,1006.7737470000001,VFR,,,METAR KAIA 131053Z AUTO 29006KT 10SM CLR 04/M02 A2973 RMK AO2 SLP041 T00391022
KAID,2026-04-13 10:55:00+00:00,2026-04-13 10:55:00+00:00,18.3,11.6,220.0,8.0,,10.0,1015.578361,VFR,,"[{""cover"": ""SCT"", ""base_ft_agl"": 3700.0}]",METAR KAID 131055Z AUTO 22008KT 10SM SCT037 18/12 A2999 RMK AO2 T01830116
KAIG,2026-04-13 10:55:00+00:00,2026-04-13 10:55:00+00:00,12.5,12.5,250.0,5.0,,10.0,1006.0964690000001,VFR,,"[{""cover"": ""SCT"", ""base_ft_agl"": 1300.0}]",METAR KAIG 131055Z AUTO 25005KT 10SM SCT013 13/13 A2971 RMK AO2 T01250125
KAIK,2026-04-13 10:55:00+00:00,2026-04-13 10:55:00+00:00,11.4,11.1,0.0,0.0,,1.5,1027.769365,IFR,BR,"[{""cover"": ""OVX"", ""base_ft_agl"": 700.0}]",METAR KAIK 131055Z AUTO 00000KT 1 1/2SM BR VV007 11/11 A3035 RMK AO2 VIS 1/2V5 T01140111
KAIO,2026-04-13 10:55:00+00:00,2026-04-13 10:55:00+00:00,18.0,18.0,190.0,12.0,17.0,10.0,1006.7737470000001,MVFR,,"[{""cover"": ""SCT"", ""base_ft_agl"": 1500.0}, {""cover"": ""BKN"", ""base_ft_agl"": 2100.0}]",METAR KAIO 131055Z AUTO 19012G17KT 10SM SCT015 BKN021 18/18 A2973 RMK AO2
KAIT,2026-04-13 10:55:00+00:00,2026-04-13 10:55:00+00:00,8.0,7.0,10.0,6.0,,10.0,1008.128303,IFR,,"[{""cover"": ""OVC"", ""base_ft_agl"": 900.0}]",METAR KAIT 131055Z AUTO 01006KT 10SM OVC009 08/07 A2977 RMK AO2
KAIZ,2026-04-13 10:56:00+00:00,2026-04-13 10:56:00+00:00,20.0,17.2,200.0,8.0,,10.0,1014.562444,MVFR,,"[{""cover"": ""OVC"", ""base_ft_agl"": 3000.0}]",METAR KAIZ 131056Z AUTO 20008KT 10SM OVC030 20/17 A2996 RMK AO2 SLP137 T02000172 $
KAJG,2026-04-13 10:55:00+00:00,2026-04-13 10:55:00+00:00,22.5,14.8,200.0,12.0,16.0,10.0,1017.271556,VFR,,"[{""cover"": ""OVC"", ""base_ft_agl"": 5500.0}]",METAR KAJG 131055Z AUTO 20012G16KT 10SM OVC055 23/15 A3004 RMK AO2 T02250148
KAJO,2026-04-13 10:56:00+00:00,2026-04-13 10:56:00+00:00,7.8,7.2,0.0,0.0,,10.0,1016.9329170000001,VFR,,"[{""cover"": ""SCT"", ""base_ft_agl"": 6000.0}]",METAR KAJO 131056Z AUTO 00000KT 10SM SCT060 08/07 A3003 RMK AO2 SLP167 T00780072
KAJR,2026-04-13 10:55:00+00:00,2026-04-13 10:55:00+00:00,14.2,9.6,190.0,4.0,,10.0,1027.092087,VFR,,,METAR KAJR 131055Z AUTO 19004KT 10SM CLR 14/10 A3033 RMK AO2 T01420096
KAJZ,2026-04-13 10:55:00+00:00,2026-04-13 10:55:00+00:00,9.0,-6.9,200.0,5.0,,10.0,1015.239722,VFR,,,METAR KAJZ 131055Z AUTO 20005KT 10SM CLR 09/M07 A2998 RMK AO2 T00901069
KAKH,2026-04-13 10:54:00+00:00,2026-04-13 10:54:00+00:00,13.3,11.7,210.0,5.0,,10.0,1027.092087,VFR,,,METAR KAKH 131054Z AUTO 21005KT 10SM CLR 13/12 A3033 RMK AO2 SLP268 T01330117
KAKO,2026-04-13 10:53:00+00:00,2026-04-13 10:53:00+00:00,10.6,-7.8,250.0,11.0,,10.0,1008.805581,VFR,,,METAR KAKO 131053Z AUTO 25011KT 10SM CLR 11/M08 A2979 RMK AO2 SLP042 T01061078
KAKQ,2026-04-13 10:54:00+00:00,2026-04-13 10:54:00+00:00,15.6,13.9,0.0,4.0,,10.0,1025.737531,VFR,,"[{""cover"": ""FEW"", ""base_ft_agl"": 1600.0}]",METAR KAKQ 131054Z AUTO VRB04KT 10SM FEW016 16/14 A3029 RMK AO2 SLP258 T01560139
KAKR,2026-04-13 10:54:00+00:00,2026-04-13 10:54:00+00:00,20.6,9.4,260.0,17.0,26.0,10.0,1014.901083,VFR,,"[{""cover"": ""OVC"", ""base_ft_agl"": 5500.0}]",METAR KAKR 131054Z AUTO 26017G26KT 10SM OVC055 21/09 A2997 RMK AO2 PK WND 22029/1044 PRESRR SLP141 T02060094
KALB,2026-04-13 10:51:00+00:00,2026-04-13 10:51:00+00:00,9.4,3.3,170.0,13.0,21.0,10.0,1017.271556,VFR,,"[{""cover"": ""SCT"", ""base_ft_agl"": 10000.0}, {""cover"": ""SCT"", ""base_ft_agl"": 17000.0}, {""cover"": ""BKN"", ""base_ft_agl"": 23000.0}]",METAR KALB 131051Z 17013G21KT 10SM SCT100 SCT170 BKN230 09/03 A3004 RMK AO2 SLP174 T00940033 $
KALI,2026-04-13 10:53:00+00:00,2026-04-13 10:53:00+00:00,22.8,21.7,130.0,9.0,,8.0,1016.9329170000001,IFR,,"[{""cover"": ""OVC"", ""base_ft_agl"": 600.0}]",METAR KALI 131053Z AUTO 13009KT 8SM OVC006 23/22 A3003 RMK AO2 SLP165 T02280217
KALK,2026-04-13 10:56:00+00:00,2026-04-13 10:56:00+00:00,16.1,0.0,210.0,15.0,27.0,10.0,1019.30339,VFR,,"[{""cover"": ""FEW"", ""base_ft_agl"": 12000.0}]",METAR KALK 131056Z AUTO 21015G27KT 10SM FEW120 16/00 A3010 RMK AO2 PK WND 21027/1052 SLP115 T01610000
KALN,2026-04-13 10:55:00+00:00,2026-04-13 10:55:00+00:00,19.2,15.9,170.0,9.0,,10.0,1015.239722,VFR,,"[{""cover"": ""SCT"", ""base_ft_agl"": 3800.0}]",METAR KALN 131055Z AUTO 17009KT 10SM SCT038 19/16 A2998 RMK AO2 T01920159
KALO,2026-04-13 10:54:00+00:00,2026-04-13 10:54:00+00:00,13.3,13.3,150.0,5.0,,3.0,1008.466942,MVFR,BR,,METAR KALO 131054Z 15005KT 3SM R12/1400V2800FT BR CLR 13/13 A2978 RMK AO2 SLP083 T01330133
KALS,2026-04-13 10:52:00+00:00,2026-04-13 10:52:00+00:00,2.8,-9.4,240.0,6.0,,10.0,1016.9329170000001,VFR,,,METAR KALS 131052Z AUTO 24006KT 10SM CLR 03/M09 A3003 RMK AO2 SLP111 T00281094 $
KALW,2026-04-13 10:53:00+00:00,2026-04-13 10:53:00+00:00,8.9,7.8,170.0,9.0,,10.0,1008.805581,VFR,-RA,"[{""cover"": ""OVC"", ""base_ft_agl"": 4600.0}]",METAR KALW 131053Z AUTO 17009KT 10SM -RA OVC046 09/08 A2979 RMK AO2 SLP087 P0004 T00890078
KALX,2026-04-13 10:55:00+00:00,2026-04-13 10:55:00+00:00,11.9,11.9,0.0,0.0,,10.0,1026.07617,VFR,,,METAR KALX 131055Z AUTO 00000KT 10SM CLR 12/12 A3030 RMK AO2 T01190119
KAMA,2026-04-13 10:53:00+00:00,2026-04-13 10:53:00+00:00,12.8,-1.7,240.0,12.0,,10.0,1013.885166,VFR,,,METAR KAMA 131053Z 24012KT 10SM CLR 13/M02 A2994 RMK AO2 SLP092 T01281017
KAMG,2026-04-13 10:53:00+00:00,2026-04-13 10:53:00+00:00,11.1,11.1,0.0,0.0,,0.25,1027.092087,LIFR,FG,"[{""cover"": ""OVX"", ""base_ft_agl"": 100.0}]",METAR KAMG 131053Z AUTO 00000KT 1/4SM FG VV001 11/11 A3033 RMK AO2 SLP267 T01110111
KAMN,2026-04-13 10:55:00+00:00,2026-04-13 10:55:00+00:00,15.0,14.0,240.0,9.0,15.0,8.0,1008.466942,IFR,,"[{""cover"": ""OVC"", ""base_ft_agl"": 700.0}]",METAR KAMN 131055Z AUTO 24009G15KT 8SM OVC007 15/14 A2978 RMK AO2
KAMW,2026-04-13 10:53:00+00:00,2026-04-13 10:53:00+00:00,11.7,11.7,140.0,6.0,,0.25,1008.128303,LIFR,FG,"[{""cover"": ""OVX"", ""base_ft_agl"": 100.0}]",METAR KAMW 131053Z AUTO 14006KT 1/4SM FG VV001 12/12 A2977 RMK AO2 SLP077 T01170117
KANB,2026-04-13 10:53:00+00:00,2026-04-13 10:53:00+00:00,12.2,10.6,0.0,0.0,,10.0,1025.737531,VFR,,,METAR KANB 131053Z AUTO 00000KT 10SM CLR 12/11 A3029 RMK AO2 SLP253 T01220106
KAND,2026-04-13 10:56:00+00:00,2026-04-13 10:56:00+00:00,13.3,10.6,0.0,0.0,,10.0,1027.430726,VFR,,,METAR KAND 131056Z AUTO 00000KT 10SM CLR 13/11 A3034 RMK AO2 SLP267 T01330106
KANE,2026-04-13 10:55:00+00:00,2026-04-13 10:55:00+00:00,12.0,11.0,30.0,8.0,,10.0,1007.112386,VFR,,,METAR KANE 131055Z AUTO 03008KT 10SM CLR 12/11 A2974 RMK AO2
KANJ,2026-04-13 10:55:00+00:00,2026-04-13 10:55:00+00:00,7.2,7.2,300.0,9.0,,1.0,1002.7100790000001,LIFR,BR,"[{""cover"": ""OVC"", ""base_ft_agl"": 300.0}]",METAR KANJ 131055Z AUTO 30009KT 1SM BR OVC003 07/07 A2961 RMK AO2 RAB12E30 SLP030 P0001 T00720072
KANK,2026-04-13 10:55:00+00:00,2026-04-13 10:55:00+00:00,6.7,-11.9,210.0,7.0,,10.0,1015.239722,VFR,,,METAR KANK 131055Z AUTO 21007KT 10SM CLR 07/M12 A2998 RMK AO2 T00671119 $
KANW,2026-04-13 10:55:00+00:00,2026-04-13 10:55:00+00:00,9.8,4.2,0.0,0.0,,10.0,1005.080552,VFR,,,METAR KANW 131055Z AUTO 00000KT 10SM CLR 10/04 A2968 RMK AO2 T00980042
KAOH,2026-04-13 10:53:00+00:00,2026-04-13 10:53:00+00:00,19.4,12.2,230.0,19.0,34.0,10.0,1014.562444,VFR,,"[{""cover"": ""FEW"", ""base_ft_agl"": 3500.0}]",METAR KAOH 131053Z AUTO 23019G34KT 10SM FEW035 19/12 A2996 RMK AO2 PK WND 22035/1023 SLP139 T01940122
KAOO,2026-04-13 10:53:00+00:00,2026-04-13 10:53:00+00:00,16.7,9.4,210.0,9.0,,10.0,1018.2874730000001,VFR,,,METAR KAOO 131053Z AUTO 21009KT 10SM CLR 17/09 A3007 RMK AO2 SLP176 T01670094
KAPA,2026-04-13 10:53:00+00:00,2026-04-13 10:53:00+00:00,8.9,-7.2,180.0,6.0,,10.0,1010.498776,VFR,,"[{""cover"": ""BKN"", ""base_ft_agl"": 22000.0}]",METAR KAPA 131053Z 18006KT 10SM BKN220 09/M07 A2984 RMK AO2 SLP054 T00891072
KAPC,2026-04-13 10:54:00+00:00,2026-04-13 10:54:00+00:00,8.3,8.3,360.0,3.0,,6.0,1017.6101950000001,VFR,BR,"[{""cover"": ""FEW"", ""base_ft_agl"": 400.0}, {""cover"": ""FEW"", ""base_ft_agl"": 11000.0}]",METAR KAPC 131054Z AUTO 36003KT 6SM BR FEW004 FEW110 08/08 A3005 RMK AO2 SLP168 T00830083
KAPF,2026-04-13 10:53:00+00:00,2026-04-13 10:53:00+00:00,18.3,15.0,40.0,5.0,,10.0,1024.044336,VFR,,,METAR KAPF 131053Z 04005KT 10SM CLR 18/15 A3024 RMK AO2 SLP237 T01830150 $
KAPG,2026-04-13 10:55:00+00:00,2026-04-13 10:55:00+00:00,16.0,14.4,210.0,10.0,,10.0,1021.335224,VFR,,"[{""cover"": ""BKN"", ""base_ft_agl"": 12000.0}]",METAR KAPG 131055Z 21010KT 10SM BKN120 16/14 A3016 RMK AO2A SLP216 T01600144 $
KAPN,2026-04-13 10:54:00+00:00,2026-04-13 10:54:00+00:00,15.0,13.3,240.0,8.0,,10.0,1003.725996,MVFR,,"[{""cover"": ""BKN"", ""base_ft_agl"": 1800.0}, {""cover"": ""OVC"", ""base_ft_agl"": 3500.0}]",METAR KAPN 131054Z AUTO 24008KT 10SM BKN018 OVC035 15/13 A2964 RMK AO2 RAB14E23 SLP040 P0000 T01500133
KAPS,2026-04-13 10:55:00+00:00,2026-04-13 10:55:00+00:00,17.7,17.3,100.0,5.0,,10.0,1022.012502,VFR,,,METAR KAPS 131055Z AUTO 10005KT 10SM CLR 18/17 A3018 RMK AO2 T01770173
KAPY,2026-04-13 10:55:00+00:00,2026-04-13 10:55:00+00:00,21.2,20.6,80.0,8.0,,7.0,1015.917,VFR,,,METAR KAPY 131055Z AUTO 08008KT 7SM CLR 21/21 A3000 RMK AO2 T02120206
KAQO,2026-04-13 10:55:00+00:00,2026-04-13 10:55:00+00:00,21.0,20.0,140.0,3.0,,10.0,1017.948834,MVFR,,"[{""cover"": ""OVC"", ""base_ft_agl"": 1400.0}]",METAR KAQO 131055Z AUTO 14003KT 10SM OVC014 21/20 A3006 RMK AO2
KAQP,2026-04-13 10:55:00+00:00,2026-04-13 10:55:00+00:00,8.4,8.4,10.0,8.0,,10.0,1007.7896640000001,LIFR,,"[{""cover"": ""OVC"", ""base_ft_agl"": 400.0}]",METAR KAQP 131055Z AUTO 01008KT 10SM OVC004 08/08 A2976 RMK AO2 T00840084
KAQV,2026-04-13 10:47:00+00:00,2026-04-13 10:47:00+00:00,18.9,18.3,0.0,0.0,,6.0,1020.319307,MVFR,BR,"[{""cover"": ""BKN"", ""base_ft_agl"": 1500.0}]",METAR KAQV 131047Z AUTO 00000KT 6SM BR BKN015 19/18 A3013 RMK AO2 SLP201 T01890183
KAQW,2026-04-13 10:52:00+00:00,2026-04-13 10:52:00+00:00,10.0,5.0,0.0,0.0,,10.0,1017.948834,VFR,,"[{""cover"": ""BKN"", ""base_ft_agl"": 10000.0}]",METAR KAQW 131052Z AUTO 00000KT 10SM BKN100 10/05 A3006 RMK AO2 SLP182 T01000050
KAQX,2026-04-13 10:55:00+00:00,2026-04-13 10:55:00+00:00,12.0,12.0,0.0,0.0,,0.25,1027.430726,LIFR,FG,"[{""cover"": ""OVC"", ""base_ft_agl"": 200.0}]",METAR KAQX 131055Z AUTO 00000KT 1/4SM FG OVC002 12/12 A3034 RMK AO2
KARA,2026-04-13 10:53:00+00:00,2026-04-13 10:53:00+00:00,19.4,18.9,160.0,4.0,,9.0,1020.996585,VFR,,,METAR KARA 131053Z 16004KT 9SM CLR 19/19 A3015 RMK AO2 SLP208 T01940189
KARB,2026-04-13 10:53:00+00:00,2026-04-13 10:53:00+00:00,17.2,14.4,250.0,15.0,20.0,10.0,1011.176054,MVFR,,"[{""cover"": ""OVC"", ""base_ft_agl"": 2300.0}]",METAR KARB 131053Z AUTO 25015G20KT 10SM OVC023 17/14 A2986 RMK AO2 SLP106 T01720144 $
KARM,2026-04-13 10:55:00+00:00,2026-04-13 10:55:00+00:00,22.1,21.0,150.0,6.0,,7.0,1018.964751,MVFR,,"[{""cover"": ""OVC"", ""base_ft_agl"": 1200.0}]",METAR KARM 131055Z AUTO 15006KT 7SM OVC012 22/21 A3009 RMK AO2 T02210210 TSNO
KARR,2026-04-13 10:52:00+00:00,2026-04-13 10:52:00+00:00,17.2,16.1,230.0,11.0,,8.0,1011.5146930000001,MVFR,,"[{""cover"": ""SCT"", ""base_ft_agl"": 2100.0}, {""cover"": ""BKN"", ""base_ft_agl"": 2700.0}, {""cover"": ""OVC"", ""base_ft_agl"": 3400.0}]",METAR KARR 131052Z AUTO 23011KT 8SM SCT021 BKN027 OVC034 17/16 A2987 RMK AO2 SLP112 T01720161
KART,2026-04-13 10:56:00+00:00,2026-04-13 10:56:00+00:00,17.2,7.2,200.0,9.0,18.0,10.0,1010.498776,VFR,,"[{""cover"": ""BKN"", ""base_ft_agl"": 9000.0}]",METAR KART 131056Z AUTO 20009G18KT 10SM BKN090 17/07 A2984 RMK AO2 PK WND 19030/1007 SLP104 T01720072 $
KARV,2026-04-13 10:55:00+00:00,2026-04-13 10:55:00+00:00,10.5,10.2,0.0,0.0,,7.0,1006.435108,IFR,,"[{""cover"": ""OVC"", ""base_ft_agl"": 800.0}]",METAR KARV 131055Z AUTO 00000KT 7SM OVC008 11/10 A2972 RMK AO2 T01050102
KASD,2026-04-13 11:03:00+00:00,2026-04-13 11:03:00+00:00,15.0,14.4,0.0,0.0,,10.0,1022.3511410000001,MVFR,,"[{""cover"": ""BKN"", ""base_ft_agl"": 2400.0}]",SPECI KASD 131103Z AUTO 00000KT 10SM BKN024 15/14 A3019 RMK AO2 T01500144
KASE,2026-04-13 10:53:00+00:00,2026-04-13 10:53:00+00:00,5.0,-10.6,210.0,6.0,,10.0,1015.917,VFR,,,METAR KASE 131053Z AUTO 21006KT 10SM CLR 05/M11 A3000 RMK AO2 SLP067 T00501106
KASG,2026-04-13 10:48:00+00:00,2026-04-13 10:48:00+00:00,21.0,21.0,200.0,14.0,20.0,10.0,1016.594278,MVFR,,"[{""cover"": ""OVC"", ""base_ft_agl"": 2000.0}]",METAR KASG 131048Z 20014G20KT 10SM OVC020 21/21 A3002
KASH,2026-04-13 10:56:00+00:00,2026-04-13 10:56:00+00:00,8.9,3.3,0.0,0.0,,10.0,1019.30339,MVFR,,"[{""cover"": ""OVC"", ""base_ft_agl"": 2600.0}]",METAR KASH 131056Z 00000KT 10SM OVC026 09/03 A3010 RMK AO2 SLP194 T00890033
KASJ,2026-04-13 10:55:00+00:00,2026-04-13 10:55:00+00:00,14.3,14.3,200.0,3.0,,10.0,1027.092087,VFR,,,METAR KASJ 131055Z AUTO 20003KT 10SM CLR 14/14 A3033 RMK AO2 T01430143
KASL,2026-04-13 10:55:00+00:00,2026-04-13 10:55:00+00:00,18.8,18.8,160.0,5.0,,10.0,1017.948834,VFR,,,METAR KASL 131055Z AUTO 16005KT 10SM CLR 19/19 A3006 RMK AO2 LTG DSNT SW T01880188 $
KASN,2026-04-13 10:55:00+00:00,2026-04-13 10:55:00+00:00,12.0,11.0,110.0,2.0,,10.0,1025.060253,VFR,,,METAR KASN 131055Z AUTO 11002KT 10SM CLR 12/11 A3027 RMK AO2
KAST,2026-04-13 10:55:00+00:00,2026-04-13 10:55:00+00:00,8.3,6.1,250.0,4.0,,10.0,1015.917,VFR,,"[{""cover"": ""SCT"", ""base_ft_agl"": 2700.0}, {""cover"": ""OVC"", ""base_ft_agl"": 3300.0}]",METAR KAST 131055Z AUTO 25004KT 10SM SCT027 OVC033 08/06 A3000 RMK AO2 RAE05B33E43 SLP159 P0001 T00830061
KASW,2026-04-13 10:55:00+00:00,2026-04-13 10:55:00+00:00,19.0,14.5,250.0,12.0,17.0,10.0,1013.2078880000001,MVFR,,"[{""cover"": ""OVC"", ""base_ft_agl"": 2700.0}]",METAR KASW 131055Z AUTO 25012G17KT 10SM OVC027 18/14 A2992 RMK AO2 T01900145
KASX,2026-04-13 10:53:00+00:00,2026-04-13 10:53:00+00:00,10.6,8.9,270.0,3.0,,10.0,1007.4510250000001,MVFR,,"[{""cover"": ""OVC"", ""base_ft_agl"": 1700.0}]",METAR KASX 131053Z AUTO 27003KT 10SM OVC017 11/09 A2975 RMK AO2 SLP073 T01060089
KATA,2026-04-13 10:55:00+00:00,2026-04-13 10:55:00+00:00,19.0,18.3,150.0,4.0,,10.0,1018.964751,VFR,,"[{""cover"": ""SCT"", ""base_ft_agl"": 20000.0}]",METAR KATA 131055Z AUTO 15004KT 10SM SCT200 19/18 A3009 RMK AO2 T01900183 $
KATL,2026-04-13 10:52:00+00:00,2026-04-13 10:52:00+00:00,16.1,10.0,150.0,3.0,,10.0,1026.753448,VFR,,"[{""cover"": ""SCT"", ""base_ft_agl"": 20000.0}, {""cover"": ""BKN"", ""base_ft_agl"": 25000.0}]",METAR KATL 131052Z 15003KT 10SM SCT200 BKN250 16/10 A3032 RMK AO2 SLP258 T01610100 $
KATP,2026-04-13 10:55:00+00:00,2026-04-13 10:55:00+00:00,24.0,19.0,110.0,14.0,,9.0,1022.3511410000001,VFR,,"[{""cover"": ""SCT"", ""base_ft_agl"": 2600.0}, {""cover"": ""BKN"", ""base_ft_agl"": 4200.0}, {""cover"": ""OVC"", ""base_ft_agl"": 5000.0}]",METAR KATP 131055Z AUTO 11014KT 9SM SCT026 BKN042 OVC050 24/19 A3019 RMK A01
KATS,2026-04-13 10:55:00+00:00,2026-04-13 10:55:00+00:00,21.0,1.0,220.0,7.0,18.0,10.0,1017.271556,VFR,,,METAR KATS 131055Z AUTO 22007G18KT 190V260 10SM CLR 21/01 A3004 RMK AO2
KATT,2026-04-13 10:51:00+00:00,2026-04-13 10:51:00+00:00,21.7,20.6,170.0,6.0,,8.0,1017.948834,MVFR,,"[{""cover"": ""OVC"", ""base_ft_agl"": 1000.0}]",METAR KATT 131051Z AUTO 17006KT 8SM OVC010 22/21 A3006 RMK AO2 CIG 008V015 SLP170 T02170206 PWINO $
KATW,2026-04-13 10:45:00+00:00,2026-04-13 10:45:00+00:00,16.0,16.0,230.0,8.0,,10.0,1006.435108,VFR,,"[{""cover"": ""BKN"", ""base_ft_agl"": 3200.0}]",METAR KATW 131045Z 23008KT 10SM BKN032 16/16 A2972
KATY,2026-04-13 10:53:00+00:00,2026-04-13 10:53:00+00:00,7.2,6.7,40.0,9.0,,0.25,1007.112386,LIFR,FG,"[{""cover"": ""OVX"", ""base_ft_agl"": 200.0}]",METAR KATY 131053Z AUTO 04009KT 1/4SM FG VV002 07/07 A2974 RMK AO2 SLP068 T00720067
KAUG,2026-04-13 10:53:00+00:00,2026-04-13 10:53:00+00:00,5.0,4.4,190.0,7.0,19.0,7.0,1018.6261119999999,IFR,-RA,"[{""cover"": ""OVC"", ""base_ft_agl"": 500.0}]",METAR KAUG 131053Z AUTO 19007G19KT 7SM -RA OVC005 05/04 A3008 RMK AO2 CIG 004V009 SLP190 P0004 T00500044
KAUH,2026-04-13 10:55:00+00:00,2026-04-13 10:55:00+00:00,17.4,16.1,190.0,7.0,,10.0,1003.725996,VFR,,,METAR KAUH 131055Z AUTO 19007KT 10SM CLR 17/16 A2964 RMK AO2 T01740161
KAUM,2026-04-13 10:55:00+00:00,2026-04-13 10:55:00+00:00,11.1,11.1,120.0,5.0,,0.5,1006.7737470000001,LIFR,FG,"[{""cover"": ""OVX"", ""base_ft_agl"": 100.0}]",METAR KAUM 131055Z AUTO 12005KT 1/2SM FG VV001 11/11 A2973 RMK AO2 T01110111
KAUN,2026-04-13 10:55:00+00:00,2026-04-13 10:55:00+00:00,6.0,6.0,70.0,6.0,,7.0,1017.6101950000001,MVFR,,"[{""cover"": ""SCT"", ""base_ft_agl"": 1800.0}, {""cover"": ""BKN"", ""base_ft_agl"": 2500.0}, {""cover"": ""OVC"", ""base_ft_agl"": 4400.0}]",METAR KAUN 131055Z AUTO 07006KT 7SM SCT018 BKN025 OVC044 06/06 A3005 RMK A01 P0002
KAUO,2026-04-13 10:56:00+00:00,2026-04-13 10:56:00+00:00,15.0,12.2,140.0,4.0,,10.0,1026.753448,VFR,,,METAR KAUO 131056Z AUTO 14004KT 10SM CLR 15/12 A3032 RMK AO2 SLP257 T01500122 $
KAUS,2026-04-13 10:53:00+00:00,2026-04-13 10:53:00+00:00,22.2,21.1,170.0,7.0,,8.0,1017.6101950000001,MVFR,,"[{""cover"": ""OVC"", ""base_ft_agl"": 1100.0}]",METAR KAUS 131053Z 17007KT 8SM OVC011 22/21 A3005 RMK AO2 SLP168 T02220211
KAUW,2026-04-13 10:54:00+00:00,2026-04-13 10:54:00+00:00,15.0,13.3,250.0,6.0,,10.0,1006.435108,VFR,,,METAR KAUW 131054Z AUTO 25006KT 10SM CLR 15/13 A2972 RMK AO2 SLP065 T01500133
KAVC,2026-04-13 10:55:00+00:00,2026-04-13 10:55:00+00:00,15.4,15.2,190.0,3.0,,10.0,1028.108004,VFR,,,METAR KAVC 131055Z AUTO 19003KT 10SM CLR 15/15 A3036 RMK AO2 T01540152
KAVK,2026-04-13 10:55:00+00:00,2026-04-13 10:55:00+00:00,21.0,19.0,200.0,20.0,25.0,10.0,1008.805581,VFR,,,METAR KAVK 131055Z AUTO 20020G25KT 10SM CLR 21/19 A2979 RMK A01
KAVL,2026-04-13 10:54:00+00:00,2026-04-13 10:54:00+00:00,13.9,8.9,200.0,8.0,,10.0,1027.092087,VFR,,,METAR KAVL 131054Z 20008KT 10SM CLR 14/09 A3033 RMK AO2 SLP251 T01390089
KAVP,2026-04-13 10:54:00+00:00,2026-04-13 10:54:00+00:00,12.2,8.3,230.0,5.0,,10.0,1018.964751,VFR,,,METAR KAVP 131054Z AUTO 23005KT 10SM CLR 12/08 A3009 RMK AO2 SLP188 T01220083
KAVQ,2026-04-13 10:55:00+00:00,2026-04-13 10:55:00+00:00,18.0,4.0,40.0,5.0,,10.0,1015.239722,VFR,,,METAR KAVQ 131055Z AUTO 04005KT 10SM CLR 18/04 A2998 RMK AO2
KAWG,2026-04-13 10:55:00+00:00,2026-04-13 10:55:00+00:00,16.0,16.0,210.0,8.0,,10.0,1009.821498,VFR,,,METAR KAWG 131055Z AUTO 21008KT 10SM CLR 16/16 A2982 RMK AO2
KAWM,2026-04-13 10:53:00+00:00,2026-04-13 10:53:00+00:00,21.1,14.4,180.0,11.0,,10.0,1019.642029,VFR,,,METAR KAWM 131053Z AUTO 18011KT 10SM CLR 21/14 A3011 RMK AO2 SLP190 T02110144 $
KAWO,2026-04-13 10:56:00+00:00,2026-04-13 10:56:00+00:00,8.3,,0.0,0.0,,3.0,1013.885166,MVFR,-RA,"[{""cover"": ""FEW"", ""base_ft_agl"": 600.0}, {""cover"": ""SCT"", ""base_ft_agl"": 900.0}, {""cover"": ""OVC"", ""base_ft_agl"": 2100.0}]",METAR KAWO 131056Z AUTO 00000KT 3SM -RA FEW006 SCT009 OVC021 08/ A2994 RMK AO2 SLP144 P0002 T0083
KAXA,2026-04-13 10:55:00+00:00,2026-04-13 10:55:00+00:00,13.0,13.0,170.0,8.0,,0.25,1006.7737470000001,LIFR,FG,"[{""cover"": ""OVX"", ""base_ft_agl"": 200.0}]",METAR KAXA 131055Z AUTO 17008KT 1/4SM FG VV002 13/13 A2973 RMK A01
KAXH,2026-04-13 10:55:00+00:00,2026-04-13 10:55:00+00:00,,,150.0,4.0,,7.0,1019.30339,MVFR,,"[{""cover"": ""BKN"", ""base_ft_agl"": 1200.0}, {""cover"": ""OVC"", ""base_ft_agl"": 8000.0}]",METAR KAXH 131055Z AUTO 15004KT 7SM BKN012 OVC080 A3010 RMK AO2
KAXN,2026-04-13 10:53:00+00:00,2026-04-13 10:53:00+00:00,7.8,6.7,30.0,9.0,,10.0,1008.128303,IFR,,"[{""cover"": ""OVC"", ""base_ft_agl"": 600.0}]",METAR KAXN 131053Z AUTO 03009KT 10SM OVC006 08/07 A2977 RMK AO2 SLP083 T00780067
KAXS,2026-04-13 10:56:00+00:00,2026-04-13 10:56:00+00:00,20.0,19.0,180.0,12.0,,10.0,1012.8692490000001,VFR,,,METAR KAXS 131056Z AUTO 18012KT 10SM CLR 20/19 A2991 RMK AO2
KAXV,2026-04-13 11:04:00+00:00,2026-04-13 11:04:00+00:00,19.0,12.0,220.0,18.0,,10.0,1015.239722,VFR,,,METAR KAXV 131104Z AUTO 22018KT 10SM CLR 19/12 A2998 RMK AO2
KAXX,2026-04-13 10:55:00+00:00,2026-04-13 10:55:00+00:00,5.5,-3.8,260.0,15.0,20.0,10.0,1019.30339,VFR,,,METAR KAXX 131055Z AUTO 26015G20KT 10SM CLR 06/M04 A3010 RMK AO2 T00551038
KAYS,2026-04-13 10:55:00+00:00,2026-04-13 10:55:00+00:00,12.0,11.5,0.0,0.0,,0.25,1027.092087,LIFR,FG,"[{""cover"": ""OVC"", ""base_ft_agl"": 100.0}]",METAR KAYS 131055Z AUTO 00000KT M1/4SM FG OVC001 12/12 A3033 RMK AO2 T01200115
KAZC,2026-04-13 10:55:00+00:00,2026-04-13 10:55:00+00:00,7.0,5.0,240.0,9.0,14.0,10.0,1016.2556390000001,VFR,-RA,"[{""cover"": ""SCT"", ""base_ft_agl"": 2800.0}, {""cover"": ""BKN"", ""base_ft_agl"": 4300.0}, {""cover"": ""OVC"", ""base_ft_agl"": 5000.0}]",METAR KAZC 131055Z AUTO 24009G14KT 10SM -RA SCT028 BKN043 OVC050 07/05 A3001 RMK AO2
KAZE,2026-04-13 10:55:00+00:00,2026-04-13 10:55:00+00:00,12.9,12.9,0.0,0.0,,7.0,1027.092087,VFR,,,METAR KAZE 131055Z AUTO 00000KT 7SM CLR 13/13 A3033 RMK AO2 T01290129
KAZO,2026-04-13 10:53:00+00:00,2026-04-13 10:53:00+00:00,16.7,15.6,240.0,9.0,,10.0,1011.5146930000001,MVFR,-RA,"[{""cover"": ""OVC"", ""base_ft_agl"": 1200.0}]",METAR KAZO 131053Z 24009KT 10SM -RA OVC012 17/16 A2987 RMK AO2 RAB23 SLP113 P0001 T01670156
KBAB,2026-04-13 10:55:00+00:00,2026-04-13 10:55:00+00:00,9.1,6.4,80.0,5.0,,10.0,1017.6101950000001,VFR,,"[{""cover"": ""FEW"", ""base_ft_agl"": 3200.0}, {""cover"": ""SCT"", ""base_ft_agl"": 4500.0}]",METAR KBAB 131055Z AUTO 08005KT 10SM FEW032 SCT045 09/06 A3005 RMK AO2 SLP179 T00910064 VISNO RWY33 $
KBAC,2026-04-13 10:55:00+00:00,2026-04-13 10:55:00+00:00,2.0,2.0,10.0,10.0,,5.0,1010.160137,MVFR,BR,,METAR KBAC 131055Z AUTO 01010KT 5SM BR 02/02 A2983 RMK AO2
KBAD,2026-04-13 10:55:00+00:00,2026-04-13 10:55:00+00:00,21.8,18.6,140.0,8.0,,10.0,1019.642029,MVFR,,"[{""cover"": ""OVC"", ""base_ft_agl"": 1600.0}]",METAR KBAD 131055Z AUTO 14008KT 10SM OVC016 22/19 A3011 RMK AO2 LTG DSNT SW SLP199 T02180186 $
KBAF,2026-04-13 10:53:00+00:00,2026-04-13 10:53:00+00:00,8.9,3.9,180.0,13.0,20.0,10.0,1019.980668,MVFR,,"[{""cover"": ""OVC"", ""base_ft_agl"": 1900.0}]",METAR KBAF 131053Z 18013G20KT 10SM OVC019 09/04 A3012 RMK AO2 SLP202 T00890039
KBAK,2026-04-13 10:45:00+00:00,2026-04-13 10:45:00+00:00,20.0,13.0,240.0,12.0,18.0,10.0,1016.9329170000001,VFR,,"[{""cover"": ""SCT"", ""base_ft_agl"": 5000.0}, {""cover"": ""BKN"", ""base_ft_agl"": 5500.0}, {""cover"": ""BKN"", ""base_ft_agl"": 7000.0}]",METAR KBAK 131045Z COR 24012G18KT 10SM SCT050 BKN055 BKN070 20/13 A3003
KBAM,2026-04-13 10:55:00+00:00,2026-04-13 10:55:00+00:00,3.0,0.0,220.0,6.0,,10.0,1015.917,VFR,,,METAR KBAM 131055Z AUTO 22006KT 10SM CLR 03/00 A3000 RMK AO1
KBAN,2026-04-13 10:52:00+00:00,2026-04-13 10:52:00+00:00,-3.9,-7.8,,,,10.0,1014.901083,VFR,,"[{""cover"": ""BKN"", ""base_ft_agl"": 4600.0}]",METAR KBAN 131052Z AUTO 10SM BKN046 M04/M08 A2997 RMK AO2 SLP161 T10391078 PWINO FZRANO $
KBAX,2026-04-13 10:55:00+00:00,2026-04-13 10:55:00+00:00,15.0,13.8,240.0,11.0,21.0,10.0,1006.435108,IFR,RA,"[{""cover"": ""BKN"", ""base_ft_agl"": 900.0}, {""cover"": ""OVC"", ""base_ft_agl"": 1400.0}]",METAR KBAX 131055Z AUTO 24011G21KT 10SM RA BKN009 OVC014 15/14 A2972 RMK AO2 T01500138
KBAZ,2026-04-13 10:51:00+00:00,2026-04-13 10:51:00+00:00,22.2,20.6,170.0,8.0,,9.0,1017.271556,VFR,,"[{""cover"": ""SCT"", ""base_ft_agl"": 1200.0}, {""cover"": ""OVC"", ""base_ft_agl"": 3600.0}]",METAR KBAZ 131051Z AUTO 17008KT 9SM SCT012 OVC036 22/21 A3004 RMK AO2 SLP167 T02220206
KBBB,2026-04-13 11:05:00+00:00,2026-04-13 11:05:00+00:00,9.0,9.0,10.0,7.0,,3.0,1007.4510250000001,LIFR,BR,"[{""cover"": ""OVC"", ""base_ft_agl"": 300.0}]",METAR KBBB 131105Z AUTO 01007KT 3SM BR OVC003 09/09 A2975 RMK AO2
KBBD,2026-04-13 10:55:00+00:00,2026-04-13 10:55:00+00:00,21.0,20.0,190.0,12.0,19.0,10.0,1016.9329170000001,MVFR,,"[{""cover"": ""OVC"", ""base_ft_agl"": 1900.0}]",METAR KBBD 131055Z AUTO 19012G19KT 10SM OVC019 21/20 A3003 RMK AO2
KBBG,2026-04-13 10:55:00+00:00,2026-04-13 10:55:00+00:00,20.0,17.0,210.0,5.0,,10.0,1016.9329170000001,MVFR,,"[{""cover"": ""OVC"", ""base_ft_agl"": 2900.0}]",METAR KBBG 131055Z AUTO 21005KT 10SM OVC029 20/17 A3003 RMK AO2
KBBP,2026-04-13 10:55:00+00:00,2026-04-13 10:55:00+00:00,12.0,12.0,0.0,0.0,,3.0,1027.092087,MVFR,BR,,METAR KBBP 131055Z AUTO 00000KT 3SM BR CLR 12/12 A3033 RMK AO2
KBBW,2026-04-13 10:53:00+00:00,2026-04-13 10:53:00+00:00,12.2,9.4,40.0,6.0,,10.0,1004.064635,VFR,,,METAR KBBW 131053Z AUTO 04006KT 10SM CLR 12/09 A2965 RMK AO2 SLP019 T01220094
KBCB,2026-04-13 10:55:00+00:00,2026-04-13 10:55:00+00:00,13.3,8.6,0.0,0.0,,10.0,1026.07617,VFR,,,METAR KBCB 131055Z AUTO 00000KT 10SM CLR 13/09 A3030 RMK AO2 T01330086
KBCE,2026-04-13 10:53:00+00:00,2026-04-13 10:53:00+00:00,1.7,-5.6,160.0,3.0,,10.0,1016.594278,VFR,,"[{""cover"": ""BKN"", ""base_ft_agl"": 3700.0}, {""cover"": ""BKN"", ""base_ft_agl"": 4500.0}, {""cover"": ""OVC"", ""base_ft_agl"": 6500.0}]",METAR KBCE 131053Z AUTO 16003KT 10SM BKN037 BKN045 OVC065 02/M06 A3002 RMK AO2 SLP088 T00171056
KBCK,2026-04-13 10:55:00+00:00,2026-04-13 10:55:00+00:00,14.4,14.4,0.0,0.0,,10.0,1007.4510250000001,VFR,,"[{""cover"": ""SCT"", ""base_ft_agl"": 9000.0}]",METAR KBCK 131055Z AUTO 00000KT 10SM SCT090 14/14 A2975 RMK AO2 T01440144
KBCR,2026-04-13 10:58:00+00:00,2026-04-13 10:58:00+00:00,12.8,12.2,0.0,0.0,,10.0,1026.753448,VFR,,,METAR KBCR 131058Z AUTO 00000KT 10SM CLR 13/12 A3032 RMK AO2 SLP223 T01280122
KBCT,2026-04-13 11:00:00+00:00,2026-04-13 11:00:00+00:00,22.0,13.0,80.0,9.0,18.0,10.0,1024.382975,VFR,,"[{""cover"": ""SCT"", ""base_ft_agl"": 4100.0}]",METAR KBCT 131100Z 08009G18KT 10SM SCT041 22/13 A3025
KBDE,2026-04-13 10:53:00+00:00,2026-04-13 10:53:00+00:00,1.1,0.0,320.0,10.0,,9.0,1009.482859,MVFR,,"[{""cover"": ""OVC"", ""base_ft_agl"": 1100.0}]",METAR KBDE 131053Z AUTO 32010KT 9SM OVC011 01/00 A2981 RMK AO2 SLP108 T00110000
KBDG,2026-04-13 10:55:00+00:00,2026-04-13 10:55:00+00:00,2.5,-6.1,20.0,5.0,,10.0,1016.2556390000001,VFR,,,METAR KBDG 131055Z AUTO 02005KT 10SM CLR 02/M06 A3001 RMK AO2 T00251061
KBDH,2026-04-13 10:55:00+00:00,2026-04-13 10:55:00+00:00,10.0,10.0,40.0,13.0,,0.75,1007.112386,LIFR,BR,"[{""cover"": ""OVC"", ""base_ft_agl"": 200.0}]",METAR KBDH 131055Z AUTO 04013KT 3/4SM BR OVC002 10/10 A2974 RMK AO2
KBDL,2026-04-13 10:51:00+00:00,2026-04-13 10:51:00+00:00,8.9,3.9,170.0,9.0,,10.0,1020.657946,MVFR,,"[{""cover"": ""OVC"", ""base_ft_agl"": 1900.0}]",METAR KBDL 131051Z 17009KT 10SM OVC019 09/04 A3014 RMK AO2 SLP208 T00890039
KBDN,2026-04-13 10:55:00+00:00,2026-04-13 10:55:00+00:00,4.0,1.0,0.0,0.0,,10.0,1012.1919710000001,VFR,,"[{""cover"": ""SCT"", ""base_ft_agl"": 8000.0}, {""cover"": ""SCT"", ""base_ft_agl"": 9500.0}]",METAR KBDN 131055Z AUTO 00000KT 10SM SCT080 SCT095 04/01 A2989 RMK AO2
KBDR,2026-04-13 10:52:00+00:00,2026-04-13 10:52:00+00:00,9.4,6.7,0.0,0.0,,10.0,1021.6738630000001,MVFR,,"[{""cover"": ""OVC"", ""base_ft_agl"": 2300.0}]",METAR KBDR 131052Z 00000KT 10SM OVC023 09/07 A3017 RMK AO2 SLP217 T00940067 $
KBDU,2026-04-13 10:55:00+00:00,2026-04-13 10:55:00+00:00,11.0,-7.0,250.0,3.0,,10.0,1009.482859,VFR,,,METAR KBDU 131055Z AUTO 25003KT 10SM CLR 11/M07 A2981 RMK AO2
KBEA,2026-04-13 10:55:00+00:00,2026-04-13 10:55:00+00:00,22.5,20.7,140.0,9.0,,10.0,1016.9329170000001,IFR,,"[{""cover"": ""OVC"", ""base_ft_agl"": 700.0}]",METAR KBEA 131055Z AUTO 14009KT 10SM OVC007 23/21 A3003 RMK AO2 T02250207 PWINO
KBEC,2026-04-13 10:55:00+00:00,2026-04-13 10:55:00+00:00,19.6,18.7,190.0,13.0,21.0,10.0,1009.821498,MVFR,,"[{""cover"": ""OVC"", ""base_ft_agl"": 1200.0}]",METAR KBEC 131055Z AUTO 19013G21KT 10SM OVC012 20/19 A2982 RMK AO2 T01960187
KBED,2026-04-13 10:51:00+00:00,2026-04-13 10:51:00+00:00,9.4,4.4,210.0,8.0,,10.0,1019.642029,MVFR,,"[{""cover"": ""OVC"", ""base_ft_agl"": 2700.0}]",METAR KBED 131051Z 21008KT 10SM OVC027 09/04 A3011 RMK AO2 SLP210 T00940044
KBEH,2026-04-13 10:53:00+00:00,2026-04-13 10:53:00+00:00,17.2,15.6,230.0,17.0,23.0,10.0,1011.176054,MVFR,,"[{""cover"": ""OVC"", ""base_ft_agl"": 1600.0}]",METAR KBEH 131053Z AUTO 23017G23KT 10SM OVC016 17/16 A2986 RMK AO2 PK WND 23027/1015 RAE04 SLP108 P0000 T01720156
KBFA,2026-04-13 10:55:00+00:00,2026-04-13 10:55:00+00:00,16.0,16.0,210.0,12.0,18.0,10.0,1004.064635,MVFR,,"[{""cover"": ""SCT"", ""base_ft_agl"": 1100.0}, {""cover"": ""BKN"", ""base_ft_agl"": 2300.0}, {""cover"": ""OVC"", ""base_ft_agl"": 2800.0}]",METAR KBFA 131055Z AUTO 21012G18KT 10SM SCT011 BKN023 OVC028 16/16 A2965 RMK AO2
KBFD,2026-04-13 10:53:00+00:00,2026-04-13 10:53:00+00:00,17.2,7.8,200.0,10.0,17.0,10.0,1014.901083,VFR,,"[{""cover"": ""BKN"", ""base_ft_agl"": 11000.0}]",METAR KBFD 131053Z AUTO 20010G17KT 10SM BKN110 17/08 A2997 RMK AO2 SLP136 T01720078
KBFF,2026-04-13 10:53:00+00:00,2026-04-13 10:53:00+00:00,11.1,-7.2,280.0,11.0,,10.0,1007.7896640000001,VFR,,,METAR KBFF 131053Z AUTO 28011KT 10SM CLR 11/M07 A2976 RMK AO2 SLP042 T01111072 $
KBFI,2026-04-13 10:53:00+00:00,2026-04-13 10:53:00+00:00,9.4,7.2,160.0,9.0,,9.0,1013.2078880000001,MVFR,,"[{""cover"": ""OVC"", ""base_ft_agl"": 1700.0}]",METAR KBFI 131053Z 16009KT 9SM OVC017 09/07 A2992 RMK AO2 SLP131 T00940072 $
KBFL,2026-04-13 10:54:00+00:00,2026-04-13 10:54:00+00:00,11.1,6.7,290.0,5.0,,10.0,1016.9329170000001,VFR,,"[{""cover"": ""OVC"", ""base_ft_agl"": 8000.0}]",METAR KBFL 131054Z AUTO 29005KT 10SM OVC080 11/07 A3003 RMK AO2 SLP165 T01110067 $
KBFM,2026-04-13 10:53:00+00:00,2026-04-13 10:53:00+00:00,19.4,16.1,190.0,4.0,,10.0,1024.382975,VFR,,,METAR KBFM 131053Z AUTO 19004KT 10SM CLR 19/16 A3025 RMK AO2 SLP242 T01940161
KBFZ,2026-04-13 10:55:00+00:00,2026-04-13 10:55:00+00:00,16.0,12.0,210.0,5.0,,10.0,1025.3988920000002,VFR,,,METAR KBFZ 131055Z AUTO 21005KT 10SM CLR 16/12 A3028 RMK AO2
KBGD,2026-04-13 10:51:00+00:00,2026-04-13 10:51:00+00:00,18.9,-1.7,220.0,13.0,23.0,10.0,1011.853332,VFR,,,METAR KBGD 131051Z AUTO 22013G23KT 10SM CLR 19/M02 A2988 RMK AO2 SLP075 T01891017
KBGE,2026-04-13 10:55:00+00:00,2026-04-13 10:55:00+00:00,15.2,14.1,0.0,0.0,,,1026.4148089999999,,,,METAR KBGE 131055Z AUTO 00000KT 15/14 A3031 RMK AO2 PWINO T01520141
KBGF,2026-04-13 10:55:00+00:00,2026-04-13 10:55:00+00:00,20.0,10.0,200.0,4.0,,10.0,1024.382975,VFR,,"[{""cover"": ""OVC"", ""base_ft_agl"": 11000.0}]",METAR KBGF 131055Z AUTO 20004KT 10SM OVC110 20/10 A3025 RMK A01
KBGM,2026-04-13 10:53:00+00:00,2026-04-13 10:53:00+00:00,11.7,6.7,180.0,9.0,,10.0,1016.2556390000001,VFR,,"[{""cover"": ""FEW"", ""base_ft_agl"": 7000.0}, {""cover"": ""BKN"", ""base_ft_agl"": 9000.0}, {""cover"": ""OVC"", ""base_ft_agl"": 11000.0}]",METAR KBGM 131053Z 18009KT 10SM FEW070 BKN090 OVC110 12/07 A3001 RMK AO2 SLP162 T01170067
KBGR,2026-04-13 10:53:00+00:00,2026-04-13 10:53:00+00:00,5.0,3.9,190.0,15.0,23.0,5.0,1018.964751,IFR,-RA BR,"[{""cover"": ""BKN"", ""base_ft_agl"": 800.0}, {""cover"": ""OVC"", ""base_ft_agl"": 1400.0}]",METAR KBGR 131053Z 19015G23KT 5SM -RA BR BKN008 OVC014 05/04 A3009 RMK AO2 SLP192 P0011 T00500039
KBHB,2026-04-13 10:56:00+00:00,2026-04-13 10:56:00+00:00,5.0,3.9,200.0,14.0,24.0,3.0,1021.335224,IFR,-RA BR,"[{""cover"": ""OVC"", ""base_ft_agl"": 600.0}]",METAR KBHB 131056Z AUTO 20014G24KT 3SM -RA BR OVC006 05/04 A3016 RMK AO2 PK WND 19026/1041 SLP214 P0004 T00500039 $
KBHK,2026-04-13 10:51:00+00:00,2026-04-13 10:51:00+00:00,3.9,3.9,120.0,7.0,,5.0,1006.7737470000001,MVFR,BR,"[{""cover"": ""FEW"", ""base_ft_agl"": 100.0}]",METAR KBHK 131051Z AUTO 12007KT 5SM BR FEW001 04/04 A2973 RMK AO2 SLP065 T00390039
KBHM,2026-04-13 10:53:00+00:00,2026-04-13 10:53:00+00:00,17.2,12.2,190.0,4.0,,10.0,1025.737531,VFR,,"[{""cover"": ""BKN"", ""base_ft_agl"": 8000.0}]",METAR KBHM 131053Z 19004KT 10SM BKN080 17/12 A3029 RMK AO2 SLP250 T01720122
KBID,2026-04-13 10:56:00+00:00,2026-04-13 10:56:00+00:00,8.3,5.6,190.0,16.0,,10.0,1023.0284190000001,MVFR,,"[{""cover"": ""OVC"", ""base_ft_agl"": 3000.0}]",METAR KBID 131056Z AUTO 19016KT 10SM OVC030 08/06 A3021 RMK AO2 SLP232 T00830056
KBIE,2026-04-13 10:55:00+00:00,2026-04-13 10:55:00+00:00,19.5,18.0,180.0,11.0,16.0,10.0,1005.4191910000001,VFR,,,METAR KBIE 131055Z AUTO 18011G16KT 10SM CLR 20/18 A2969 RMK AO2 T01950180
KBIF,2026-04-13 09:55:00+00:00,2026-04-13 09:55:00+00:00,19.1,1.1,230.0,5.0,,10.0,1017.948834,VFR,,"[{""cover"": ""FEW"", ""base_ft_agl"": 20000.0}]",METAR KBIF 130955Z AUTO 23005KT 10SM FEW200 19/01 A3006 RMK AO2 SLP116 T01910011 $
KBIH,2026-04-13 10:56:00+00:00,2026-04-13 10:56:00+00:00,-2.2,-6.1,310.0,4.0,,10.0,1013.885166,VFR,,,METAR KBIH 131056Z AUTO 31004KT 10SM CLR M02/M06 A2994 RMK AO2 SLP127 T10221061 $
KBIJ,2026-04-13 10:55:00+00:00,2026-04-13 10:55:00+00:00,11.0,10.0,0.0,0.0,,10.0,1026.4148089999999,VFR,,,METAR KBIJ 131055Z AUTO 00000KT 10SM CLR 11/10 A3031 RMK AO2
KBIL,2026-04-13 10:53:00+00:00,2026-04-13 10:53:00+00:00,6.1,5.6,190.0,4.0,,10.0,1006.0964690000001,VFR,,"[{""cover"": ""FEW"", ""base_ft_agl"": 500.0}, {""cover"": ""SCT"", ""base_ft_agl"": 13000.0}, {""cover"": ""OVC"", ""base_ft_agl"": 19000.0}]",METAR KBIL 131053Z 19004KT 10SM FEW005 SCT130 OVC190 06/06 A2971 RMK AO2 SLP058 T00610056
KBIS,2026-04-13 10:52:00+00:00,2026-04-13 10:52:00+00:00,6.7,5.6,10.0,5.0,,10.0,1009.14422,IFR,,"[{""cover"": ""OVC"", ""base_ft_agl"": 900.0}]",METAR KBIS 131052Z AUTO 01005KT 10SM OVC009 07/06 A2980 RMK AO2 RAE22 SLP091 P0000 T00670056
KBIV,2026-04-13 11:00:00+00:00,2026-04-13 11:00:00+00:00,13.9,13.3,240.0,13.0,,10.0,1010.498776,LIFR,,"[{""cover"": ""BKN"", ""base_ft_agl"": 400.0}, {""cover"": ""OVC"", ""base_ft_agl"": 2900.0}]",SPECI KBIV 131100Z AUTO 24013KT 10SM BKN004 OVC029 14/13 A2984 RMK AO2 CIG 003V007 T01390133
KBIX,2026-04-13 10:55:00+00:00,2026-04-13 10:55:00+00:00,22.0,16.0,170.0,9.0,,10.0,1021.6738630000001,VFR,,,METAR KBIX 131055Z AUTO 17009KT 10SM CLR 22/16 A3017 RMK AO2 SLP219 T02200160
KBJC,2026-04-13 10:55:00+00:00,2026-04-13 10:55:00+00:00,8.0,-8.0,290.0,4.0,,10.0,1010.498776,VFR,,,METAR KBJC 131055Z AUTO 29004KT 10SM CLR 08/M08 A2984 RMK AO2
KBJI,2026-04-13 10:55:00+00:00,2026-04-13 10:55:00+00:00,3.3,3.3,350.0,6.0,,0.5,1009.482859,LIFR,FG,"[{""cover"": ""OVC"", ""base_ft_agl"": 300.0}]",METAR KBJI 131055Z AUTO 35006KT 1/2SM FG OVC003 03/03 A2981 RMK AO2 T00330033
KBJJ,2026-04-13 10:56:00+00:00,2026-04-13 10:56:00+00:00,18.3,12.2,240.0,19.0,29.0,10.0,1015.239722,VFR,,"[{""cover"": ""BKN"", ""base_ft_agl"": 4500.0}, {""cover"": ""OVC"", ""base_ft_agl"": 5500.0}]",METAR KBJJ 131056Z AUTO 24019G29KT 10SM BKN045 OVC055 18/12 A2998 RMK AO2 PK WND 27039/1031 RAB32E53 SLP147 P0000 T01830122 $
KBKB,2026-04-13 10:49:00+00:00,2026-04-13 10:49:00+00:00,18.9,17.8,0.0,0.0,,10.0,1019.30339,VFR,,,METAR KBKB 131049Z AUTO 00000KT 10SM CLR 19/18 A3010 RMK AO2 SLP220 T01890178
KBKD,2026-04-13 10:55:00+00:00,2026-04-13 10:55:00+00:00,22.1,20.2,220.0,8.0,16.0,10.0,1015.917,MVFR,,"[{""cover"": ""OVC"", ""base_ft_agl"": 1500.0}]",METAR KBKD 131055Z AUTO 22008G16KT 10SM OVC015 22/20 A3000 RMK AO2 T02210202
KBKE,2026-04-13 10:53:00+00:00,2026-04-13 10:53:00+00:00,0.6,0.0,70.0,4.0,,1.75,1009.821498,IFR,-SN BR,"[{""cover"": ""OVC"", ""base_ft_agl"": 1500.0}]",METAR KBKE 131053Z AUTO 07004KT 1 3/4SM -SN BR OVC015 01/00 A2982 RMK AO2 RAE27SNB27 SLP108 P0012 T00060000
KBKF,2026-04-13 10:58:00+00:00,2026-04-13 10:58:00+00:00,9.2,-8.4,180.0,11.0,,10.0,1009.482859,VFR,,"[{""cover"": ""BKN"", ""base_ft_agl"": 22000.0}]",METAR KBKF 131058Z 18011KT 10SM BKN220 09/M08 A2981 RMK AO2A SLP034 T00921084
KBKL,2026-04-13 10:53:00+00:00,2026-04-13 10:53:00+00:00,20.6,12.2,220.0,27.0,41.0,10.0,1012.53061,VFR,,"[{""cover"": ""OVC"", ""base_ft_agl"": 5000.0}]",METAR KBKL 131053Z 22027G41KT 10SM OVC050 21/12 A2990 RMK AO2 PK WND 21042/1038 SLP120 T02060122 $
KBKN,2026-04-13 10:55:00+00:00,2026-04-13 10:55:00+00:00,20.0,19.0,180.0,14.0,22.0,10.0,1010.498776,VFR,,"[{""cover"": ""SCT"", ""base_ft_agl"": 1700.0}]",METAR KBKN 131055Z AUTO 18014G22KT 10SM SCT017 20/19 A2984 RMK AO2
KBKS,2026-04-13 10:55:00+00:00,2026-04-13 10:55:00+00:00,22.2,22.2,120.0,4.0,,9.0,1016.2556390000001,VFR,,,METAR KBKS 131055Z AUTO 12004KT 9SM 22/22 A3001 RMK AO2 T02220222 $
KBKT,2026-04-13 10:55:00+00:00,2026-04-13 10:55:00+00:00,17.1,16.1,200.0,8.0,,8.0,1025.060253,VFR,,"[{""cover"": ""FEW"", ""base_ft_agl"": 23000.0}]",METAR KBKT 131055Z AUTO 20008KT 8SM FEW230 17/16 A3027 RMK AO2 SLP251 T01710161
KBKV,2026-04-13 10:53:00+00:00,2026-04-13 10:53:00+00:00,14.4,13.9,0.0,0.0,,10.0,1025.737531,VFR,,,METAR KBKV 131053Z 00000KT 10SM CLR 14/14 A3029 RMK AO2 SLP255 T01440139
KBKW,2026-04-13 10:51:00+00:00,2026-04-13 10:51:00+00:00,18.9,3.9,230.0,12.0,21.0,10.0,1024.382975,VFR,,"[{""cover"": ""SCT"", ""base_ft_agl"": 11000.0}]",METAR KBKW 131051Z AUTO 23012G21KT 10SM SCT110 19/04 A3025 RMK AO2 SLP213 T01890039
KBLF,2026-04-13 10:52:00+00:00,2026-04-13 10:52:00+00:00,17.2,3.9,260.0,7.0,,10.0,1025.3988920000002,VFR,,,METAR KBLF 131052Z AUTO 26007KT 10SM CLR 17/04 A3028 RMK AO2 SLP222 T01720039 $
KBLH,2026-04-13 10:52:00+00:00,2026-04-13 10:52:00+00:00,16.7,8.3,130.0,5.0,,10.0,1013.546527,VFR,,,METAR KBLH 131052Z AUTO 13005KT 10SM CLR 17/08 A2993 RMK AO2 SLP130 T01670083 $
KBLI,2026-04-13 10:53:00+00:00,2026-04-13 10:53:00+00:00,9.4,7.2,180.0,6.0,,3.0,1011.5146930000001,MVFR,-RA BR,"[{""cover"": ""OVC"", ""base_ft_agl"": 2500.0}]",METAR KBLI 131053Z AUTO 18006KT 3SM -RA BR OVC025 09/07 A2987 RMK AO2 RAB35 SLP123 P0003 T00940072
KBLM,2026-04-13 10:56:00+00:00,2026-04-13 10:56:00+00:00,14.4,,210.0,10.0,,10.0,1022.012502,VFR,,,METAR KBLM 131056Z AUTO 21010KT 10SM CLR 14/ A3018 RMK AO2 SLP220 T0144 PNO $
KBLU,2026-04-13 10:52:00+00:00,2026-04-13 10:52:00+00:00,-0.6,-0.6,0.0,0.0,,0.75,1016.2556390000001,LIFR,-SN BR,,METAR KBLU 131052Z AUTO 00000KT 3/4SM -SN BR M01/M01 A3001 RMK AO2 SLP179 P0002 T10061006 $
KBLV,2026-04-13 10:55:00+00:00,2026-04-13 10:55:00+00:00,20.0,17.2,200.0,5.0,,10.0,1014.901083,VFR,,"[{""cover"": ""OVC"", ""base_ft_agl"": 4200.0}]",METAR KBLV 131055Z AUTO 20005KT 10SM OVC042 20/17 A2997 RMK AO2 SLP149 T02000172 $
KBMC,2026-04-13 10:55:00+00:00,2026-04-13 10:55:00+00:00,4.0,3.0,90.0,2.0,,10.0,1015.578361,MVFR,,"[{""cover"": ""BKN"", ""base_ft_agl"": 3000.0}, {""cover"": ""OVC"", ""base_ft_agl"": 3600.0}]",METAR KBMC 131055Z AUTO 09002KT 10SM BKN030 OVC036 04/03 A2999 RMK AO2
KBMG,2026-04-13 10:53:00+00:00,2026-04-13 10:53:00+00:00,21.7,12.2,220.0,12.0,,10.0,1016.9329170000001,VFR,,"[{""cover"": ""FEW"", ""base_ft_agl"": 4300.0}, {""cover"": ""BKN"", ""base_ft_agl"": 5000.0}]",METAR KBMG 131053Z 22012KT 10SM FEW043 BKN050 22/12 A3003 RMK AO2 PK WND 22026/1024 SLP161 T02170122
KBMI,2026-04-13 10:56:00+00:00,2026-04-13 10:56:00+00:00,18.3,16.7,230.0,13.0,,10.0,1013.885166,MVFR,,"[{""cover"": ""OVC"", ""base_ft_agl"": 3000.0}]",METAR KBMI 131056Z 23013KT 10SM OVC030 18/17 A2994 RMK AO2 SLP130 T01830167
KBML,2026-04-13 10:52:00+00:00,2026-04-13 10:52:00+00:00,3.9,2.2,0.0,0.0,,10.0,1015.239722,VFR,,"[{""cover"": ""BKN"", ""base_ft_agl"": 7500.0}, {""cover"": ""OVC"", ""base_ft_agl"": 9500.0}]",METAR KBML 131052Z AUTO 00000KT 10SM BKN075 OVC095 04/02 A2998 RMK AO2 RAE22 SLP161 P0000 T00390022
KBMQ,2026-04-13 10:53:00+00:00,2026-04-13 10:53:00+00:00,20.6,20.0,180.0,7.0,,7.0,1017.948834,LIFR,,"[{""cover"": ""OVC"", ""base_ft_agl"": 400.0}]",METAR KBMQ 131053Z AUTO 18007KT 7SM OVC004 21/20 A3006 RMK AO2 RAB04E15 SLP165 P0000 T02060200 $
KBMT,2026-04-13 10:55:00+00:00,2026-04-13 10:55:00+00:00,20.7,19.2,170.0,4.0,,10.0,1019.642029,VFR,,"[{""cover"": ""SCT"", ""base_ft_agl"": 11000.0}]",METAR KBMT 131055Z AUTO 17004KT 10SM SCT110 21/19 A3011 RMK AO2 T02070192
KBNA,2026-04-13 10:53:00+00:00,2026-04-13 10:53:00+00:00,20.6,11.1,190.0,7.0,,10.0,1022.3511410000001,VFR,,"[{""cover"": ""BKN"", ""base_ft_agl"": 7000.0}, {""cover"": ""OVC"", ""base_ft_agl"": 11000.0}]",METAR KBNA 131053Z 19007KT 10SM BKN070 OVC110 21/11 A3019 RMK AO2 RAB28E32 SLP216 P0000 T02060111 $
KBNL,2026-04-13 10:55:00+00:00,2026-04-13 10:55:00+00:00,11.0,11.0,0.0,0.0,,0.25,1027.769365,LIFR,FG,,METAR KBNL 131055Z AUTO 00000KT M1/4SM FG 11/11 A3035 RMK AO2
KBNO,2026-04-13 10:53:00+00:00,2026-04-13 10:53:00+00:00,3.3,2.2,250.0,7.0,,10.0,1012.1919710000001,MVFR,-RA,"[{""cover"": ""OVC"", ""base_ft_agl"": 1500.0}]",METAR KBNO 131053Z AUTO 25007KT 10SM -RA OVC015 03/02 A2989 RMK AO2 SLP127 P0001 T00330022 $
KBNW,2026-04-13 10:55:00+00:00,2026-04-13 10:55:00+00:00,14.0,14.0,180.0,5.0,,5.0,1007.4510250000001,MVFR,BR,,METAR KBNW 131055Z AUTO 18005KT 5SM BR CLR 14/14 A2975 RMK AO2
KBOI,2026-04-13 10:53:00+00:00,2026-04-13 10:53:00+00:00,6.1,3.9,110.0,6.0,,10.0,1012.1919710000001,MVFR,-RA,"[{""cover"": ""OVC"", ""base_ft_agl"": 3000.0}]",METAR KBOI 131053Z 11006KT 10SM -RA OVC030 06/04 A2989 RMK AO2 SLP125 P0003 T00610039
KBOK,2026-04-13 10:56:00+00:00,2026-04-13 10:56:00+00:00,8.3,7.8,0.0,0.0,,10.0,1019.30339,VFR,,"[{""cover"": ""FEW"", ""base_ft_agl"": 2400.0}, {""cover"": ""BKN"", ""base_ft_agl"": 4600.0}, {""cover"": ""OVC"", ""base_ft_agl"": 6000.0}]",METAR KBOK 131056Z AUTO 00000KT 10SM FEW024 BKN046 OVC060 08/08 A3010 RMK AO2 SLP194 T00830078 PNO $
KBOS,2026-04-13 10:54:00+00:00,2026-04-13 10:54:00+00:00,10.0,5.0,210.0,15.0,23.0,10.0,1020.319307,MVFR,,"[{""cover"": ""FEW"", ""base_ft_agl"": 2300.0}, {""cover"": ""OVC"", ""base_ft_agl"": 3000.0}]",METAR KBOS 131054Z 21015G23KT 10SM FEW023 OVC030 10/05 A3013 RMK AO2 SLP201 T01000050
KBOW,2026-04-13 10:55:00+00:00,2026-04-13 10:55:00+00:00,14.0,13.0,70.0,4.0,,10.0,1025.060253,VFR,,"[{""cover"": ""SCT"", ""base_ft_agl"": 3400.0}]",METAR KBOW 131055Z AUTO 07004KT 10SM SCT034 14/13 A3027 RMK AO2 PWINO
KBPC,2026-04-13 10:55:00+00:00,2026-04-13 10:55:00+00:00,17.0,-3.0,220.0,12.0,,10.0,1011.176054,VFR,,,METAR KBPC 131055Z AUTO 22012KT 10SM CLR 17/M03 A2986 RMK AO2
KBPG,2026-04-13 10:55:00+00:00,2026-04-13 10:55:00+00:00,20.3,17.5,200.0,19.0,,10.0,1016.9329170000001,MVFR,,"[{""cover"": ""OVC"", ""base_ft_agl"": 1200.0}]",METAR KBPG 131055Z AUTO 20019KT 10SM OVC012 20/18 A3003 RMK AO2 T02030175
KBPI,2026-04-13 10:53:00+00:00,2026-04-13 10:53:00+00:00,1.1,-5.6,350.0,9.0,,10.0,1012.1919710000001,VFR,,"[{""cover"": ""SCT"", ""base_ft_agl"": 5500.0}, {""cover"": ""OVC"", ""base_ft_agl"": 7500.0}]",METAR KBPI 131053Z AUTO 35009KT 10SM SCT055 OVC075 01/M06 A2989 RMK AO2 SLP085 T00111056
KBPK,2026-04-13 10:53:00+00:00,2026-04-13 10:53:00+00:00,18.9,16.7,210.0,5.0,,10.0,1016.9329170000001,VFR,,"[{""cover"": ""BKN"", ""base_ft_agl"": 3500.0}]",METAR KBPK 131053Z AUTO 21005KT 10SM BKN035 19/17 A3003 RMK AO2 SLP161 T01890167 PWINO $
KBPT,2026-04-13 10:53:00+00:00,2026-04-13 10:53:00+00:00,21.7,20.0,170.0,9.0,,10.0,1019.642029,VFR,,,METAR KBPT 131053Z 17009KT 10SM CLR 22/20 A3011 RMK AO2 SLP194 T02170200
KBQK,2026-04-13 10:55:00+00:00,2026-04-13 10:55:00+00:00,10.1,10.1,0.0,0.0,,0.25,1027.092087,LIFR,FG,"[{""cover"": ""OVC"", ""base_ft_agl"": 100.0}]",METAR KBQK 131055Z AUTO 00000KT M1/4SM FG OVC001 10/10 A3033 RMK AO2 T01010101
KBQP,2026-04-13 10:50:00+00:00,2026-04-13 10:50:00+00:00,21.0,16.8,200.0,3.0,,,1021.335224,,,"[{""cover"": ""SCT"", ""base_ft_agl"": 3800.0}, {""cover"": ""BKN"", ""base_ft_agl"": 4900.0}]",METAR KBQP 131050Z AUTO 20003KT SCT038 BKN049 21/17 A3016 RMK AO2 T02100168 PWINO
KBQX,2026-04-13 11:00:00+00:00,2026-04-13 11:00:00+00:00,23.0,23.0,150.0,6.0,,6.0,1020.319307,VFR,BR,,METAR KBQX 131100Z AUTO 15006KT 6SM BR 23/23 A3013 RMK A01
KBRD,2026-04-13 10:53:00+00:00,2026-04-13 10:53:00+00:00,7.2,6.7,350.0,6.0,,9.0,1008.128303,IFR,,"[{""cover"": ""OVC"", ""base_ft_agl"": 700.0}]",METAR KBRD 131053Z AUTO 35006KT 9SM OVC007 07/07 A2977 RMK AO2 SLP082 T00720067
KBRG,2026-04-13 10:55:00+00:00,2026-04-13 10:55:00+00:00,14.4,-0.5,210.0,7.0,,10.0,1018.6261119999999,VFR,,,METAR KBRG 131055Z AUTO 21007KT 10SM CLR 14/00 A3008 RMK AO2 T01441005
KBRL,2026-04-13 10:53:00+00:00,2026-04-13 10:53:00+00:00,16.1,15.0,220.0,6.0,,10.0,1011.176054,VFR,,"[{""cover"": ""FEW"", ""base_ft_agl"": 1700.0}]",METAR KBRL 131053Z AUTO 22006KT 10SM FEW017 16/15 A2986 RMK AO2 SLP110 T01610150
KBRO,2026-04-13 10:53:00+00:00,2026-04-13 10:53:00+00:00,25.6,22.8,160.0,10.0,,10.0,1016.9329170000001,MVFR,,"[{""cover"": ""SCT"", ""base_ft_agl"": 1100.0}, {""cover"": ""BKN"", ""base_ft_agl"": 1500.0}, {""cover"": ""OVC"", ""base_ft_agl"": 2100.0}]",METAR KBRO 131053Z AUTO 16010KT 10SM SCT011 BKN015 OVC021 26/23 A3003 RMK AO2 SLP166 T02560228
KBRY,2026-04-13 10:55:00+00:00,2026-04-13 10:55:00+00:00,21.7,11.8,210.0,8.0,,10.0,1019.30339,VFR,,"[{""cover"": ""FEW"", ""base_ft_agl"": 5000.0}, {""cover"": ""OVC"", ""base_ft_agl"": 6500.0}]",METAR KBRY 131055Z AUTO 21008KT 10SM FEW050 OVC065 22/12 A3010 RMK AO2 T02170118
KBTA,2026-04-13 10:55:00+00:00,2026-04-13 10:55:00+00:00,18.2,17.2,150.0,10.0,,10.0,1005.4191910000001,VFR,,"[{""cover"": ""SCT"", ""base_ft_agl"": 1600.0}]",METAR KBTA 131055Z AUTO 15010KT 10SM SCT016 18/17 A2969 RMK AO2 T01820172
KBTL,2026-04-13 11:02:00+00:00,2026-04-13 11:02:00+00:00,16.7,15.6,250.0,14.0,21.0,10.0,1011.5146930000001,MVFR,,"[{""cover"": ""OVC"", ""base_ft_agl"": 1300.0}]",SPECI KBTL 131102Z 25014G21KT 10SM OVC013 17/16 A2987 RMK AO2 RAE00 P0000 T01670156
KBTM,2026-04-13 10:53:00+00:00,2026-04-13 10:53:00+00:00,0.6,0.0,210.0,6.0,,10.0,1008.128303,VFR,,,METAR KBTM 131053Z AUTO 21006KT 10SM CLR 01/00 A2977 RMK AO2 SLP076 T00060000
KBTN,2026-04-13 10:55:00+00:00,2026-04-13 10:55:00+00:00,5.0,5.0,50.0,12.0,,6.0,1008.466942,LIFR,BR,"[{""cover"": ""OVC"", ""base_ft_agl"": 300.0}]",METAR KBTN 131055Z AUTO 05012KT 6SM BR OVC003 05/05 A2978 RMK AO2
KBTP,2026-04-13 10:56:00+00:00,2026-04-13 10:56:00+00:00,21.1,7.8,220.0,15.0,24.0,10.0,1015.917,VFR,-RA,"[{""cover"": ""BKN"", ""base_ft_agl"": 8000.0}, {""cover"": ""OVC"", ""base_ft_agl"": 9000.0}]",METAR KBTP 131056Z AUTO 22015G24KT 10SM -RA BKN080 OVC090 21/08 A3000 RMK AO2 RAE18B46 SLP157 P0000 T02110078 $
KBTR,2026-04-13 10:53:00+00:00,2026-04-13 10:53:00+00:00,20.0,18.3,150.0,7.0,,10.0,1021.335224,VFR,,,METAR KBTR 131053Z 15007KT 10SM CLR 20/18 A3016 RMK AO2 SLP210 T02000183
KBTV,2026-04-13 10:54:00+00:00,2026-04-13 10:54:00+00:00,11.1,2.8,190.0,25.0,38.0,10.0,1012.1919710000001,VFR,,"[{""cover"": ""BKN"", ""base_ft_agl"": 10000.0}]",METAR KBTV 131054Z 19025G38KT 10SM BKN100 11/03 A2989 RMK AO2 PK WND 19042/1008 SLP122 T01110028
KBUF,2026-04-13 10:54:00+00:00,2026-04-13 10:54:00+00:00,17.2,8.9,250.0,20.0,33.0,10.0,1011.176054,VFR,-RA,"[{""cover"": ""FEW"", ""base_ft_agl"": 7000.0}, {""cover"": ""OVC"", ""base_ft_agl"": 10000.0}]",METAR KBUF 131054Z 25020G33KT 10SM -RA FEW070 OVC100 17/09 A2986 RMK AO2 PK WND 26033/1054 RAB51 SLP109 P0000 T01720089 $
KBUR,2026-04-13 10:53:00+00:00,2026-04-13 10:53:00+00:00,12.2,7.2,0.0,0.0,,10.0,1016.594278,VFR,,"[{""cover"": ""OVC"", ""base_ft_agl"": 7000.0}]",METAR KBUR 131053Z 00000KT 10SM OVC070 12/07 A3002 RMK AO2 SLP155 T01220072
KBUU,2026-04-13 10:55:00+00:00,2026-04-13 10:55:00+00:00,16.6,15.1,230.0,9.0,15.0,10.0,1009.821498,IFR,,"[{""cover"": ""OVC"", ""base_ft_agl"": 900.0}]",METAR KBUU 131055Z AUTO 23009G15KT 10SM OVC009 17/15 A2982 RMK AO2 T01660151 PWINO
KBUY,2026-04-13 10:54:00+00:00,2026-04-13 10:54:00+00:00,15.6,12.8,190.0,4.0,,10.0,1026.4148089999999,VFR,,,METAR KBUY 131054Z AUTO 19004KT 10SM CLR 16/13 A3031 RMK AO2 SLP260 T01560128
KBVI,2026-04-13 10:55:00+00:00,2026-04-13 10:55:00+00:00,22.5,6.0,240.0,10.0,19.0,10.0,1015.917,VFR,,"[{""cover"": ""OVC"", ""base_ft_agl"": 6500.0}]",METAR KBVI 131055Z AUTO 24010G19KT 10SM OVC065 23/06 A3000 RMK AO2 T02250060
KBVN,2026-04-13 10:55:00+00:00,2026-04-13 10:55:00+00:00,10.2,8.5,0.0,0.0,,10.0,1003.725996,VFR,,,METAR KBVN 131055Z AUTO 00000KT 10SM CLR 10/09 A2964 RMK AO2 T01020085
KBVO,2026-04-13 10:53:00+00:00,2026-04-13 10:53:00+00:00,21.7,18.3,180.0,11.0,16.0,10.0,1012.53061,MVFR,,"[{""cover"": ""OVC"", ""base_ft_agl"": 2300.0}]",METAR KBVO 131053Z AUTO 18011G16KT 10SM OVC023 22/18 A2990 RMK AO2 SLP115 T02170183
KBVS,2026-04-13 10:55:00+00:00,2026-04-13 10:55:00+00:00,9.0,9.0,180.0,4.0,,10.0,1012.53061,VFR,,"[{""cover"": ""OVC"", ""base_ft_agl"": 3800.0}]",METAR KBVS 131055Z AUTO 18004KT 10SM OVC038 09/09 A2990 RMK A01
KBVU,2026-04-13 10:55:00+00:00,2026-04-13 10:55:00+00:00,14.0,-2.0,0.0,0.0,,10.0,1012.8692490000001,VFR,,"[{""cover"": ""BKN"", ""base_ft_agl"": 7000.0}, {""cover"": ""OVC"", ""base_ft_agl"": 8500.0}]",METAR KBVU 131055Z AUTO 00000KT 10SM BKN070 OVC085 14/M02 A2991 RMK AO2
KBVX,2026-04-13 10:56:00+00:00,2026-04-13 10:56:00+00:00,20.6,18.3,190.0,5.0,,10.0,1018.6261119999999,VFR,,"[{""cover"": ""FEW"", ""base_ft_agl"": 3100.0}]",METAR KBVX 131056Z AUTO 19005KT 10SM FEW031 21/18 A3008 RMK AO2 SLP182 T02060183 $
KBVY,2026-04-13 10:53:00+00:00,2026-04-13 10:53:00+00:00,10.0,5.0,190.0,13.0,19.0,10.0,1019.980668,MVFR,,"[{""cover"": ""OVC"", ""base_ft_agl"": 2600.0}]",METAR KBVY 131053Z 19013G19KT 10SM OVC026 10/05 A3012 RMK AO2 SLP196 T01000050
KBWD,2026-04-13 10:55:00+00:00,2026-04-13 10:55:00+00:00,20.9,20.7,160.0,4.0,,10.0,1016.2556390000001,MVFR,,"[{""cover"": ""SCT"", ""base_ft_agl"": 1200.0}, {""cover"": ""OVC"", ""base_ft_agl"": 2200.0}]",METAR KBWD 131055Z AUTO 16004KT 10SM SCT012 OVC022 21/21 A3001 RMK AO2 CIG 017V023 T02090207 $
KBWG,2026-04-13 10:53:00+00:00,2026-04-13 10:53:00+00:00,22.2,12.2,180.0,6.0,,10.0,1020.657946,VFR,,"[{""cover"": ""BKN"", ""base_ft_agl"": 8000.0}, {""cover"": ""OVC"", ""base_ft_agl"": 9000.0}]",METAR KBWG 131053Z AUTO 18006KT 10SM BKN080 OVC090 22/12 A3014 RMK AO2 RAB0954E18 SLP202 P0000 T02220122
KBWI,2026-04-13 10:54:00+00:00,2026-04-13 10:54:00+00:00,12.2,11.1,0.0,0.0,,10.0,1020.996585,VFR,,"[{""cover"": ""SCT"", ""base_ft_agl"": 11000.0}, {""cover"": ""SCT"", ""base_ft_agl"": 18000.0}, {""cover"": ""SCT"", ""base_ft_agl"": 21000.0}, {""cover"": ""BKN"", ""base_ft_agl"": 25000.0}]",METAR KBWI 131054Z 00000KT 10SM SCT110 SCT180 SCT210 BKN250 12/11 A3015 RMK AO2 SLP209 T01220111
KBWP,2026-04-13 10:55:00+00:00,2026-04-13 10:55:00+00:00,6.0,7.0,350.0,7.0,16.0,10.0,1009.482859,IFR,,"[{""cover"": ""OVC"", ""base_ft_agl"": 800.0}]",METAR KBWP 131055Z AUTO 35007G16KT 10SM OVC008 06/07 A2981 RMK AO2
KBWW,2026-04-13 10:55:00+00:00,2026-04-13 10:55:00+00:00,6.0,6.0,0.0,13.0,,0.25,1007.112386,LIFR,FG,"[{""cover"": ""OVC"", ""base_ft_agl"": 200.0}]",METAR KBWW 131055Z AUTO 12.87500013KT M1/4SM FG OVC002 06/06 A2974 RMK AO2
KBXA,2026-04-13 10:55:00+00:00,2026-04-13 10:55:00+00:00,15.0,14.4,0.0,0.0,,10.0,1022.68978,VFR,,,METAR KBXA 131055Z AUTO 00000KT 10SM CLR 15/14 A3020 RMK AO2 T01500144
KBXK,2026-04-13 10:55:00+00:00,2026-04-13 10:55:00+00:00,16.0,7.0,0.0,0.0,,10.0,1014.223805,VFR,,,METAR KBXK 131055Z AUTO 00000KT 10SM CLR 16/07 A2995 RMK AO2
KBXM,2026-04-13 10:55:00+00:00,2026-04-13 10:55:00+00:00,6.0,6.0,180.0,15.0,23.0,4.0,1020.657946,IFR,-RA BR,"[{""cover"": ""OVC"", ""base_ft_agl"": 500.0}]",METAR KBXM 131055Z AUTO 18015G23KT 4SM -RA BR OVC005 06/06 A3014 RMK AO2 P0002
KBYG,2026-04-13 10:53:00+00:00,2026-04-13 10:53:00+00:00,6.1,0.6,0.0,0.0,,10.0,1006.0964690000001,VFR,,"[{""cover"": ""FEW"", ""base_ft_agl"": 11000.0}]",METAR KBYG 131053Z AUTO 00000KT 10SM FEW110 06/01 A2971 RMK AO2 SLP033 T00610006
KBYI,2026-04-13 10:53:00+00:00,2026-04-13 10:53:00+00:00,1.1,-1.1,200.0,7.0,,10.0,1013.2078880000001,VFR,,,METAR KBYI 131053Z AUTO 20007KT 10SM CLR 01/M01 A2992 RMK AO2 SLP131 T00111011
KBYL,2026-04-13 10:55:00+00:00,2026-04-13 10:55:00+00:00,21.2,7.7,230.0,8.0,,9.0,1023.7056970000001,VFR,-RA,"[{""cover"": ""SCT"", ""base_ft_agl"": 7500.0}, {""cover"": ""OVC"", ""base_ft_agl"": 9500.0}]",METAR KBYL 131055Z AUTO 23008KT 9SM -RA SCT075 OVC095 21/08 A3023 RMK AO2 RAB1038 P0000 T02120077
KBYS,2026-04-13 10:55:00+00:00,2026-04-13 10:55:00+00:00,9.3,2.4,190.0,8.0,,10.0,1014.223805,VFR,,,METAR KBYS 131055Z AUTO 19008KT 10SM CLR 09/02 A2995 RMK AO2 SLP133 T00930024 $
KBYY,2026-04-13 10:55:00+00:00,2026-04-13 10:55:00+00:00,22.7,22.7,140.0,7.0,,10.0,1017.6101950000001,VFR,,"[{""cover"": ""SCT"", ""base_ft_agl"": 2400.0}]",METAR KBYY 131055Z AUTO 14007KT 10SM SCT024 23/23 A3005 RMK AO2 SCT V BKN T02270227
KC07,2026-04-13 10:55:00+00:00,2026-04-13 10:55:00+00:00,-1.0,-6.0,,,,10.0,1017.6101950000001,VFR,,"[{""cover"": ""BKN"", ""base_ft_agl"": 4600.0}, {""cover"": ""BKN"", ""base_ft_agl"": 5500.0}]",METAR KC07 131055Z AUTO 10SM BKN046 BKN055 M01/M06 A3005 RMK AO2
KC09,2026-04-13 10:55:00+00:00,2026-04-13 10:55:00+00:00,17.2,16.0,250.0,8.0,,10.0,1011.853332,VFR,,"[{""cover"": ""SCT"", ""base_ft_agl"": 2500.0}]",METAR KC09 131055Z AUTO 25008KT 10SM SCT025 17/16 A2988 RMK AO2 T01720160
KC24,2026-04-13 10:55:00+00:00,2026-04-13 10:55:00+00:00,-0.3,-10.6,270.0,9.0,,10.0,1018.964751,VFR,,,METAR KC24 131055Z AUTO 27009KT 10SM CLR M00/M11 A3009 RMK AO2 T10031106
KC29,2026-04-13 10:55:00+00:00,2026-04-13 10:55:00+00:00,17.3,15.0,230.0,9.0,,10.0,1009.14422,MVFR,,"[{""cover"": ""OVC"", ""base_ft_agl"": 1800.0}]",METAR KC29 131055Z AUTO 23009KT 10SM OVC018 17/15 A2980 RMK AO1 T01730150
KC35,2026-04-13 10:55:00+00:00,2026-04-13 10:55:00+00:00,16.0,15.5,240.0,5.0,,10.0,1008.128303,VFR,,,METAR KC35 131055Z AUTO 24005KT 10SM CLR 16/16 A2977 RMK AO2 T01600155 PWINO
KC65,2026-04-13 10:55:00+00:00,2026-04-13 10:55:00+00:00,19.0,18.0,230.0,11.0,17.0,10.0,1012.53061,MVFR,,"[{""cover"": ""BKN"", ""base_ft_agl"": 2400.0}, {""cover"": ""OVC"", ""base_ft_agl"": 2900.0}]",METAR KC65 131055Z AUTO 23011G17KT 10SM BKN024 OVC029 19/18 A2990 RMK A01
KC75,2026-04-13 10:55:00+00:00,2026-04-13 10:55:00+00:00,17.5,15.1,210.0,7.0,,10.0,1012.53061,MVFR,,"[{""cover"": ""OVC"", ""base_ft_agl"": 2500.0}]",METAR KC75 131055Z AUTO 21007KT 10SM OVC025 18/15 A2990 RMK AO2 T01750151
KC83,2026-04-13 10:55:00+00:00,2026-04-13 10:55:00+00:00,11.0,10.0,0.0,0.0,,10.0,1017.6101950000001,VFR,,"[{""cover"": ""OVC"", ""base_ft_agl"": 11000.0}]",METAR KC83 131055Z AUTO 00000KT 10SM OVC110 11/10 A3005 RMK AO2
KC99,2026-04-13 10:55:00+00:00,2026-04-13 10:55:00+00:00,-2.0,-12.0,280.0,12.0,21.0,10.0,1015.917,VFR,,,METAR KC99 131055Z AUTO 28012G21KT 10SM CLR M02/M12 A3000 RMK AO2
KCAD,2026-04-13 10:55:00+00:00,2026-04-13 10:55:00+00:00,15.0,14.0,250.0,11.0,16.0,10.0,1006.7737470000001,IFR,,"[{""cover"": ""OVC"", ""base_ft_agl"": 600.0}]",METAR KCAD 131055Z AUTO 25011G16KT 10SM OVC006 15/14 A2973 RMK AO2
KCAE,2026-04-13 10:56:00+00:00,2026-04-13 10:56:00+00:00,13.9,12.2,0.0,0.0,,10.0,1027.092087,VFR,,"[{""cover"": ""BKN"", ""base_ft_agl"": 25000.0}]",METAR KCAE 131056Z 00000KT 10SM BKN250 14/12 A3033 RMK AO2 SLP269 T01390122 $
KCAG,2026-04-13 10:53:00+00:00,2026-04-13 10:53:00+00:00,8.9,-4.4,250.0,12.0,19.0,10.0,1012.8692490000001,VFR,,"[{""cover"": ""FEW"", ""base_ft_agl"": 8000.0}, {""cover"": ""OVC"", ""base_ft_agl"": 9500.0}]",METAR KCAG 131053Z AUTO 25012G19KT 10SM FEW080 OVC095 09/M04 A2991 RMK AO2 SLP076 T00891044
KCAK,2026-04-13 10:51:00+00:00,2026-04-13 10:51:00+00:00,20.0,9.4,240.0,19.0,29.0,10.0,1014.901083,VFR,,"[{""cover"": ""OVC"", ""base_ft_agl"": 6500.0}]",METAR KCAK 131051Z 24019G29KT 10SM OVC065 20/09 A2997 RMK AO2 PK WND 25029/1050 SLP141 T02000094
KCAO,2026-04-13 10:55:00+00:00,2026-04-13 10:55:00+00:00,11.7,-5.6,270.0,11.0,,10.0,1013.546527,VFR,,,METAR KCAO 131055Z AUTO 27011KT 10SM CLR 12/M06 A2993 RMK AO2 SLP082 T01171056
KCAR,2026-04-13 11:01:00+00:00,2026-04-13 11:01:00+00:00,3.3,0.0,190.0,16.0,27.0,10.0,1014.562444,MVFR,,"[{""cover"": ""BKN"", ""base_ft_agl"": 2100.0}, {""cover"": ""OVC"", ""base_ft_agl"": 3900.0}]",SPECI KCAR 131101Z AUTO 19016G27KT 10SM BKN021 OVC039 03/00 A2996 RMK AO2 PK WND 18027/1055 T00330000
KCAV,2026-04-13 10:55:00+00:00,2026-04-13 10:55:00+00:00,13.0,13.0,170.0,9.0,,0.5,1007.7896640000001,LIFR,BR,"[{""cover"": ""OVX"", ""base_ft_agl"": 500.0}]",METAR KCAV 131055Z AUTO 17009KT 1/2SM BR VV005 13/13 A2976 RMK A01
KCBE,2026-04-13 10:55:00+00:00,2026-04-13 10:55:00+00:00,14.2,10.8,0.0,0.0,,10.0,1020.319307,VFR,,,METAR KCBE 131055Z AUTO 00000KT 10SM CLR 14/11 A3013 RMK AO2 T01420108
KCBF,2026-04-13 10:55:00+00:00,2026-04-13 10:55:00+00:00,17.0,17.0,160.0,10.0,,10.0,1005.4191910000001,MVFR,,"[{""cover"": ""OVC"", ""base_ft_agl"": 1400.0}]",METAR KCBF 131055Z AUTO 16010KT 10SM OVC014 17/17 A2969 RMK AO2
KCBG,2026-04-13 10:55:00+00:00,2026-04-13 10:55:00+00:00,10.7,9.8,330.0,4.0,,9.0,1008.128303,MVFR,,"[{""cover"": ""BKN"", ""base_ft_agl"": 1200.0}]",METAR KCBG 131055Z AUTO 33004KT 9SM BKN012 11/10 A2977 RMK AO2 T01070098
KCBK,2026-04-13 10:55:00+00:00,2026-04-13 10:55:00+00:00,11.7,-5.2,240.0,14.0,,10.0,1006.0964690000001,VFR,,,METAR KCBK 131055Z AUTO 24014KT 10SM CLR 12/M05 A2971 RMK AO2 T01171052
KCCA,2026-04-13 10:55:00+00:00,2026-04-13 10:55:00+00:00,19.0,18.0,0.0,0.0,,10.0,1018.2874730000001,MVFR,,"[{""cover"": ""FEW"", ""base_ft_agl"": 1700.0}, {""cover"": ""BKN"", ""base_ft_agl"": 2400.0}, {""cover"": ""OVC"", ""base_ft_agl"": 3800.0}]",METAR KCCA 131055Z AUTO 00000KT 10SM FEW017 BKN024 OVC038 19/18 A3007 RMK AO2
KCCB,2026-04-13 10:55:00+00:00,2026-04-13 10:55:00+00:00,11.0,8.0,0.0,0.0,,10.0,1016.2556390000001,VFR,,,METAR KCCB 131055Z AUTO 00000KT 10SM 11/08 A3001 RMK AO2
KCCO,2026-04-13 10:55:00+00:00,2026-04-13 10:55:00+00:00,13.0,10.0,0.0,0.0,,10.0,1026.753448,VFR,,,METAR KCCO 131055Z AUTO 00000KT 10SM CLR 13/10 A3032 RMK AO2 T01300100
KCCR,2026-04-13 10:53:00+00:00,2026-04-13 10:53:00+00:00,10.6,9.4,160.0,3.0,,10.0,1017.6101950000001,VFR,,"[{""cover"": ""FEW"", ""base_ft_agl"": 2800.0}, {""cover"": ""OVC"", ""base_ft_agl"": 3600.0}]",METAR KCCR 131053Z 16003KT 10SM FEW028 OVC036 11/09 A3005 RMK AO2 SLP163 T01060094
KCCY,2026-04-13 10:55:00+00:00,2026-04-13 10:55:00+00:00,13.0,13.0,170.0,7.0,,0.25,1008.128303,LIFR,FG,"[{""cover"": ""OVC"", ""base_ft_agl"": 200.0}]",METAR KCCY 131055Z AUTO 17007KT M1/4SM FG OVC002 13/13 A2977 RMK AO2
KCDA,2026-04-13 10:55:00+00:00,2026-04-13 10:55:00+00:00,3.6,3.0,130.0,7.0,,10.0,1015.578361,IFR,,"[{""cover"": ""OVC"", ""base_ft_agl"": 900.0}]",METAR KCDA 131055Z AUTO 13007KT 10SM OVC009 04/03 A2999 RMK AO2 T00360030
KCDC,2026-04-13 10:53:00+00:00,2026-04-13 10:53:00+00:00,5.0,0.6,200.0,3.0,,10.0,1014.901083,VFR,,"[{""cover"": ""SCT"", ""base_ft_agl"": 5000.0}, {""cover"": ""SCT"", ""base_ft_agl"": 7500.0}, {""cover"": ""BKN"", ""base_ft_agl"": 8500.0}]",METAR KCDC 131053Z AUTO 20003KT 10SM SCT050 SCT075 BKN085 05/01 A2997 RMK AO2 SLP107 T00500006
KCDH,2026-04-13 10:55:00+00:00,2026-04-13 10:55:00+00:00,20.0,19.0,0.0,0.0,,10.0,1019.980668,VFR,,"[{""cover"": ""FEW"", ""base_ft_agl"": 2500.0}, {""cover"": ""OVC"", ""base_ft_agl"": 3600.0}]",METAR KCDH 131055Z AUTO 00000KT 10SM FEW025 OVC036 20/19 A3012 RMK AO2
KCDI,2026-04-13 10:55:00+00:00,2026-04-13 10:55:00+00:00,21.7,10.2,210.0,11.0,17.0,10.0,1017.271556,VFR,,"[{""cover"": ""OVC"", ""base_ft_agl"": 6500.0}]",METAR KCDI 131055Z AUTO 21011G17KT 10SM OVC065 22/10 A3004 RMK AO2 T02170102
KCDJ,2026-04-13 10:51:00+00:00,2026-04-13 10:51:00+00:00,20.0,17.2,180.0,9.0,,,1010.8374150000001,,,,METAR KCDJ 131051Z AUTO 18009KT 20/17 A2985 RMK AO1 SLP100 T02000172
KCDN,2026-04-13 10:55:00+00:00,2026-04-13 10:55:00+00:00,13.0,12.0,0.0,0.0,,10.0,1027.430726,VFR,,,METAR KCDN 131055Z AUTO 00000KT 10SM 13/12 A3034 RMK AO2
KCDR,2026-04-13 10:53:00+00:00,2026-04-13 10:53:00+00:00,5.6,-2.8,0.0,0.0,,10.0,1006.435108,VFR,,,METAR KCDR 131053Z AUTO 00000KT 10SM CLR 06/M03 A2972 RMK AO2 SLP053 T00561028 $
KCDS,2026-04-13 10:53:00+00:00,2026-04-13 10:53:00+00:00,20.6,16.1,210.0,15.0,23.0,10.0,1013.546527,VFR,,,METAR KCDS 131053Z AUTO 21015G23KT 10SM CLR 21/16 A2993 RMK AO2 SLP107 T02060161
KCDW,2026-04-13 10:53:00+00:00,2026-04-13 10:53:00+00:00,8.9,5.0,0.0,0.0,,10.0,1021.6738630000001,MVFR,,"[{""cover"": ""OVC"", ""base_ft_agl"": 1500.0}]",METAR KCDW 131053Z 00000KT 10SM OVC015 09/05 A3017 RMK AO2 SLP221 T00890050
KCEC,2026-04-13 10:56:00+00:00,2026-04-13 10:56:00+00:00,7.8,6.1,90.0,4.0,,10.0,1019.642029,MVFR,,"[{""cover"": ""OVC"", ""base_ft_agl"": 2800.0}]",METAR KCEC 131056Z AUTO 09004KT 10SM OVC028 08/06 A3011 RMK AO2 SLP195 T00780061
KCEF,2026-04-13 10:55:00+00:00,2026-04-13 10:55:00+00:00,9.3,3.1,200.0,10.0,,10.0,1019.30339,MVFR,,"[{""cover"": ""OVC"", ""base_ft_agl"": 2000.0}]",METAR KCEF 131055Z AUTO 20010KT 10SM OVC020 09/03 A3010 RMK AO2 CIG 019 RWY05 SLP197 T00930031
KCEU,2026-04-13 10:54:00+00:00,2026-04-13 10:54:00+00:00,15.0,10.6,0.0,0.0,,10.0,1027.430726,VFR,,,METAR KCEU 131054Z AUTO 00000KT 10SM CLR 15/11 A3034 RMK AO2 SLP265 T01500106
KCEW,2026-04-13 10:53:00+00:00,2026-04-13 10:53:00+00:00,10.6,10.6,0.0,0.0,,8.0,1026.4148089999999,VFR,,,METAR KCEW 131053Z AUTO 00000KT 8SM CLR 11/11 A3031 RMK AO2 SLP262 T01060106
KCEY,2026-04-13 10:55:00+00:00,2026-04-13 10:55:00+00:00,21.0,14.0,190.0,9.0,16.0,10.0,1019.980668,VFR,,,METAR KCEY 131055Z AUTO 19009G16KT 10SM CLR 21/14 A3012 RMK AO2
KCEZ,2026-04-13 10:53:00+00:00,2026-04-13 10:53:00+00:00,8.3,-3.9,200.0,9.0,,10.0,1017.6101950000001,VFR,,,METAR KCEZ 131053Z AUTO 20009KT 10SM CLR 08/M04 A3005 RMK AO2 SLP121 T00831039
KCFD,2026-04-13 10:55:00+00:00,2026-04-13 10:55:00+00:00,21.6,21.1,160.0,7.0,,5.0,1019.980668,MVFR,-RA,"[{""cover"": ""BKN"", ""base_ft_agl"": 1000.0}, {""cover"": ""OVC"", ""base_ft_agl"": 1400.0}]",METAR KCFD 131055Z AUTO 16007KT 5SM -RA BKN010 OVC014 22/21 A3012 RMK AO2 LTG DSNT E T02160211
KCFE,2026-04-13 10:55:00+00:00,2026-04-13 10:55:00+00:00,11.0,11.0,20.0,11.0,,10.0,1007.112386,VFR,,"[{""cover"": ""FEW"", ""base_ft_agl"": 4200.0}, {""cover"": ""SCT"", ""base_ft_agl"": 5000.0}]",METAR KCFE 131055Z AUTO 02011KT 10SM FEW042 SCT050 11/11 A2974 RMK AO2
KCFJ,2026-04-13 10:55:00+00:00,2026-04-13 10:55:00+00:00,18.0,13.0,220.0,11.0,14.0,10.0,1015.578361,VFR,,"[{""cover"": ""BKN"", ""base_ft_agl"": 3300.0}, {""cover"": ""BKN"", ""base_ft_agl"": 4100.0}, {""cover"": ""OVC"", ""base_ft_agl"": 5500.0}]",METAR KCFJ 131055Z AUTO 22011G14KT 10SM BKN033 BKN041 OVC055 18/13 A2999 RMK AO2 T01800130
KCFO,2026-04-13 10:55:00+00:00,2026-04-13 10:55:00+00:00,10.3,-8.8,200.0,10.0,,10.0,1010.498776,VFR,,,METAR KCFO 131055Z AUTO 20010KT 10SM CLR 10/M09 A2984 RMK AO2 T01031088
KCFS,2026-04-13 10:55:00+00:00,2026-04-13 10:55:00+00:00,15.0,15.0,240.0,11.0,,10.0,1007.4510250000001,IFR,-RA,"[{""cover"": ""OVC"", ""base_ft_agl"": 900.0}]",METAR KCFS 131055Z AUTO 24011KT 10SM -RA OVC009 15/15 A2975 RMK AO2 P0003
KCFV,2026-04-13 10:52:00+00:00,2026-04-13 10:52:00+00:00,21.1,18.3,180.0,12.0,20.0,10.0,1011.853332,MVFR,,"[{""cover"": ""OVC"", ""base_ft_agl"": 2200.0}]",METAR KCFV 131052Z AUTO 18012G20KT 10SM OVC022 21/18 A2988 RMK AO2 SLP112 T02110183
KCGC,2026-04-13 10:55:00+00:00,2026-04-13 10:55:00+00:00,12.0,11.0,0.0,0.0,,10.0,1026.07617,VFR,,,METAR KCGC 131055Z AUTO 00000KT 10SM CLR 12/11 A3030 RMK AO2
KCGE,2026-04-13 10:55:00+00:00,2026-04-13 10:55:00+00:00,16.0,14.0,180.0,10.0,17.0,10.0,1023.0284190000001,VFR,,"[{""cover"": ""FEW"", ""base_ft_agl"": 1800.0}]",METAR KCGE 131055Z AUTO 18010G17KT 10SM FEW018 16/14 A3021 RMK A01
KCGF,2026-04-13 10:45:00+00:00,2026-04-13 10:45:00+00:00,21.0,11.0,250.0,19.0,41.0,10.0,1012.53061,VFR,,"[{""cover"": ""OVC"", ""base_ft_agl"": 5000.0}]",METAR KCGF 131045Z 25019G41KT 10SM OVC050 21/11 A2990
KCGI,2026-04-13 10:53:00+00:00,2026-04-13 10:53:00+00:00,21.7,13.9,200.0,14.0,21.0,10.0,1017.6101950000001,VFR,,"[{""cover"": ""OVC"", ""base_ft_agl"": 3800.0}]",METAR KCGI 131053Z AUTO 20014G21KT 10SM OVC038 22/14 A3005 RMK AO2 SLP172 T02170139
KCGS,2026-04-13 10:55:00+00:00,2026-04-13 10:55:00+00:00,17.4,14.4,200.0,5.0,,10.0,1021.6738630000001,VFR,,,METAR KCGS 131055Z AUTO 20005KT 10SM CLR 17/14 A3017 RMK AO2 T01740144
KCGZ,2026-04-13 10:56:00+00:00,2026-04-13 10:56:00+00:00,18.3,4.4,100.0,3.0,,10.0,1014.901083,VFR,,,METAR KCGZ 131056Z AUTO 10003KT 10SM CLR 18/04 A2997 RMK AO2 SLP137 T01830044 $
KCHA,2026-04-13 10:53:00+00:00,2026-04-13 10:53:00+00:00,16.7,9.4,0.0,3.0,,10.0,1024.721614,VFR,,"[{""cover"": ""BKN"", ""base_ft_agl"": 12000.0}, {""cover"": ""BKN"", ""base_ft_agl"": 25000.0}]",METAR KCHA 131053Z COR VRB03KT 10SM BKN120 BKN250 17/09 A3026 RMK AO2 SLP242 T01670094 $
KCHD,2026-04-13 10:55:00+00:00,2026-04-13 10:55:00+00:00,16.7,8.3,110.0,5.0,,10.0,1014.562444,VFR,,"[{""cover"": ""BKN"", ""base_ft_agl"": 7000.0}]",METAR KCHD 131055Z AUTO 11005KT 10SM BKN070 17/08 A2996 RMK AO2 T01670083 $
KCHK,2026-04-13 10:55:00+00:00,2026-04-13 10:55:00+00:00,20.0,18.0,190.0,15.0,23.0,10.0,1013.885166,VFR,,,METAR KCHK 131055Z AUTO 19015G23KT 10SM CLR 20/18 A2994 RMK AO2 P0001
KCHO,2026-04-13 10:53:00+00:00,2026-04-13 10:53:00+00:00,17.8,12.8,180.0,9.0,,10.0,1022.68978,VFR,,,METAR KCHO 131053Z 18009KT 10SM CLR 18/13 A3020 RMK AO2 SLP221 T01780128 $
KCHS,2026-04-13 10:56:00+00:00,2026-04-13 10:56:00+00:00,14.4,14.4,0.0,0.0,,7.0,1027.430726,VFR,BCFG,"[{""cover"": ""FEW"", ""base_ft_agl"": 25000.0}]",METAR KCHS 131056Z 00000KT 7SM BCFG FEW250 14/14 A3034 RMK AO2 SLP272 T01440144
KCIC,2026-04-13 10:55:00+00:00,2026-04-13 10:55:00+00:00,8.0,7.0,0.0,0.0,,10.0,1018.964751,VFR,,"[{""cover"": ""OVC"", ""base_ft_agl"": 4300.0}]",METAR KCIC 131055Z AUTO 00000KT 10SM OVC043 08/07 A3009 RMK AO1
KCID,2026-04-13 10:52:00+00:00,2026-04-13 10:52:00+00:00,15.0,14.4,180.0,8.0,,0.25,1009.482859,LIFR,FG,"[{""cover"": ""OVX"", ""base_ft_agl"": 100.0}]",METAR KCID 131052Z 18008KT 1/4SM R09/1400V1800FT FG VV001 15/14 A2981 RMK AO2 SLP092 T01500144 $
KCIN,2026-04-13 10:55:00+00:00,2026-04-13 10:55:00+00:00,16.0,16.0,200.0,10.0,,10.0,1006.7737470000001,VFR,,,METAR KCIN 131055Z AUTO 20010KT 10SM CLR 16/16 A2973 RMK AO2
KCIR,2026-04-13 10:55:00+00:00,2026-04-13 10:55:00+00:00,22.7,14.6,210.0,10.0,18.0,10.0,1018.6261119999999,VFR,,"[{""cover"": ""SCT"", ""base_ft_agl"": 3600.0}, {""cover"": ""BKN"", ""base_ft_agl"": 4600.0}, {""cover"": ""OVC"", ""base_ft_agl"": 7500.0}]",METAR KCIR 131055Z AUTO 21010G18KT 10SM SCT036 BKN046 OVC075 23/15 A3008 RMK AO2 T02270146
KCIU,2026-04-13 10:56:00+00:00,2026-04-13 10:56:00+00:00,8.3,8.3,280.0,9.0,,0.25,1003.048718,LIFR,-RA FG,"[{""cover"": ""OVC"", ""base_ft_agl"": 200.0}]",METAR KCIU 131056Z AUTO 28009KT 1/4SM -RA FG OVC002 08/08 A2962 RMK AO2 SLP037 P0000 T00830083
KCJR,2026-04-13 10:55:00+00:00,2026-04-13 10:55:00+00:00,19.9,13.1,210.0,8.0,,10.0,1022.3511410000001,VFR,,,METAR KCJR 131055Z AUTO 21008KT 10SM CLR 20/13 A3019 RMK AO2 T01990131
KCKB,2026-04-13 10:53:00+00:00,2026-04-13 10:53:00+00:00,21.7,6.1,220.0,15.0,23.0,10.0,1019.642029,VFR,,,METAR KCKB 131053Z AUTO 22015G23KT 10SM CLR 22/06 A3011 RMK AO2 SLP181 T02170061 $
KCKC,2026-04-13 10:55:00+00:00,2026-04-13 10:55:00+00:00,3.0,3.0,340.0,6.0,,10.0,1005.75783,LIFR,,"[{""cover"": ""OVC"", ""base_ft_agl"": 300.0}]",METAR KCKC 131055Z AUTO 34006KT 10SM OVC003 03/03 A2970 RMK AO2
KCKI,2026-04-13 10:55:00+00:00,2026-04-13 10:55:00+00:00,10.0,10.0,0.0,0.0,,0.25,1027.769365,LIFR,FG,"[{""cover"": ""OVC"", ""base_ft_agl"": 100.0}]",METAR KCKI 131055Z AUTO 00000KT M1/4SM FG OVC001 10/10 A3035 RMK AO2
KCKM,2026-04-13 10:55:00+00:00,2026-04-13 10:55:00+00:00,,,160.0,9.0,14.0,10.0,1020.996585,VFR,,,METAR KCKM 131055Z AUTO 16009G14KT 10SM A3015 RMK A01
KCKN,2026-04-13 10:55:00+00:00,2026-04-13 10:55:00+00:00,3.0,2.0,0.0,0.0,,1.25,1009.821498,LIFR,BR,"[{""cover"": ""OVC"", ""base_ft_agl"": 300.0}]",METAR KCKN 131055Z AUTO 00000KT 1 1/4SM BR OVC003 03/02 A2982 RMK AO2
KCKP,2026-04-13 10:55:00+00:00,2026-04-13 10:55:00+00:00,13.0,13.0,180.0,3.0,,4.0,1006.0964690000001,MVFR,BR,,METAR KCKP 131055Z AUTO 18003KT 4SM BR CLR 13/13 A2971 RMK AO2
KCKV,2026-04-13 10:52:00+00:00,2026-04-13 10:52:00+00:00,22.2,13.3,210.0,10.0,,10.0,1019.980668,VFR,,,METAR KCKV 131052Z AUTO 21010KT 10SM CLR 22/13 A3012 RMK AO2 SLP194 T02220133
KCKZ,2026-04-13 10:55:00+00:00,2026-04-13 10:55:00+00:00,11.0,11.0,0.0,3.0,,10.0,1021.335224,MVFR,,"[{""cover"": ""OVC"", ""base_ft_agl"": 1000.0}]",METAR KCKZ 131055Z AUTO VRB03KT 10SM OVC010 11/11 A3016 RMK AO2
KCLE,2026-04-13 10:51:00+00:00,2026-04-13 10:51:00+00:00,20.0,11.7,230.0,20.0,34.0,10.0,1012.8692490000001,VFR,,"[{""cover"": ""OVC"", ""base_ft_agl"": 4600.0}]",METAR KCLE 131051Z 23020G34KT 10SM OVC046 20/12 A2991 RMK AO2 PK WND 24045/1010 SLP139 T02000117 $
KCLI,2026-04-13 10:55:00+00:00,2026-04-13 10:55:00+00:00,15.3,14.0,240.0,8.0,,10.0,1006.7737470000001,VFR,,"[{""cover"": ""SCT"", ""base_ft_agl"": 2500.0}]",METAR KCLI 131055Z AUTO 24008KT 10SM SCT025 15/14 A2973 RMK AO2 T01530140
KCLL,2026-04-13 10:53:00+00:00,2026-04-13 10:53:00+00:00,21.7,21.1,160.0,6.0,,8.0,1018.964751,IFR,,"[{""cover"": ""BKN"", ""base_ft_agl"": 800.0}, {""cover"": ""OVC"", ""base_ft_agl"": 1500.0}]",METAR KCLL 131053Z AUTO 16006KT 8SM BKN008 OVC015 22/21 A3009 RMK AO2 RAB19E48 CIG 006V010 SLP185 P0001 T02170211
KCLM,2026-04-13 10:53:00+00:00,2026-04-13 10:53:00+00:00,7.8,5.6,280.0,5.0,,10.0,1012.8692490000001,VFR,,"[{""cover"": ""SCT"", ""base_ft_agl"": 1400.0}, {""cover"": ""BKN"", ""base_ft_agl"": 3800.0}]",METAR KCLM 131053Z AUTO 28005KT 10SM SCT014 BKN038 08/06 A2991 RMK AO2 SLP129 T00780056
KCLS,2026-04-13 10:55:00+00:00,2026-04-13 10:55:00+00:00,9.0,9.0,210.0,4.0,,10.0,1015.239722,MVFR,,"[{""cover"": ""BKN"", ""base_ft_agl"": 2800.0}, {""cover"": ""BKN"", ""base_ft_agl"": 3300.0}, {""cover"": ""OVC"", ""base_ft_agl"": 4400.0}]",METAR KCLS 131055Z AUTO 21004KT 10SM BKN028 BKN033 OVC044 09/09 A2998 RMK AO2
KCLT,2026-04-13 10:52:00+00:00,2026-04-13 10:52:00+00:00,15.0,12.8,210.0,5.0,,10.0,1027.430726,VFR,,"[{""cover"": ""BKN"", ""base_ft_agl"": 25000.0}]",METAR KCLT 131052Z 21005KT 10SM BKN250 15/13 A3034 RMK AO2 SLP281 T01500128
KCLW,2026-04-13 10:55:00+00:00,2026-04-13 10:55:00+00:00,18.0,14.0,70.0,3.0,,,1025.060253,,,,METAR KCLW 131055Z AUTO 07003KT CLR 18/14 A3027 RMK AO2
KCMA,2026-04-13 10:55:00+00:00,2026-04-13 10:55:00+00:00,10.0,7.8,0.0,0.0,,10.0,1016.2556390000001,VFR,,,METAR KCMA 131055Z AUTO 00000KT 10SM CLR 10/08 A3001 RMK AO2 SLP171 T01000078
KCMD,2026-04-13 10:55:00+00:00,2026-04-13 10:55:00+00:00,15.0,12.0,0.0,0.0,,10.0,1025.060253,VFR,,,METAR KCMD 131055Z AUTO 00000KT 10SM CLR 15/12 A3027 RMK AO2
KCMH,2026-04-13 10:51:00+00:00,2026-04-13 10:51:00+00:00,21.1,10.6,230.0,14.0,21.0,10.0,1016.9329170000001,VFR,,"[{""cover"": ""BKN"", ""base_ft_agl"": 5500.0}, {""cover"": ""OVC"", ""base_ft_agl"": 7500.0}]",METAR KCMH 131051Z 23014G21KT 10SM BKN055 OVC075 21/11 A3003 RMK AO2 PK WND 26028/0952 RAB0953E31 SLP161 P0000 T02110106
KCMI,2026-04-13 10:53:00+00:00,2026-04-13 10:53:00+00:00,18.3,15.6,210.0,13.0,,10.0,1014.562444,VFR,,,METAR KCMI 131053Z 21013KT 10SM CLR 18/16 A2996 RMK AO2 SLP142 T01830156
KCMX,2026-04-13 10:53:00+00:00,2026-04-13 10:53:00+00:00,5.0,4.4,320.0,10.0,,0.5,1005.080552,LIFR,FG,"[{""cover"": ""OVC"", ""base_ft_agl"": 200.0}]",METAR KCMX 131053Z AUTO 32010KT 1/2SM FG OVC002 05/04 A2968 RMK AO2 SLP058 T00500044
KCMY,2026-04-13 09:55:00+00:00,2026-04-13 09:55:00+00:00,14.8,14.2,0.0,0.0,,9.0,1006.435108,VFR,,,METAR KCMY 130955Z AUTO 00000KT 9SM CLR 15/14 A2972 RMK AO2 SLP065 T01480142
KCNB,2026-04-13 10:55:00+00:00,2026-04-13 10:55:00+00:00,8.1,7.6,320.0,7.0,,1.25,1008.466942,LIFR,BR,"[{""cover"": ""OVC"", ""base_ft_agl"": 100.0}]",METAR KCNB 131055Z AUTO 32007KT 1 1/4SM BR OVC001 08/08 A2978 RMK AO2 T00810076
KCNC,2026-04-13 10:55:00+00:00,2026-04-13 10:55:00+00:00,18.0,17.0,180.0,11.0,16.0,10.0,1008.805581,MVFR,,"[{""cover"": ""OVC"", ""base_ft_agl"": 1900.0}]",METAR KCNC 131055Z AUTO 18011G16KT 10SM OVC019 18/17 A2979 RMK AO2
KCNI,2026-04-13 10:50:00+00:00,2026-04-13 10:50:00+00:00,12.5,8.0,40.0,3.0,,10.0,1027.430726,VFR,,,METAR KCNI 131050Z AUTO 04003KT 10SM CLR 12/08 A3034 RMK AO2 T01250080
KCNK,2026-04-13 10:55:00+00:00,2026-04-13 10:55:00+00:00,20.0,17.8,200.0,19.0,29.0,10.0,1005.080552,VFR,,,METAR KCNK 131055Z AUTO 20019G29KT 10SM CLR 20/18 A2968 RMK AO2 PK WND 19031/1001 SLP036 T02000178 $
KCNM,2026-04-13 10:53:00+00:00,2026-04-13 10:53:00+00:00,20.6,1.7,0.0,3.0,,10.0,1016.9329170000001,VFR,,,METAR KCNM 131053Z AUTO VRB03KT 10SM CLR 21/02 A3003 RMK AO2 SLP115 T02060017
KCNO,2026-04-13 10:53:00+00:00,2026-04-13 10:53:00+00:00,11.1,8.9,0.0,0.0,,8.0,1016.9329170000001,VFR,,"[{""cover"": ""OVC"", ""base_ft_agl"": 6500.0}]",METAR KCNO 131053Z AUTO 00000KT 8SM OVC065 11/09 A3003 RMK AO2 SLP167 T01110089
KCNU,2026-04-13 10:52:00+00:00,2026-04-13 10:52:00+00:00,20.6,18.3,180.0,13.0,23.0,10.0,1011.853332,MVFR,,"[{""cover"": ""OVC"", ""base_ft_agl"": 1900.0}]",METAR KCNU 131052Z AUTO 18013G23KT 10SM OVC019 21/18 A2988 RMK AO2 SLP107 T02060183 $
KCNY,2026-04-13 10:53:00+00:00,2026-04-13 10:53:00+00:00,10.0,-10.0,260.0,8.0,,10.0,1013.2078880000001,VFR,,,METAR KCNY 131053Z AUTO 26008KT 10SM CLR 10/M10 A2992 RMK AO2 SLP095 T01001100 $
KCOD,2026-04-13 10:56:00+00:00,2026-04-13 10:56:00+00:00,7.2,-2.2,230.0,8.0,15.0,10.0,1007.4510250000001,VFR,,"[{""cover"": ""SCT"", ""base_ft_agl"": 10000.0}]",METAR KCOD 131056Z AUTO 23008G15KT 10SM SCT100 07/M02 A2975 RMK AO2 SLP053 T00721022 $
KCOE,2026-04-13 10:56:00+00:00,2026-04-13 10:56:00+00:00,8.9,8.3,180.0,5.0,,7.0,1006.435108,MVFR,+RA,"[{""cover"": ""OVC"", ""base_ft_agl"": 1800.0}]",METAR KCOE 131056Z AUTO 18005KT 7SM +RA OVC018 09/08 A2972 RMK AO2 RAB18 SLP078 T00890083 PNO $
KCOF,2026-04-13 10:55:00+00:00,2026-04-13 10:55:00+00:00,22.3,15.1,100.0,12.0,,10.0,1023.7056970000001,VFR,,"[{""cover"": ""FEW"", ""base_ft_agl"": 3800.0}]",METAR KCOF 131055Z AUTO 10012KT 10SM FEW038 22/15 A3023 RMK AO2 SLP241 T02230151 $
KCOM,2026-04-13 10:55:00+00:00,2026-04-13 10:55:00+00:00,19.8,19.0,200.0,5.0,,10.0,1017.271556,MVFR,,"[{""cover"": ""SCT"", ""base_ft_agl"": 500.0}, {""cover"": ""BKN"", ""base_ft_agl"": 1500.0}, {""cover"": ""BKN"", ""base_ft_agl"": 1900.0}]",METAR KCOM 131055Z AUTO 20005KT 10SM SCT005 BKN015 BKN019 20/19 A3004 RMK AO2 T01980190
KCON,2026-04-13 10:51:00+00:00,2026-04-13 10:51:00+00:00,6.1,5.0,160.0,3.0,,10.0,1019.30339,VFR,,"[{""cover"": ""BKN"", ""base_ft_agl"": 9000.0}, {""cover"": ""BKN"", ""base_ft_agl"": 10000.0}]",METAR KCON 131051Z AUTO 16003KT 10SM BKN090 BKN100 06/05 A3010 RMK AO2 SLP194 T00610050 $
KCOQ,2026-04-13 10:55:00+00:00,2026-04-13 10:55:00+00:00,7.0,5.0,340.0,4.0,,10.0,1007.4510250000001,MVFR,,"[{""cover"": ""OVC"", ""base_ft_agl"": 1100.0}]",METAR KCOQ 131055Z AUTO 34004KT 10SM OVC011 07/05 A2975 RMK AO2 TSNO
KCOS,2026-04-13 10:54:00+00:00,2026-04-13 10:54:00+00:00,11.7,-11.1,200.0,7.0,,10.0,1012.1919710000001,VFR,,"[{""cover"": ""BKN"", ""base_ft_agl"": 23000.0}]",METAR KCOS 131054Z 20007KT 10SM BKN230 12/M11 A2989 RMK AO2 SLP053 T01171111
KCOT,2026-04-13 10:53:00+00:00,2026-04-13 10:53:00+00:00,22.2,21.1,120.0,6.0,,8.0,1016.2556390000001,IFR,,"[{""cover"": ""BKN"", ""base_ft_agl"": 700.0}]",METAR KCOT 131053Z AUTO 12006KT 8SM BKN007 22/21 A3001 RMK AO2 SLP154 T02220211 $
KCOU,2026-04-13 10:54:00+00:00,2026-04-13 10:54:00+00:00,18.9,16.7,190.0,6.0,,10.0,1013.546527,MVFR,,"[{""cover"": ""OVC"", ""base_ft_agl"": 2800.0}]",METAR KCOU 131054Z AUTO 19006KT 10SM OVC028 19/17 A2993 RMK AO2 SLP131 T01890167 $
KCPC,2026-04-13 10:55:00+00:00,2026-04-13 10:55:00+00:00,12.7,11.8,0.0,0.0,,1.5,1028.108004,IFR,BR,"[{""cover"": ""OVX"", ""base_ft_agl"": 700.0}]",METAR KCPC 131055Z AUTO 00000KT 1 1/2SM BR VV007 13/12 A3036 RMK AO2 VIS 1V5 P0001 T01270118
KCPF,2026-04-13 10:55:00+00:00,2026-04-13 10:55:00+00:00,21.0,6.0,210.0,6.0,,10.0,1023.0284190000001,VFR,,"[{""cover"": ""OVC"", ""base_ft_agl"": 9000.0}]",METAR KCPF 131055Z AUTO 21006KT 10SM OVC090 21/06 A3021 RMK AO2
KCPK,2026-04-13 10:55:00+00:00,2026-04-13 10:55:00+00:00,14.7,13.0,200.0,6.0,,10.0,1026.753448,VFR,,,METAR KCPK 131055Z AUTO 20006KT 10SM CLR 15/13 A3032 RMK AO2 T01470130
KCPP,2026-04-13 10:55:00+00:00,2026-04-13 10:55:00+00:00,14.0,14.0,170.0,4.0,,10.0,1027.430726,VFR,,,METAR KCPP 131055Z AUTO 17004KT 10SM CLR 14/14 A3034 RMK AO2
KCPR,2026-04-13 10:53:00+00:00,2026-04-13 10:53:00+00:00,7.2,1.1,200.0,18.0,,10.0,1008.466942,VFR,,"[{""cover"": ""OVC"", ""base_ft_agl"": 11000.0}]",METAR KCPR 131053Z AUTO 20018KT 10SM OVC110 07/01 A2978 RMK AO2 PK WND 19031/1023 SLP040 T00720011
KCPS,2026-04-13 10:53:00+00:00,2026-04-13 10:53:00+00:00,21.1,16.1,190.0,5.0,,10.0,1014.901083,VFR,,"[{""cover"": ""BKN"", ""base_ft_agl"": 3800.0}]",METAR KCPS 131053Z AUTO 19005KT 10SM BKN038 21/16 A2997 RMK AO2 SLP146 T02110161 $
KCPT,2026-04-13 10:55:00+00:00,2026-04-13 10:55:00+00:00,20.5,20.5,170.0,13.0,,10.0,1015.578361,IFR,,"[{""cover"": ""OVC"", ""base_ft_agl"": 500.0}]",METAR KCPT 131055Z AUTO 17013KT 10SM OVC005 21/21 A2999 RMK AO2 CIG 004V007 T02050205 $
KCPW,2026-04-13 10:55:00+00:00,2026-04-13 10:55:00+00:00,-5.0,-10.0,220.0,24.0,36.0,10.0,1021.6738630000001,VFR,,,METAR KCPW 131055Z AUTO 22024G36KT 10SM CLR M05/M10 A3017 RMK AO2 PWINO
KCQB,2026-04-13 10:50:00+00:00,2026-04-13 10:50:00+00:00,20.8,18.0,190.0,15.0,21.0,10.0,1013.546527,VFR,,"[{""cover"": ""SCT"", ""base_ft_agl"": 1900.0}]",METAR KCQB 131050Z AUTO 19015G21KT 10SM SCT019 21/18 A2993 RMK AO2 T02080180
KCQC,2026-04-13 10:53:00+00:00,2026-04-13 10:53:00+00:00,6.7,-2.8,260.0,13.0,,,1019.30339,,,,METAR KCQC 131053Z AUTO 26013KT CLR 07/M03 A3010 RMK AO2 SLP125 T00671028 $
KCQF,2026-04-13 10:55:00+00:00,2026-04-13 10:55:00+00:00,13.0,13.0,0.0,0.0,,10.0,1024.382975,VFR,,,METAR KCQF 131055Z AUTO 00000KT 10SM CLR 13/13 A3025 RMK AO2
KCQM,2026-04-13 10:55:00+00:00,2026-04-13 10:55:00+00:00,5.0,4.0,0.0,4.0,,10.0,1008.128303,LIFR,,"[{""cover"": ""OVC"", ""base_ft_agl"": 400.0}]",METAR KCQM 131055Z AUTO VRB04KT 10SM OVC004 05/04 A2977 RMK AO2
KCQW,2026-04-13 10:55:00+00:00,2026-04-13 10:55:00+00:00,15.0,15.0,0.0,0.0,,4.0,1027.092087,MVFR,BR,,METAR KCQW 131055Z AUTO 00000KT 4SM BR CLR 15/15 A3033 RMK AO2
KCQX,2026-04-13 10:52:00+00:00,2026-04-13 10:52:00+00:00,8.3,5.6,190.0,10.0,23.0,10.0,1023.367058,VFR,,"[{""cover"": ""OVC"", ""base_ft_agl"": 4400.0}]",METAR KCQX 131052Z AUTO 19010G23KT 140V220 10SM OVC044 08/06 A3022 RMK AO2 SLP235 T00830056
KCRE,2026-04-13 10:53:00+00:00,2026-04-13 10:53:00+00:00,18.3,16.1,200.0,4.0,,10.0,1027.430726,VFR,,,METAR KCRE 131053Z 20004KT 10SM CLR 18/16 A3034 RMK AO1 SLP275 T01830161
KCRG,2026-04-13 10:53:00+00:00,2026-04-13 10:53:00+00:00,13.3,12.2,0.0,0.0,,10.0,1026.4148089999999,VFR,,,METAR KCRG 131053Z 00000KT 10SM CLR 13/12 A3031 RMK AO2 SLP262 T01330122
KCRP,2026-04-13 10:51:00+00:00,2026-04-13 10:51:00+00:00,23.9,22.2,140.0,14.0,,10.0,1016.9329170000001,MVFR,,"[{""cover"": ""SCT"", ""base_ft_agl"": 1200.0}, {""cover"": ""BKN"", ""base_ft_agl"": 1600.0}, {""cover"": ""OVC"", ""base_ft_agl"": 3100.0}]",METAR KCRP 131051Z 14014KT 10SM SCT012 BKN016 OVC031 24/22 A3003 RMK AO2 RAE0955 SLP169 P0000 T02390222
KCRQ,2026-04-13 10:53:00+00:00,2026-04-13 10:53:00+00:00,13.9,10.6,0.0,0.0,,10.0,1016.2556390000001,VFR,,"[{""cover"": ""BKN"", ""base_ft_agl"": 7000.0}]",METAR KCRQ 131053Z AUTO 00000KT 10SM BKN070 14/11 A3001 RMK AO2 SLP159 T01390106
KCRS,2026-04-13 10:53:00+00:00,2026-04-13 10:53:00+00:00,21.7,19.4,160.0,11.0,,10.0,1018.2874730000001,VFR,,"[{""cover"": ""FEW"", ""base_ft_agl"": 3400.0}, {""cover"": ""BKN"", ""base_ft_agl"": 4200.0}, {""cover"": ""OVC"", ""base_ft_agl"": 5000.0}]",METAR KCRS 131053Z AUTO 16011KT 10SM FEW034 BKN042 OVC050 22/19 A3007 RMK AO2 SLP180 T02170194
KCRW,2026-04-13 10:54:00+00:00,2026-04-13 10:54:00+00:00,22.8,20.0,210.0,13.0,19.0,10.0,1020.657946,VFR,,"[{""cover"": ""BKN"", ""base_ft_agl"": 9000.0}, {""cover"": ""OVC"", ""base_ft_agl"": 11000.0}]",METAR KCRW 131054Z 21013G19KT 10SM BKN090 OVC110 23/20 A3014 RMK AO2 SLP196 T02280200 $
KCRX,2026-04-13 10:55:00+00:00,2026-04-13 10:55:00+00:00,17.0,14.0,160.0,7.0,,10.0,1022.012502,VFR,,"[{""cover"": ""FEW"", ""base_ft_agl"": 6500.0}, {""cover"": ""OVC"", ""base_ft_agl"": 12000.0}]",METAR KCRX 131055Z AUTO 16007KT 10SM FEW065 OVC120 17/14 A3018 RMK AO2
KCSB,2026-04-13 10:55:00+00:00,2026-04-13 10:55:00+00:00,11.0,7.0,160.0,5.0,,10.0,1002.7100790000001,VFR,,,METAR KCSB 131055Z AUTO 16005KT 10SM CLR 11/07 A2961 RMK AO2
KCSG,2026-04-13 10:51:00+00:00,2026-04-13 10:51:00+00:00,13.9,9.4,0.0,0.0,,10.0,1026.4148089999999,VFR,,,METAR KCSG 131051Z AUTO 00000KT 10SM CLR 14/09 A3031 RMK AO2 SLP261 T01390094
KCSM,2026-04-13 10:53:00+00:00,2026-04-13 10:53:00+00:00,18.9,18.3,190.0,15.0,23.0,9.0,1012.53061,IFR,,"[{""cover"": ""BKN"", ""base_ft_agl"": 900.0}]",METAR KCSM 131053Z AUTO 19015G23KT 9SM BKN009 19/18 A2990 RMK AO2 SLP102 T01890183 $
KCSQ,2026-04-13 10:55:00+00:00,2026-04-13 10:55:00+00:00,18.0,18.0,170.0,10.0,,10.0,1008.466942,MVFR,,"[{""cover"": ""OVC"", ""base_ft_agl"": 1600.0}]",METAR KCSQ 131055Z AUTO 17010KT 10SM OVC016 18/18 A2978 RMK AO2
KCSV,2026-04-13 10:53:00+00:00,2026-04-13 10:53:00+00:00,18.3,8.3,0.0,4.0,,10.0,1025.060253,VFR,,"[{""cover"": ""FEW"", ""base_ft_agl"": 8000.0}, {""cover"": ""SCT"", ""base_ft_agl"": 11000.0}]",METAR KCSV 131053Z AUTO VRB04KT 10SM FEW080 SCT110 18/08 A3027 RMK AO2 SLP233 T01830083 TSNO
KCTB,2026-04-13 10:56:00+00:00,2026-04-13 10:56:00+00:00,2.2,0.0,360.0,3.0,,10.0,1005.75783,MVFR,,"[{""cover"": ""SCT"", ""base_ft_agl"": 1900.0}, {""cover"": ""OVC"", ""base_ft_agl"": 2600.0}]",METAR KCTB 131056Z AUTO 36003KT 10SM SCT019 OVC026 02/00 A2970 RMK AO2 SLP071 T00220000
KCTJ,2026-04-13 10:55:00+00:00,2026-04-13 10:55:00+00:00,9.9,8.4,0.0,0.0,,10.0,1027.769365,VFR,,,METAR KCTJ 131055Z AUTO 00000KT 10SM CLR 10/08 A3035 RMK AO2 T00990084
KCTY,2026-04-13 10:55:00+00:00,2026-04-13 10:55:00+00:00,11.0,11.0,0.0,0.0,,10.0,1026.07617,VFR,,,METAR KCTY 131055Z AUTO 00000KT 10SM CLR 11/11 A3030 RMK AO2
KCTZ,2026-04-13 10:55:00+00:00,2026-04-13 10:55:00+00:00,15.6,15.6,0.0,0.0,,10.0,1028.108004,VFR,,,METAR KCTZ 131055Z AUTO 00000KT 10SM CLR 16/16 A3036 RMK AO2 T01560156
KCUB,2026-04-13 10:53:00+00:00,2026-04-13 10:53:00+00:00,13.9,12.8,0.0,0.0,,10.0,1027.430726,VFR,,,METAR KCUB 131053Z AUTO 00000KT 10SM CLR 14/13 A3034 RMK AO2 SLP272 T01390128
KCUH,2026-04-13 10:55:00+00:00,2026-04-13 10:55:00+00:00,20.8,17.5,200.0,11.0,,10.0,1012.53061,VFR,,"[{""cover"": ""SCT"", ""base_ft_agl"": 2000.0}]",METAR KCUH 131055Z AUTO 20011KT 10SM SCT020 21/18 A2990 RMK AO2 T02080175
KCUT,2026-04-13 10:53:00+00:00,2026-04-13 10:53:00+00:00,7.8,-1.1,290.0,7.0,,10.0,1008.466942,VFR,,"[{""cover"": ""BKN"", ""base_ft_agl"": 10000.0}]",METAR KCUT 131053Z AUTO 29007KT 10SM BKN100 08/M01 A2978 RMK AO2 SLP037 T00781011 $
KCVB,2026-04-13 10:55:00+00:00,2026-04-13 10:55:00+00:00,23.0,21.0,140.0,6.0,,9.0,1017.271556,IFR,,"[{""cover"": ""BKN"", ""base_ft_agl"": 900.0}, {""cover"": ""OVC"", ""base_ft_agl"": 1600.0}]",METAR KCVB 131055Z AUTO 14006KT 9SM BKN009 OVC016 23/21 A3004 RMK AO2
KCVC,2026-04-13 10:55:00+00:00,2026-04-13 10:55:00+00:00,13.0,12.0,0.0,0.0,,10.0,1026.4148089999999,VFR,,,METAR KCVC 131055Z AUTO 00000KT 10SM CLR 13/12 A3031 RMK AO2
KCVG,2026-04-13 10:52:00+00:00,2026-04-13 10:52:00+00:00,20.0,11.7,220.0,9.0,,10.0,1017.948834,VFR,,"[{""cover"": ""FEW"", ""base_ft_agl"": 4500.0}, {""cover"": ""FEW"", ""base_ft_agl"": 9000.0}, {""cover"": ""OVC"", ""base_ft_agl"": 25000.0}]",METAR KCVG 131052Z 22009KT 10SM FEW045 FEW090 OVC250 20/12 A3006 RMK AO2 SLP170 T02000117
KCVH,2026-04-13 10:55:00+00:00,2026-04-13 10:55:00+00:00,8.0,7.0,0.0,0.0,,10.0,1018.2874730000001,MVFR,,"[{""cover"": ""SCT"", ""base_ft_agl"": 1900.0}, {""cover"": ""BKN"", ""base_ft_agl"": 2800.0}]",METAR KCVH 131055Z AUTO 00000KT 10SM SCT019 BKN028 08/07 A3007 RMK A01
KCVN,2026-04-13 10:56:00+00:00,2026-04-13 10:56:00+00:00,12.8,1.7,240.0,10.0,,10.0,1016.2556390000001,VFR,,,METAR KCVN 131056Z AUTO 24010KT 10SM CLR 13/02 A3001 RMK AO2 SLP127 T01280017 $
KCVO,2026-04-13 10:56:00+00:00,2026-04-13 10:56:00+00:00,8.9,7.8,280.0,4.0,,9.0,1017.948834,MVFR,-RA,"[{""cover"": ""BKN"", ""base_ft_agl"": 1900.0}, {""cover"": ""BKN"", ""base_ft_agl"": 2500.0}, {""cover"": ""OVC"", ""base_ft_agl"": 3100.0}]",METAR KCVO 131056Z AUTO 28004KT 9SM -RA BKN019 BKN025 OVC031 09/08 A3006 RMK AO2 RAB19 SLP182 P0000 T00890078 $
KCVS,2026-04-13 10:55:00+00:00,2026-04-13 10:55:00+00:00,13.9,2.2,260.0,7.0,,10.0,1015.239722,VFR,,,METAR KCVS 131055Z AUTO 26007KT 10SM CLR 14/02 A2998 RMK AO2 SLP096 T01390022 $
KCVX,2026-04-13 10:55:00+00:00,2026-04-13 10:55:00+00:00,14.0,13.0,230.0,12.0,,10.0,1003.725996,MVFR,,"[{""cover"": ""FEW"", ""base_ft_agl"": 1000.0}, {""cover"": ""BKN"", ""base_ft_agl"": 1500.0}, {""cover"": ""OVC"", ""base_ft_agl"": 2200.0}]",METAR KCVX 131055Z AUTO 23012KT 10SM FEW010 BKN015 OVC022 14/13 A2964 RMK AO2
KCWA,2026-04-13 10:50:00+00:00,2026-04-13 10:50:00+00:00,15.0,14.0,260.0,8.0,,10.0,1006.7737470000001,MVFR,,"[{""cover"": ""OVC"", ""base_ft_agl"": 1100.0}]",METAR KCWA 131050Z 26008KT 10SM OVC011 15/14 A2973
KCWC,2026-04-13 10:55:00+00:00,2026-04-13 10:55:00+00:00,20.3,18.1,200.0,9.0,14.0,10.0,1014.901083,MVFR,,"[{""cover"": ""OVC"", ""base_ft_agl"": 1400.0}]",METAR KCWC 131055Z AUTO 20009G14KT 10SM OVC014 20/18 A2997 RMK AO2 T02030181
KCWF,2026-04-13 11:00:00+00:00,2026-04-13 11:00:00+00:00,19.0,19.0,150.0,4.0,,10.0,1020.657946,VFR,,"[{""cover"": ""SCT"", ""base_ft_agl"": 4500.0}]",SPECI KCWF 131100Z 15004KT 10SM SCT045 19/19 A3014
KCWI,2026-04-13 10:56:00+00:00,2026-04-13 10:56:00+00:00,16.1,15.6,220.0,7.0,,10.0,1010.8374150000001,MVFR,,"[{""cover"": ""OVC"", ""base_ft_agl"": 1100.0}]",METAR KCWI 131056Z AUTO 22007KT 10SM OVC011 16/16 A2985 RMK AO2 SLP108 T01610156
KCWV,2026-04-13 10:55:00+00:00,2026-04-13 10:55:00+00:00,10.0,10.0,0.0,0.0,,3.0,1027.430726,LIFR,BR,"[{""cover"": ""OVC"", ""base_ft_agl"": 200.0}]",METAR KCWV 131055Z AUTO 00000KT 3SM BR OVC002 10/10 A3034 RMK AO2
KCXE,2026-04-13 10:55:00+00:00,2026-04-13 10:55:00+00:00,17.0,13.5,190.0,3.0,,10.0,1026.07617,VFR,,,METAR KCXE 131055Z AUTO 19003KT 10SM CLR 17/14 A3030 RMK AO1 T01700135
KCXO,2026-04-13 10:53:00+00:00,2026-04-13 10:53:00+00:00,21.7,20.6,160.0,8.0,,10.0,1019.642029,VFR,,"[{""cover"": ""OVC"", ""base_ft_agl"": 3700.0}]",METAR KCXO 131053Z 16008KT 10SM OVC037 22/21 A3011 RMK AO2 SLP191 T02170206
KCXP,2026-04-13 10:55:00+00:00,2026-04-13 10:55:00+00:00,2.0,1.0,0.0,0.0,,9.0,1016.9329170000001,MVFR,-RA,"[{""cover"": ""FEW"", ""base_ft_agl"": 500.0}, {""cover"": ""FEW"", ""base_ft_agl"": 2400.0}, {""cover"": ""BKN"", ""base_ft_agl"": 3000.0}]",METAR KCXP 131055Z AUTO 00000KT 9SM -RA FEW005 FEW024 BKN030 02/01 A3003 RMK AO2
KCXU,2026-04-13 10:55:00+00:00,2026-04-13 10:55:00+00:00,14.0,12.0,110.0,4.0,,10.0,1026.4148089999999,VFR,,,METAR KCXU 131055Z AUTO 11004KT 10SM CLR 14/12 A3031 RMK AO2
KCXW,2026-04-13 10:55:00+00:00,2026-04-13 10:55:00+00:00,21.0,21.0,200.0,10.0,,10.0,1018.6261119999999,VFR,,"[{""cover"": ""SCT"", ""base_ft_agl"": 2800.0}, {""cover"": ""OVC"", ""base_ft_agl"": 3400.0}]",METAR KCXW 131055Z AUTO 20010KT 10SM SCT028 OVC034 21/21 A3008 RMK A01
KCXY,2026-04-13 10:56:00+00:00,2026-04-13 10:56:00+00:00,11.1,8.3,0.0,0.0,,10.0,1019.980668,VFR,,,METAR KCXY 131056Z 00000KT 10SM CLR 11/08 A3012 RMK AO2 SLP202 T01110083 $
KCYD,2026-04-13 10:55:00+00:00,2026-04-13 10:55:00+00:00,23.0,17.0,130.0,15.0,,7.0,1023.0284190000001,VFR,,"[{""cover"": ""SCT"", ""base_ft_agl"": 2800.0}, {""cover"": ""SCT"", ""base_ft_agl"": 3500.0}, {""cover"": ""BKN"", ""base_ft_agl"": 4000.0}]",METAR KCYD 131055Z AUTO 13015KT 7SM SCT028 SCT035 BKN040 23/17 A3021 RMK AO2
KCYS,2026-04-13 10:53:00+00:00,2026-04-13 10:53:00+00:00,9.4,-7.2,290.0,9.0,,10.0,1010.498776,VFR,,,METAR KCYS 131053Z AUTO 29009KT 10SM CLR 09/M07 A2984 RMK AO2 SLP037 T00941072 $
KCZL,2026-04-13 10:55:00+00:00,2026-04-13 10:55:00+00:00,13.0,12.0,190.0,4.0,,10.0,1025.737531,VFR,,,METAR KCZL 131055Z AUTO 19004KT 10SM CLR 13/12 A3029 RMK AO2
KCZT,2026-04-13 10:55:00+00:00,2026-04-13 10:55:00+00:00,21.0,21.0,130.0,6.0,,10.0,1016.594278,VFR,,,METAR KCZT 131055Z AUTO 13006KT 10SM 21/21 A3002 RMK AO2
KD07,2026-04-13 10:56:00+00:00,2026-04-13 10:56:00+00:00,7.2,7.2,60.0,14.0,23.0,,1006.435108,,,,METAR KD07 131056Z AUTO 06014G23KT 07/07 A2972 RMK AO1 SLP062 T00720072 $
KD09,2026-04-13 10:55:00+00:00,2026-04-13 10:55:00+00:00,2.0,-1.0,110.0,5.0,,10.0,1010.498776,MVFR,,"[{""cover"": ""OVC"", ""base_ft_agl"": 2100.0}]",METAR KD09 131055Z AUTO 11005KT 10SM OVC021 02/M01 A2984 RMK AO2
KD25,2026-04-13 10:55:00+00:00,2026-04-13 10:55:00+00:00,9.5,9.5,320.0,6.0,,2.5,1006.7737470000001,LIFR,-RA,"[{""cover"": ""OVC"", ""base_ft_agl"": 400.0}]",METAR KD25 131055Z AUTO 32006KT 2 1/2SM -RA OVC004 10/10 A2973 RMK AO2 T00950095
KD39,2026-04-13 10:55:00+00:00,2026-04-13 10:55:00+00:00,8.6,8.6,30.0,5.0,,10.0,1008.128303,IFR,,"[{""cover"": ""OVC"", ""base_ft_agl"": 700.0}]",METAR KD39 131055Z AUTO 03005KT 10SM OVC007 09/09 A2977 RMK AO2 T00860086
KD50,2026-04-13 10:55:00+00:00,2026-04-13 10:55:00+00:00,0.0,-1.0,100.0,5.0,,10.0,1009.821498,IFR,,"[{""cover"": ""OVC"", ""base_ft_agl"": 800.0}]",METAR KD50 131055Z AUTO 10005KT 10SM OVC008 00/M01 A2982 RMK AO2
KD55,2026-04-13 10:55:00+00:00,2026-04-13 10:55:00+00:00,0.0,0.0,20.0,7.0,,10.0,1011.176054,MVFR,,"[{""cover"": ""OVC"", ""base_ft_agl"": 1300.0}]",METAR KD55 131055Z AUTO 02007KT 10SM OVC013 00/00 A2986 RMK AO2
KD57,2026-04-13 10:55:00+00:00,2026-04-13 10:55:00+00:00,4.0,4.0,50.0,8.0,,2.0,1008.466942,LIFR,BR,"[{""cover"": ""OVC"", ""base_ft_agl"": 300.0}]",METAR KD57 131055Z AUTO 05008KT 2SM BR OVC003 04/04 A2978 RMK AO2
KD60,2026-04-13 10:55:00+00:00,2026-04-13 10:55:00+00:00,0.0,0.0,120.0,10.0,,10.0,1009.821498,LIFR,,"[{""cover"": ""OVC"", ""base_ft_agl"": 400.0}]",METAR KD60 131055Z AUTO 12010KT 10SM OVC004 00/00 A2982 RMK AO2
KD73,2026-04-13 10:55:00+00:00,2026-04-13 10:55:00+00:00,11.8,,,,,10.0,1027.092087,VFR,,,METAR KD73 131055Z AUTO 10SM CLR 12/ A3033 RMK AO2 T0118////
KD95,2026-04-13 10:55:00+00:00,2026-04-13 10:55:00+00:00,16.0,16.0,250.0,12.0,18.0,10.0,1008.805581,IFR,-RA,"[{""cover"": ""OVC"", ""base_ft_agl"": 900.0}]",METAR KD95 131055Z AUTO 25012G18KT 10SM -RA OVC009 16/16 A2979 RMK AO2
KDAB,2026-04-13 10:53:00+00:00,2026-04-13 10:53:00+00:00,18.9,14.4,100.0,3.0,,10.0,1025.737531,VFR,,"[{""cover"": ""FEW"", ""base_ft_agl"": 3700.0}]",METAR KDAB 131053Z 10003KT 10SM FEW037 19/14 A3029 RMK AO2 SLP255 T01890144
KDAG,2026-04-13 10:50:00+00:00,2026-04-13 10:50:00+00:00,11.1,2.2,240.0,13.0,,10.0,1014.562444,VFR,,,METAR KDAG 131050Z AUTO 24013KT 10SM CLR 11/02 A2996 RMK AO2 SLP132 T01110022 $
KDAL,2026-04-13 10:53:00+00:00,2026-04-13 10:53:00+00:00,21.7,19.4,180.0,14.0,22.0,10.0,1016.594278,MVFR,,"[{""cover"": ""BKN"", ""base_ft_agl"": 1500.0}, {""cover"": ""BKN"", ""base_ft_agl"": 3000.0}, {""cover"": ""OVC"", ""base_ft_agl"": 3500.0}]",METAR KDAL 131053Z COR 18014G22KT 10SM BKN015 BKN030 OVC035 22/19 A3002 RMK AO2 SLP161 T02170194
KDAN,2026-04-13 10:53:00+00:00,2026-04-13 10:53:00+00:00,15.0,12.8,0.0,0.0,,10.0,1026.07617,VFR,,,METAR KDAN 131053Z AUTO 00000KT 10SM CLR 15/13 A3030 RMK AO2 SLP250 T01500128 $
KDAW,2026-04-13 10:51:00+00:00,2026-04-13 10:51:00+00:00,6.1,5.6,180.0,5.0,,7.0,1019.30339,LIFR,,"[{""cover"": ""OVC"", ""base_ft_agl"": 300.0}]",METAR KDAW 131051Z AUTO 18005KT 7SM OVC003 06/06 A3010 RMK AO2 SLP191 T00610056 $
KDAY,2026-04-13 10:56:00+00:00,2026-04-13 10:56:00+00:00,20.0,11.1,220.0,13.0,,10.0,1016.9329170000001,VFR,,"[{""cover"": ""SCT"", ""base_ft_agl"": 7000.0}, {""cover"": ""SCT"", ""base_ft_agl"": 9000.0}, {""cover"": ""BKN"", ""base_ft_agl"": 14000.0}]",METAR KDAY 131056Z 22013KT 10SM SCT070 SCT090 BKN140 20/11 A3003 RMK AO2 PK WND 23028/1004 SLP162 T02000111
KDBN,2026-04-13 10:55:00+00:00,2026-04-13 10:55:00+00:00,9.7,9.7,0.0,0.0,,0.5,1027.430726,LIFR,FG,,METAR KDBN 131055Z AUTO 00000KT 1/2SM FG CLR 10/10 A3034 RMK AO2 T00970097
KDBQ,2026-04-13 10:53:00+00:00,2026-04-13 10:53:00+00:00,16.7,16.1,230.0,10.0,,6.0,1009.482859,IFR,BR,"[{""cover"": ""OVC"", ""base_ft_agl"": 700.0}]",METAR KDBQ 131053Z 23010KT 6SM BR OVC007 17/16 A2981 RMK AO2 SLP094 T01670161 $
KDCA,2026-04-13 10:52:00+00:00,2026-04-13 10:52:00+00:00,17.2,14.4,190.0,10.0,,10.0,1021.335224,VFR,,"[{""cover"": ""FEW"", ""base_ft_agl"": 14000.0}, {""cover"": ""FEW"", ""base_ft_agl"": 16000.0}, {""cover"": ""BKN"", ""base_ft_agl"": 25000.0}]",METAR KDCA 131052Z 19010KT 10SM FEW140 FEW160 BKN250 17/14 A3016 RMK AO2 SLP213 T01720144
KDCM,2026-04-13 10:55:00+00:00,2026-04-13 10:55:00+00:00,13.0,13.0,0.0,0.0,,10.0,1028.108004,VFR,,,METAR KDCM 131055Z AUTO 00000KT 10SM CLR 13/13 A3036 RMK AO2
KDCU,2026-04-13 10:53:00+00:00,2026-04-13 10:53:00+00:00,15.6,11.1,130.0,4.0,,10.0,1024.382975,VFR,,,METAR KDCU 131053Z AUTO 13004KT 10SM CLR 16/11 A3025 RMK AO2 SLP238 T01560111 $
KDCY,2026-04-13 10:55:00+00:00,2026-04-13 10:55:00+00:00,21.1,12.1,210.0,8.0,16.0,10.0,1017.6101950000001,VFR,,"[{""cover"": ""SCT"", ""base_ft_agl"": 5000.0}, {""cover"": ""BKN"", ""base_ft_agl"": 6500.0}, {""cover"": ""OVC"", ""base_ft_agl"": 8000.0}]",METAR KDCY 131055Z AUTO 21008G16KT 10SM SCT050 BKN065 OVC080 21/12 A3005 RMK AO2 T02110121
KDDC,2026-04-13 10:52:00+00:00,2026-04-13 10:52:00+00:00,13.9,6.1,200.0,10.0,,9.0,1008.466942,VFR,,,METAR KDDC 131052Z AUTO 20010KT 9SM CLR 14/06 A2978 RMK AO2 SLP056 T01390061
KDDH,2026-04-13 10:54:00+00:00,2026-04-13 10:54:00+00:00,10.6,5.0,140.0,3.0,,10.0,1017.271556,VFR,,"[{""cover"": ""FEW"", ""base_ft_agl"": 12000.0}]",METAR KDDH 131054Z AUTO 14003KT 10SM FEW120 11/05 A3004 RMK AO2 SLP172 T01060050 $
KDEC,2026-04-13 10:54:00+00:00,2026-04-13 10:54:00+00:00,18.9,15.6,210.0,13.0,,10.0,1014.562444,VFR,,"[{""cover"": ""SCT"", ""base_ft_agl"": 4400.0}, {""cover"": ""BKN"", ""base_ft_agl"": 6000.0}, {""cover"": ""OVC"", ""base_ft_agl"": 7000.0}]",METAR KDEC 131054Z 21013KT 10SM SCT044 BKN060 OVC070 19/16 A2996 RMK AO2 SLP140 T01890156
KDED,2026-04-13 10:55:00+00:00,2026-04-13 10:55:00+00:00,13.2,12.0,0.0,0.0,,10.0,1026.07617,VFR,,"[{""cover"": ""BKN"", ""base_ft_agl"": 3500.0}]",METAR KDED 131055Z AUTO 00000KT 10SM BKN035 13/12 A3030 RMK AO2 T01320120
KDEH,2026-04-13 10:55:00+00:00,2026-04-13 10:55:00+00:00,16.0,16.0,0.0,4.0,,4.0,1008.466942,LIFR,BR,"[{""cover"": ""OVC"", ""base_ft_agl"": 300.0}]",METAR KDEH 131055Z AUTO VRB04KT 4SM BR OVC003 16/16 A2978 RMK AO2
KDEN,2026-04-13 10:53:00+00:00,2026-04-13 10:53:00+00:00,10.6,-7.8,220.0,7.0,,10.0,1009.821498,VFR,,"[{""cover"": ""BKN"", ""base_ft_agl"": 22000.0}]",METAR KDEN 131053Z 22007KT 10SM BKN220 11/M08 A2982 RMK AO2 SLP036 T01061078
KDEQ,2026-04-13 10:53:00+00:00,2026-04-13 10:53:00+00:00,19.4,18.9,100.0,3.0,,10.0,1017.948834,MVFR,,"[{""cover"": ""BKN"", ""base_ft_agl"": 2500.0}, {""cover"": ""OVC"", ""base_ft_agl"": 3000.0}]",METAR KDEQ 131053Z AUTO 10003KT 10SM BKN025 OVC030 19/19 A3006 RMK AO2 SLP174 T01940189
KDET,2026-04-13 10:53:00+00:00,2026-04-13 10:53:00+00:00,17.8,13.9,240.0,14.0,27.0,10.0,1009.821498,MVFR,,"[{""cover"": ""BKN"", ""base_ft_agl"": 2600.0}, {""cover"": ""OVC"", ""base_ft_agl"": 3400.0}]",METAR KDET 131053Z 24014G27KT 10SM BKN026 OVC034 18/14 A2982 RMK AO2 PK WND 24031/1031 RAE12 SLP094 P0000 T01780139 $
KDEW,2026-04-13 10:53:00+00:00,2026-04-13 10:53:00+00:00,8.9,7.8,140.0,4.0,,10.0,1006.0964690000001,MVFR,,"[{""cover"": ""BKN"", ""base_ft_agl"": 1000.0}, {""cover"": ""BKN"", ""base_ft_agl"": 1400.0}, {""cover"": ""OVC"", ""base_ft_agl"": 2000.0}]",METAR KDEW 131053Z AUTO 14004KT 10SM BKN010 BKN014 OVC020 09/08 A2971 RMK AO2 RAE12 CIG 007V011 SLP057 P0000 T00890078
KDFW,2026-04-13 10:53:00+00:00,2026-04-13 10:53:00+00:00,20.0,19.4,180.0,12.0,21.0,10.0,1015.917,MVFR,,"[{""cover"": ""BKN"", ""base_ft_agl"": 1200.0}, {""cover"": ""OVC"", ""base_ft_agl"": 2700.0}]",METAR KDFW 131053Z 18012G21KT 10SM BKN012 OVC027 20/19 A3000 RMK AO2 DZB41E49 SLP154 P0000 T02000194
KDGW,2026-04-13 10:53:00+00:00,2026-04-13 10:53:00+00:00,4.4,-5.0,300.0,4.0,,10.0,1009.14422,VFR,,"[{""cover"": ""FEW"", ""base_ft_agl"": 10000.0}, {""cover"": ""BKN"", ""base_ft_agl"": 12000.0}]",METAR KDGW 131053Z AUTO 30004KT 10SM FEW100 BKN120 04/M05 A2980 RMK AO2 SLP059 T00441050
KDHN,2026-04-13 10:53:00+00:00,2026-04-13 10:53:00+00:00,12.8,11.7,0.0,0.0,,10.0,1027.092087,VFR,,,METAR KDHN 131053Z 00000KT 10SM CLR 13/12 A3033 RMK AO1 SLP266 T01280117 $
KDHT,2026-04-13 10:53:00+00:00,2026-04-13 10:53:00+00:00,11.7,-3.9,250.0,11.0,,10.0,1012.8692490000001,VFR,,,METAR KDHT 131053Z AUTO 25011KT 10SM CLR 12/M04 A2991 RMK AO2 SLP081 T01171039
KDIJ,2026-04-13 10:56:00+00:00,2026-04-13 10:56:00+00:00,0.0,-2.2,150.0,8.0,,10.0,1013.546527,VFR,,"[{""cover"": ""OVC"", ""base_ft_agl"": 3500.0}]",METAR KDIJ 131056Z AUTO 15008KT 10SM OVC035 00/M02 A2993 RMK AO2 SLP132 T00001022 $
KDIK,2026-04-13 10:56:00+00:00,2026-04-13 10:56:00+00:00,2.8,2.8,90.0,10.0,,0.25,1007.112386,LIFR,FG,"[{""cover"": ""OVX"", ""base_ft_agl"": 200.0}]",METAR KDIK 131056Z AUTO 09010KT 1/4SM FG VV002 03/03 A2974 RMK AO2 SLP073 T00280028
KDKB,2026-04-13 10:55:00+00:00,2026-04-13 10:55:00+00:00,17.6,17.1,250.0,12.0,,10.0,1011.5146930000001,MVFR,,"[{""cover"": ""OVC"", ""base_ft_agl"": 1200.0}]",METAR KDKB 131055Z AUTO 25012KT 10SM OVC012 18/17 A2987 RMK AO2 T01760171
KDKK,2026-04-13 10:53:00+00:00,2026-04-13 10:53:00+00:00,15.6,10.0,220.0,11.0,21.0,9.0,1012.1919710000001,VFR,-RA,"[{""cover"": ""SCT"", ""base_ft_agl"": 6500.0}, {""cover"": ""OVC"", ""base_ft_agl"": 9000.0}]",METAR KDKK 131053Z AUTO 22011G21KT 9SM -RA SCT065 OVC090 16/10 A2989 RMK AO2 PK WND 24029/1033 WSHFT 1000 RAB17 SLP120 P0001 T01560100
KDKR,2026-04-13 10:55:00+00:00,2026-04-13 10:55:00+00:00,20.0,20.0,0.0,0.0,,4.0,1019.980668,MVFR,VCTS RA BR,"[{""cover"": ""FEW"", ""base_ft_agl"": 2000.0}, {""cover"": ""SCT"", ""base_ft_agl"": 3100.0}, {""cover"": ""BKN"", ""base_ft_agl"": 4700.0}]",METAR KDKR 131055Z AUTO 00000KT 4SM VCTS RA BR FEW020 SCT031 BKN047 20/20 A3012 RMK AO2 LTG DSNT N-SE P0032
KDKX,2026-04-13 10:55:00+00:00,2026-04-13 10:55:00+00:00,15.0,12.0,0.0,0.0,,10.0,1024.721614,VFR,,,METAR KDKX 131055Z AUTO 00000KT 10SM CLR 15/12 A3026 RMK A01
KDLF,2026-04-13 10:55:00+00:00,2026-04-13 10:55:00+00:00,23.2,20.1,130.0,12.0,,10.0,1015.239722,MVFR,,"[{""cover"": ""BKN"", ""base_ft_agl"": 1300.0}, {""cover"": ""OVC"", ""base_ft_agl"": 2800.0}]",METAR KDLF 131055Z AUTO 13012KT 10SM BKN013 OVC028 23/20 A2998 RMK AO2 BKN V OVC SLP140 T02320201 $
KDLH,2026-04-13 10:55:00+00:00,2026-04-13 10:55:00+00:00,6.1,5.6,330.0,5.0,,10.0,1007.4510250000001,IFR,,"[{""cover"": ""OVC"", ""base_ft_agl"": 500.0}]",METAR KDLH 131055Z 33005KT 10SM OVC005 06/06 A2975 RMK AO2 SLP083 T00610056 $
KDLL,2026-04-13 10:55:00+00:00,2026-04-13 10:55:00+00:00,14.5,13.6,230.0,6.0,,10.0,1008.128303,VFR,,,METAR KDLL 131055Z AUTO 23006KT 10SM CLR 15/14 A2977 RMK AO2 T01450136
KDLN,2026-04-13 10:53:00+00:00,2026-04-13 10:53:00+00:00,3.3,-4.4,190.0,10.0,,10.0,1008.466942,VFR,,,METAR KDLN 131053Z AUTO 19010KT 10SM CLR 03/M04 A2978 RMK AO2 SLP063 T00331044
KDLS,2026-04-13 10:53:00+00:00,2026-04-13 10:53:00+00:00,11.1,5.0,300.0,17.0,24.0,10.0,1012.1919710000001,VFR,,,METAR KDLS 131053Z AUTO 30017G24KT 10SM CLR 11/05 A2989 RMK AO2 PK WND 30030/1042 SLP121 T01110050
KDLZ,2026-04-13 10:55:00+00:00,2026-04-13 10:55:00+00:00,20.0,13.0,240.0,11.0,18.0,10.0,1016.2556390000001,VFR,,"[{""cover"": ""BKN"", ""base_ft_agl"": 4400.0}, {""cover"": ""BKN"", ""base_ft_agl"": 6500.0}, {""cover"": ""OVC"", ""base_ft_agl"": 11000.0}]",METAR KDLZ 131055Z AUTO 24011G18KT 10SM BKN044 BKN065 OVC110 20/13 A3001 RMK AO2
KDMA,2026-04-13 10:55:00+00:00,2026-04-13 10:55:00+00:00,19.3,3.4,0.0,0.0,,10.0,1016.2556390000001,VFR,,"[{""cover"": ""OVC"", ""base_ft_agl"": 17000.0}]",METAR KDMA 131055Z AUTO 00000KT 10SM OVC170 19/03 A3001 RMK AO2 SLP170 T01930034 TSNO $
KDMH,2026-04-13 10:53:00+00:00,2026-04-13 10:53:00+00:00,14.4,12.2,,,,,1021.335224,,,,METAR KDMH 131053Z AUTO 14/12 A3016 RMK AO1 SLP212 T01440122
KDMN,2026-04-13 10:53:00+00:00,2026-04-13 10:53:00+00:00,12.2,0.6,290.0,7.0,,10.0,1018.964751,VFR,,,METAR KDMN 131053Z AUTO 29007KT 10SM CLR 12/01 A3009 RMK AO2 SLP131 T01220006
KDMO,2026-04-13 10:53:00+00:00,2026-04-13 10:53:00+00:00,20.6,17.2,200.0,15.0,24.0,10.0,1012.53061,MVFR,,"[{""cover"": ""BKN"", ""base_ft_agl"": 2700.0}]",METAR KDMO 131053Z AUTO 20015G24KT 10SM BKN027 21/17 A2990 RMK AO2 LTG DSNT N AND NE SLP120 T02060172
KDMW,2026-04-13 10:55:00+00:00,2026-04-13 10:55:00+00:00,16.0,13.0,180.0,6.0,,10.0,1020.657946,VFR,,,METAR KDMW 131055Z AUTO 18006KT 10SM CLR 16/13 A3014 RMK AO2
KDNA,2026-04-13 10:55:00+00:00,2026-04-13 10:55:00+00:00,17.0,0.0,0.0,0.0,,10.0,1018.964751,VFR,,"[{""cover"": ""FEW"", ""base_ft_agl"": 12000.0}]",METAR KDNA 131055Z AUTO 00000KT 10SM FEW120 17/00 A3009 RMK AO2
KDNL,2026-04-13 10:53:00+00:00,2026-04-13 10:53:00+00:00,15.0,13.3,170.0,3.0,,10.0,1027.430726,VFR,,,METAR KDNL 131053Z AUTO 17003KT 10SM CLR 15/13 A3034 RMK AO2 SLP269 T01500133
KDNN,2026-04-13 10:55:00+00:00,2026-04-13 10:55:00+00:00,15.5,8.0,160.0,4.0,,10.0,1025.737531,VFR,,,METAR KDNN 131055Z AUTO 16004KT 10SM CLR 16/08 A3029 RMK AO2 T01550080
KDNS,2026-04-13 10:55:00+00:00,2026-04-13 10:55:00+00:00,15.0,15.0,140.0,4.0,,10.0,1007.112386,VFR,,,METAR KDNS 131055Z AUTO 14004KT 10SM CLR 15/15 A2974 RMK AO2
KDNV,2026-04-13 10:55:00+00:00,2026-04-13 10:55:00+00:00,19.6,15.3,220.0,14.0,23.0,10.0,1014.901083,VFR,,"[{""cover"": ""SCT"", ""base_ft_agl"": 4500.0}, {""cover"": ""SCT"", ""base_ft_agl"": 5000.0}, {""cover"": ""SCT"", ""base_ft_agl"": 6500.0}]",METAR KDNV 131055Z AUTO 22014G23KT 10SM SCT045 SCT050 SCT065 20/15 A2997 RMK AO2 T01960153
KDOV,2026-04-13 10:55:00+00:00,2026-04-13 10:55:00+00:00,16.7,13.6,200.0,19.0,,10.0,1020.996585,VFR,,"[{""cover"": ""FEW"", ""base_ft_agl"": 18000.0}, {""cover"": ""BKN"", ""base_ft_agl"": 22000.0}]",METAR KDOV 131055Z AUTO 20019KT 10SM FEW180 BKN220 17/14 A3015 RMK AO2 SLP213 T01670136
KDPA,2026-04-13 10:52:00+00:00,2026-04-13 10:52:00+00:00,17.2,16.1,220.0,10.0,,10.0,1011.176054,IFR,,"[{""cover"": ""BKN"", ""base_ft_agl"": 900.0}, {""cover"": ""BKN"", ""base_ft_agl"": 2700.0}, {""cover"": ""OVC"", ""base_ft_agl"": 3100.0}]",METAR KDPA 131052Z 22010KT 10SM BKN009 BKN027 OVC031 17/16 A2986 RMK AO2 SLP108 T01720161
KDPL,2026-04-13 10:55:00+00:00,2026-04-13 10:55:00+00:00,13.0,13.0,220.0,3.0,,4.0,1027.769365,MVFR,BR,,METAR KDPL 131055Z AUTO 22003KT 4SM BR CLR 13/13 A3035 RMK AO2
KDQH,2026-04-13 10:55:00+00:00,2026-04-13 10:55:00+00:00,12.4,11.8,0.0,0.0,,1.5,1027.430726,IFR,BR,"[{""cover"": ""OVX"", ""base_ft_agl"": 700.0}]",METAR KDQH 131055Z AUTO 00000KT 1 1/2SM BR VV007 12/12 A3034 RMK AO2 T01240118
KDRA,2026-04-13 10:53:00+00:00,2026-04-13 10:53:00+00:00,8.3,-1.1,190.0,6.0,,10.0,1012.8692490000001,VFR,,,METAR KDRA 131053Z AUTO 19006KT 10SM CLR 08/M01 A2991 RMK AO2 SLP105 T00831011
KDRI,2026-04-13 10:55:00+00:00,2026-04-13 10:55:00+00:00,20.0,20.0,0.0,0.0,,10.0,1020.657946,VFR,,,METAR KDRI 131055Z AUTO 00000KT 10SM 20/20 A3014 RMK AO2 T02000200 $
KDRM,2026-04-13 10:55:00+00:00,2026-04-13 10:55:00+00:00,11.9,11.9,250.0,5.0,,1.75,1002.0328010000001,LIFR,BR,"[{""cover"": ""BKN"", ""base_ft_agl"": 400.0}, {""cover"": ""OVC"", ""base_ft_agl"": 900.0}]",METAR KDRM 131055Z AUTO 25005KT 1 3/4SM BR BKN004 OVC009 12/12 A2959 RMK AO2 T01190119
KDRO,2026-04-13 10:53:00+00:00,2026-04-13 10:53:00+00:00,2.8,-6.7,0.0,0.0,,10.0,1018.2874730000001,VFR,,,METAR KDRO 131053Z AUTO 00000KT 10SM CLR 03/M07 A3007 RMK AO2 SLP140 T00281067
KDRP,2026-04-13 10:55:00+00:00,2026-04-13 10:55:00+00:00,21.0,15.0,180.0,10.0,,10.0,1018.964751,VFR,,"[{""cover"": ""FEW"", ""base_ft_agl"": 4300.0}, {""cover"": ""FEW"", ""base_ft_agl"": 9000.0}]",METAR KDRP 131055Z AUTO 18010KT 10SM FEW043 FEW090 21/15 A3009 RMK AO2
KDRT,2026-04-13 10:53:00+00:00,2026-04-13 10:53:00+00:00,23.3,20.6,120.0,10.0,,10.0,1015.917,MVFR,,"[{""cover"": ""BKN"", ""base_ft_agl"": 1700.0}, {""cover"": ""OVC"", ""base_ft_agl"": 2300.0}]",METAR KDRT 131053Z AUTO 12010KT 10SM BKN017 OVC023 23/21 A3000 RMK AO2 SLP149 T02330206 PWINO
KDSF,2026-04-13 10:55:00+00:00,2026-04-13 10:55:00+00:00,23.0,16.0,130.0,9.0,,10.0,1023.7056970000001,VFR,,"[{""cover"": ""OVC"", ""base_ft_agl"": 4100.0}]",METAR KDSF 131055Z AUTO 13009KT 10SM OVC041 23/16 A3023 RMK A01
KDSM,2026-04-13 10:54:00+00:00,2026-04-13 10:54:00+00:00,17.8,16.7,190.0,8.0,,10.0,1008.466942,MVFR,,"[{""cover"": ""OVC"", ""base_ft_agl"": 1200.0}]",METAR KDSM 131054Z 19008KT 10SM OVC012 18/17 A2978 RMK AO2 SLP080 T01780167
KDSV,2026-04-13 10:54:00+00:00,2026-04-13 10:54:00+00:00,18.3,8.3,190.0,4.0,,10.0,1012.53061,VFR,,,METAR KDSV 131054Z AUTO 19004KT 10SM CLR 18/08 A2990 RMK AO2 SLP131 T01830083 $
KDTA,2026-04-13 10:55:00+00:00,2026-04-13 10:55:00+00:00,1.0,0.0,80.0,10.0,,10.0,1015.239722,VFR,,,METAR KDTA 131055Z AUTO 08010KT 10SM CLR 01/00 A2998 RMK AO1
KDTL,2026-04-13 10:55:00+00:00,2026-04-13 10:55:00+00:00,5.0,5.0,30.0,6.0,,10.0,1008.466942,LIFR,,"[{""cover"": ""OVC"", ""base_ft_agl"": 400.0}]",METAR KDTL 131055Z AUTO 03006KT 10SM OVC004 05/05 A2978 RMK AO2 CIG 003V006 T00500050
KDTN,2026-04-13 10:53:00+00:00,2026-04-13 10:53:00+00:00,21.7,18.3,200.0,10.0,,10.0,1019.642029,MVFR,,"[{""cover"": ""OVC"", ""base_ft_agl"": 1500.0}]",METAR KDTN 131053Z AUTO 20010KT 10SM OVC015 22/18 A3011 RMK AO2 SLP195 T02170183
KDTO,2026-04-13 10:53:00+00:00,2026-04-13 10:53:00+00:00,20.6,19.4,170.0,11.0,,10.0,1016.2556390000001,MVFR,-RA,"[{""cover"": ""OVC"", ""base_ft_agl"": 1200.0}]",METAR KDTO 131053Z 17011KT 10SM -RA OVC012 21/19 A3001 RMK AO2 SLP156 P0000 T02060194
KDTS,2026-04-13 10:53:00+00:00,2026-04-13 10:53:00+00:00,15.6,15.6,70.0,3.0,,6.0,1025.3988920000002,VFR,BR,,METAR KDTS 131053Z 07003KT 6SM BR CLR 16/16 A3028 RMK AO2 SLP252 T01560156
KDTW,2026-04-13 11:01:00+00:00,2026-04-13 11:01:00+00:00,18.3,13.9,250.0,16.0,29.0,9.0,1011.176054,MVFR,,"[{""cover"": ""BKN"", ""base_ft_agl"": 2800.0}, {""cover"": ""BKN"", ""base_ft_agl"": 3500.0}, {""cover"": ""OVC"", ""base_ft_agl"": 6000.0}]",SPECI KDTW 131101Z 25016G29KT 9SM BKN028 BKN035 OVC060 18/14 A2986 RMK AO2 PK WND 26029/1055 T01830139 $
KDUA,2026-04-13 10:55:00+00:00,2026-04-13 10:55:00+00:00,21.0,20.0,200.0,12.0,18.0,10.0,1017.6101950000001,MVFR,,"[{""cover"": ""OVC"", ""base_ft_agl"": 1300.0}]",METAR KDUA 131055Z AUTO 20012G18KT 10SM OVC013 21/20 A3005 RMK AO2
KDUB,2026-04-13 10:55:00+00:00,2026-04-13 10:55:00+00:00,-1.0,-2.0,310.0,6.0,,1.5,1009.821498,IFR,-SN,"[{""cover"": ""BKN"", ""base_ft_agl"": 1100.0}, {""cover"": ""BKN"", ""base_ft_agl"": 1500.0}, {""cover"": ""OVC"", ""base_ft_agl"": 2400.0}]",METAR KDUB 131055Z AUTO 31006KT 1 1/2SM -SN BKN011 BKN015 OVC024 M01/M02 A2982 RMK AO2 VIS 1/2V5
KDUC,2026-04-13 10:55:00+00:00,2026-04-13 10:55:00+00:00,19.0,19.0,170.0,10.0,,10.0,1014.901083,MVFR,,"[{""cover"": ""SCT"", ""base_ft_agl"": 1500.0}, {""cover"": ""BKN"", ""base_ft_agl"": 2100.0}]",METAR KDUC 131055Z AUTO 17010KT 10SM SCT015 BKN021 19/19 A2997 RMK AO2
KDUG,2026-04-13 10:56:00+00:00,2026-04-13 10:56:00+00:00,16.1,2.2,200.0,10.0,,10.0,1018.964751,VFR,,,METAR KDUG 131056Z AUTO 20010KT 10SM CLR 16/02 A3009 RMK AO2 SLP134 T01610022 TSNO
KDUH,2026-04-13 10:55:00+00:00,2026-04-13 10:55:00+00:00,19.0,14.0,240.0,12.0,20.0,10.0,1011.853332,VFR,,"[{""cover"": ""OVC"", ""base_ft_agl"": 3200.0}]",METAR KDUH 131055Z AUTO 24012G20KT 210V270 10SM OVC032 19/14 A2988 RMK AO2
KDUJ,2026-04-13 10:53:00+00:00,2026-04-13 10:53:00+00:00,18.9,7.8,210.0,9.0,23.0,10.0,1015.917,VFR,,"[{""cover"": ""BKN"", ""base_ft_agl"": 11000.0}]",METAR KDUJ 131053Z AUTO 21009G23KT 10SM BKN110 19/08 A3000 RMK AO2 SLP146 T01890078
KDUX,2026-04-13 10:55:00+00:00,2026-04-13 10:55:00+00:00,10.0,2.0,230.0,9.0,,10.0,1012.53061,VFR,,,METAR KDUX 131055Z AUTO 23009KT 10SM CLR 10/02 A2990 RMK AO2
KDVK,2026-04-13 10:50:00+00:00,2026-04-13 10:50:00+00:00,20.0,10.0,230.0,10.0,,10.0,1021.6738630000001,VFR,,"[{""cover"": ""SCT"", ""base_ft_agl"": 6500.0}]",METAR KDVK 131050Z AUTO 23010KT 10SM SCT065 20/10 A3017 RMK AO2
KDVL,2026-04-13 10:56:00+00:00,2026-04-13 10:56:00+00:00,1.1,-0.6,10.0,3.0,,10.0,1011.5146930000001,MVFR,,"[{""cover"": ""OVC"", ""base_ft_agl"": 2000.0}]",METAR KDVL 131056Z AUTO 01003KT 10SM OVC020 01/M01 A2987 RMK AO2 SLP133 T00111006 FZRANO
KDVN,2026-04-13 10:52:00+00:00,2026-04-13 10:52:00+00:00,17.2,16.1,200.0,9.0,,10.0,1010.498776,VFR,,,METAR KDVN 131052Z AUTO 20009KT 10SM CLR 17/16 A2984 RMK AO2 SLP100 T01720161 $
KDVO,2026-04-13 10:55:00+00:00,2026-04-13 10:55:00+00:00,9.0,9.0,0.0,0.0,,10.0,1017.6101950000001,VFR,,"[{""cover"": ""FEW"", ""base_ft_agl"": 9000.0}]",METAR KDVO 131055Z AUTO 00000KT 10SM FEW090 09/09 A3005 RMK AO2
KDVP,2026-04-13 10:53:00+00:00,2026-04-13 10:53:00+00:00,10.5,9.9,340.0,13.0,,0.25,1007.4510250000001,LIFR,FG,"[{""cover"": ""OVC"", ""base_ft_agl"": 100.0}]",METAR KDVP 131053Z AUTO 34013KT 1/4SM FG OVC001 11/10 A2975 RMK AO2 T01050099
KDVT,2026-04-13 10:53:00+00:00,2026-04-13 10:53:00+00:00,16.1,7.2,0.0,0.0,,10.0,1014.223805,VFR,,,METAR KDVT 131053Z AUTO 00000KT 10SM CLR 16/07 A2995 RMK AO2 SLP125 T01610072 $
KDWA,2026-04-13 10:55:00+00:00,2026-04-13 10:55:00+00:00,8.0,8.0,320.0,4.0,,10.0,1018.6261119999999,VFR,,"[{""cover"": ""OVC"", ""base_ft_agl"": 5500.0}]",METAR KDWA 131055Z AUTO 32004KT 10SM OVC055 08/08 A3008 RMK AO2
KDWH,2026-04-13 10:53:00+00:00,2026-04-13 10:53:00+00:00,21.7,20.6,0.0,0.0,,10.0,1019.30339,MVFR,-RA,"[{""cover"": ""BKN"", ""base_ft_agl"": 2000.0}, {""cover"": ""BKN"", ""base_ft_agl"": 2700.0}, {""cover"": ""OVC"", ""base_ft_agl"": 3500.0}]",METAR KDWH 131053Z AUTO 00000KT 10SM -RA BKN020 BKN027 OVC035 22/21 A3010 RMK AO2 RAB40 SLP191 P0000 T02170206 $
KDWU,2026-04-13 10:56:00+00:00,2026-04-13 10:56:00+00:00,22.2,7.2,230.0,5.0,,10.0,1019.980668,VFR,,"[{""cover"": ""BKN"", ""base_ft_agl"": 7500.0}, {""cover"": ""OVC"", ""base_ft_agl"": 9500.0}]",METAR KDWU 131056Z AUTO 23005KT 10SM BKN075 OVC095 22/07 A3012 RMK AO2 SLP194 T02220072 $
KDWX,2026-04-13 10:55:00+00:00,2026-04-13 10:55:00+00:00,7.5,-2.1,180.0,9.0,,10.0,1013.2078880000001,VFR,,"[{""cover"": ""SCT"", ""base_ft_agl"": 8500.0}, {""cover"": ""OVC"", ""base_ft_agl"": 11000.0}]",METAR KDWX 131055Z AUTO 18009KT 10SM SCT085 OVC110 08/M02 A2992 RMK AO2 T00751021
KDXR,2026-04-13 10:53:00+00:00,2026-04-13 10:53:00+00:00,8.9,5.6,0.0,0.0,,10.0,1021.6738630000001,MVFR,,"[{""cover"": ""OVC"", ""base_ft_agl"": 1300.0}]",METAR KDXR 131053Z 00000KT 10SM OVC013 09/06 A3017 RMK AO2 SLP215 T00890056
KDXX,2026-04-13 10:55:00+00:00,2026-04-13 10:55:00+00:00,8.0,,350.0,7.0,,4.0,1008.466942,LIFR,BR,"[{""cover"": ""OVC"", ""base_ft_agl"": 300.0}]",METAR KDXX 131055Z AUTO 35007KT 4SM BR OVC003 08/ A2978 RMK AO2
KDYB,2026-04-13 10:55:00+00:00,2026-04-13 10:55:00+00:00,12.0,12.0,0.0,0.0,,0.25,1027.092087,LIFR,FG,"[{""cover"": ""OVC"", ""base_ft_agl"": 200.0}]",METAR KDYB 131055Z AUTO 00000KT M1/4SM FG OVC002 12/12 A3033 RMK AO2
KDYL,2026-04-13 10:54:00+00:00,2026-04-13 10:54:00+00:00,11.1,7.2,0.0,0.0,,10.0,1020.996585,MVFR,,"[{""cover"": ""OVC"", ""base_ft_agl"": 1300.0}]",METAR KDYL 131054Z AUTO 00000KT 10SM OVC013 11/07 A3015 RMK AO2 SLP211 T01110072
KDYR,2026-04-13 10:56:00+00:00,2026-04-13 10:56:00+00:00,21.1,13.9,190.0,6.0,,10.0,1019.980668,VFR,,"[{""cover"": ""FEW"", ""base_ft_agl"": 12000.0}]",METAR KDYR 131056Z AUTO 19006KT 10SM FEW120 21/14 A3012 RMK AO2 LTG DSNT SW SLP203 T02110139 $
KDYS,2026-04-13 10:55:00+00:00,2026-04-13 10:55:00+00:00,21.1,18.6,200.0,11.0,,10.0,1015.239722,VFR,,,METAR KDYS 131055Z AUTO 20011KT 10SM CLR 21/19 A2998 RMK AO2 SLP129 T02110186 $
KDYT,2026-04-13 10:55:00+00:00,2026-04-13 10:55:00+00:00,9.0,8.0,330.0,7.0,12.0,10.0,1007.4510250000001,MVFR,,"[{""cover"": ""OVC"", ""base_ft_agl"": 2000.0}]",METAR KDYT 131055Z AUTO 33007G12KT 10SM OVC020 09/08 A2975 RMK AO2
KDZB,2026-04-13 10:55:00+00:00,2026-04-13 10:55:00+00:00,21.5,20.3,160.0,5.0,,10.0,1017.948834,MVFR,,"[{""cover"": ""BKN"", ""base_ft_agl"": 1300.0}, {""cover"": ""OVC"", ""base_ft_agl"": 1800.0}]",METAR KDZB 131055Z AUTO 16005KT 10SM BKN013 OVC018 22/20 A3006 RMK AO2 T02150203
KDZJ,2026-04-13 10:55:00+00:00,2026-04-13 10:55:00+00:00,12.8,7.3,40.0,4.0,,10.0,1027.430726,VFR,,,METAR KDZJ 131055Z AUTO 04004KT 10SM CLR 13/07 A3034 RMK AO2 T01280073
KE01,2026-04-13 10:55:00+00:00,2026-04-13 10:55:00+00:00,18.0,18.0,160.0,5.0,,8.0,1017.271556,VFR,,"[{""cover"": ""SCT"", ""base_ft_agl"": 7500.0}]",METAR KE01 131055Z AUTO 16005KT 8SM SCT075 18/18 A3004 RMK AO2 TSNO
KE11,2026-04-13 10:55:00+00:00,2026-04-13 10:55:00+00:00,17.8,17.8,200.0,10.0,15.0,10.0,1018.2874730000001,VFR,,,METAR KE11 131055Z AUTO 20010G15KT 10SM CLR 18/18 A3007 RMK AO2 T01780178
KE16,2026-04-13 10:50:00+00:00,2026-04-13 10:50:00+00:00,9.0,8.0,100.0,3.0,,10.0,1018.6261119999999,VFR,,"[{""cover"": ""FEW"", ""base_ft_agl"": 2300.0}, {""cover"": ""SCT"", ""base_ft_agl"": 3800.0}, {""cover"": ""OVC"", ""base_ft_agl"": 8500.0}]",METAR KE16 131050Z AUTO 10003KT 10SM FEW023 SCT038 OVC085 09/08 A3008 RMK AO2
KE38,2026-04-13 10:55:00+00:00,2026-04-13 10:55:00+00:00,14.0,6.3,240.0,8.0,,10.0,1022.68978,VFR,,,METAR KE38 131055Z AUTO 24008KT 10SM CLR 14/06 A3020 RMK AO2 T01400063
KE42,2026-04-13 10:55:00+00:00,2026-04-13 10:55:00+00:00,14.4,0.3,230.0,14.0,,10.0,1011.176054,VFR,,,METAR KE42 131055Z AUTO 23014KT 10SM CLR 14/00 A2986 RMK AO2 T01440003
KE57,2026-04-13 10:55:00+00:00,2026-04-13 10:55:00+00:00,14.0,5.0,220.0,9.0,,10.0,1017.271556,VFR,,,METAR KE57 131055Z AUTO 22009KT 10SM CLR 14/05 A3004 RMK AO2
KE77,2026-04-13 10:55:00+00:00,2026-04-13 10:55:00+00:00,14.0,2.0,310.0,3.0,,10.0,1018.964751,VFR,,,METAR KE77 131055Z AUTO 31003KT 10SM CLR 14/02 A3009 RMK AO2
KEAN,2026-04-13 10:55:00+00:00,2026-04-13 10:55:00+00:00,11.0,-4.1,260.0,6.0,,10.0,1010.160137,VFR,,"[{""cover"": ""BKN"", ""base_ft_agl"": 11000.0}]",METAR KEAN 131055Z AUTO 26006KT 10SM BKN110 11/M04 A2983 RMK AO2 T01101041
KEAR,2026-04-13 10:56:00+00:00,2026-04-13 10:56:00+00:00,12.8,7.8,180.0,13.0,,10.0,1003.387357,VFR,,,METAR KEAR 131056Z AUTO 18013KT 10SM CLR 13/08 A2963 RMK AO2 SLP018 T01280078
KEAT,2026-04-13 10:55:00+00:00,2026-04-13 10:55:00+00:00,11.1,3.3,300.0,13.0,,10.0,1007.112386,VFR,,,METAR KEAT 131055Z AUTO 30013KT 10SM CLR 11/03 A2974 RMK AO2 SLP069 T01110033
KEAU,2026-04-13 11:03:00+00:00,2026-04-13 11:03:00+00:00,11.1,11.1,240.0,3.0,,0.25,1007.4510250000001,LIFR,FG,"[{""cover"": ""BKN"", ""base_ft_agl"": 200.0}, {""cover"": ""BKN"", ""base_ft_agl"": 9000.0}]",SPECI KEAU 131103Z 24003KT 1/4SM FG BKN002 BKN090 11/11 A2975 RMK AO2 T01110111
KEBA,2026-04-13 10:55:00+00:00,2026-04-13 10:55:00+00:00,12.6,12.5,0.0,0.0,,10.0,1027.092087,VFR,,,METAR KEBA 131055Z AUTO 00000KT 10SM CLR 13/13 A3033 RMK AO2 T01260125
KEBG,2026-04-13 10:55:00+00:00,2026-04-13 10:55:00+00:00,23.0,21.0,130.0,4.0,,10.0,1016.2556390000001,MVFR,,"[{""cover"": ""BKN"", ""base_ft_agl"": 1400.0}, {""cover"": ""BKN"", ""base_ft_agl"": 1900.0}, {""cover"": ""OVC"", ""base_ft_agl"": 4200.0}]",METAR KEBG 131055Z AUTO 13004KT 10SM BKN014 BKN019 OVC042 23/21 A3001 RMK AO2
KEBS,2026-04-13 10:55:00+00:00,2026-04-13 10:55:00+00:00,11.0,11.0,120.0,5.0,,0.25,1007.4510250000001,LIFR,FG,"[{""cover"": ""OVC"", ""base_ft_agl"": 100.0}]",METAR KEBS 131055Z AUTO 12005KT M1/4SM FG OVC001 11/11 A2975 RMK AO2
KECG,2026-04-13 10:54:00+00:00,2026-04-13 10:54:00+00:00,16.7,14.4,200.0,7.0,,10.0,1026.753448,VFR,,,METAR KECG 131054Z 20007KT 10SM CLR 17/14 A3032 RMK AO2 SLP268 T01670144
KECP,2026-04-13 10:53:00+00:00,2026-04-13 10:53:00+00:00,12.2,11.7,0.0,0.0,,10.0,1025.3988920000002,VFR,,,METAR KECP 131053Z 00000KT 10SM CLR 12/12 A3028 RMK AO2 SLP264 T01220117
KECS,2026-04-13 10:55:00+00:00,2026-04-13 10:55:00+00:00,7.0,-1.0,30.0,4.0,,10.0,1008.466942,VFR,,"[{""cover"": ""OVC"", ""base_ft_agl"": 10000.0}]",METAR KECS 131055Z AUTO 03004KT 10SM OVC100 07/M01 A2978 RMK AO2
KEDC,2026-04-13 10:55:00+00:00,2026-04-13 10:55:00+00:00,22.0,22.0,170.0,6.0,,6.0,1017.271556,IFR,BR,"[{""cover"": ""BKN"", ""base_ft_agl"": 700.0}, {""cover"": ""BKN"", ""base_ft_agl"": 1100.0}, {""cover"": ""OVC"", ""base_ft_agl"": 3300.0}]",METAR KEDC 131055Z AUTO 17006KT 6SM BR BKN007 BKN011 OVC033 22/22 A3004 RMK AO2
KEDE,2026-04-13 10:55:00+00:00,2026-04-13 10:55:00+00:00,16.5,14.6,180.0,5.0,,10.0,1027.430726,VFR,,,METAR KEDE 131055Z AUTO 18005KT 10SM CLR 17/15 A3034 RMK AO2 T01650146
KEDN,2026-04-13 10:55:00+00:00,2026-04-13 10:55:00+00:00,12.8,12.6,0.0,0.0,,10.0,1026.07617,VFR,,,METAR KEDN 131055Z AUTO 00000KT 10SM CLR 13/13 A3030 RMK AO1 T01280126
KEDU,2026-04-13 10:55:00+00:00,2026-04-13 10:55:00+00:00,9.0,9.0,30.0,3.0,,10.0,1018.2874730000001,VFR,,,METAR KEDU 131055Z AUTO 03003KT 10SM 09/09 A3007 RMK AO1
KEDW,2026-04-13 10:55:00+00:00,2026-04-13 10:55:00+00:00,9.5,3.9,220.0,10.0,,10.0,1014.562444,VFR,,"[{""cover"": ""OVC"", ""base_ft_agl"": 6000.0}]",METAR KEDW 131055Z AUTO 22010KT 10SM OVC060 10/04 A2996 RMK AO2 SLP137 T00950039 $
KEED,2026-04-13 10:56:00+00:00,2026-04-13 10:56:00+00:00,17.2,2.2,280.0,8.0,,10.0,1012.8692490000001,VFR,,,METAR KEED 131056Z AUTO 28008KT 240V310 10SM CLR 17/02 A2991 RMK AO2 SLP107 T01720022
KEEN,2026-04-13 10:56:00+00:00,2026-04-13 10:56:00+00:00,6.1,3.3,0.0,0.0,,10.0,1018.964751,VFR,,"[{""cover"": ""FEW"", ""base_ft_agl"": 11000.0}]",METAR KEEN 131056Z AUTO 00000KT 10SM FEW110 06/03 A3009 RMK AO2 SLP193 T00610033
KEEO,2026-04-13 10:53:00+00:00,2026-04-13 10:53:00+00:00,8.3,-6.1,280.0,9.0,,10.0,1013.885166,VFR,,"[{""cover"": ""BKN"", ""base_ft_agl"": 9500.0}, {""cover"": ""BKN"", ""base_ft_agl"": 12000.0}]",METAR KEEO 131053Z AUTO 28009KT 10SM BKN095 BKN120 08/M06 A2994 RMK AO2 WSHFT 0958 SLP078 T00831061
KEET,2026-04-13 10:53:00+00:00,2026-04-13 10:53:00+00:00,12.2,10.6,0.0,0.0,,10.0,1025.060253,VFR,,,METAR KEET 131053Z AUTO 00000KT 10SM CLR 12/11 A3027 RMK AO2 SLP246 T01220106
KEFD,2026-04-13 10:54:00+00:00,2026-04-13 10:54:00+00:00,23.0,21.0,140.0,10.0,20.0,10.0,1018.964751,MVFR,,"[{""cover"": ""OVC"", ""base_ft_agl"": 1400.0}]",METAR KEFD 131054Z 14010G20KT 10SM OVC014 23/21 A3009
KEFK,2026-04-13 10:55:00+00:00,2026-04-13 10:55:00+00:00,5.2,3.5,170.0,9.0,,10.0,1013.546527,VFR,,"[{""cover"": ""BKN"", ""base_ft_agl"": 5500.0}, {""cover"": ""OVC"", ""base_ft_agl"": 7000.0}]",METAR KEFK 131055Z AUTO 17009KT 10SM BKN055 OVC070 05/04 A2993 RMK AO2 T00520035
KEFT,2026-04-13 10:55:00+00:00,2026-04-13 10:55:00+00:00,16.5,16.5,230.0,13.0,,7.0,1009.821498,LIFR,,"[{""cover"": ""OVC"", ""base_ft_agl"": 400.0}]",METAR KEFT 131055Z AUTO 23013KT 7SM OVC004 17/17 A2982 RMK AO2 T01650165
KEGE,2026-04-13 10:56:00+00:00,2026-04-13 10:56:00+00:00,8.3,-7.2,240.0,10.0,,10.0,1015.239722,VFR,,,METAR KEGE 131056Z AUTO 24010KT 10SM CLR 08/M07 A2998 RMK AO2 SLP091 T00831072
KEGI,2026-04-13 10:55:00+00:00,2026-04-13 10:55:00+00:00,11.0,10.1,20.0,3.0,,10.0,1025.3988920000002,VFR,,,METAR KEGI 131055Z AUTO 02003KT 10SM CLR 11/10 A3028 RMK AO2 SLP254 T01100101 $
KEGT,2026-04-13 10:55:00+00:00,2026-04-13 10:55:00+00:00,20.3,18.9,190.0,16.0,27.0,10.0,1010.498776,MVFR,,"[{""cover"": ""OVC"", ""base_ft_agl"": 1200.0}]",METAR KEGT 131055Z AUTO 19016G27KT 10SM OVC012 20/19 A2984 RMK AO2 T02030189
KEGV,2026-04-13 10:55:00+00:00,2026-04-13 10:55:00+00:00,10.5,10.5,270.0,6.0,,7.0,1006.435108,IFR,,"[{""cover"": ""BKN"", ""base_ft_agl"": 500.0}, {""cover"": ""OVC"", ""base_ft_agl"": 800.0}]",METAR KEGV 131055Z AUTO 27006KT 7SM BKN005 OVC008 11/11 A2972 RMK AO2 T01050105
KEHA,2026-04-13 10:55:00+00:00,2026-04-13 10:55:00+00:00,13.4,-3.8,240.0,12.0,,10.0,1011.176054,VFR,,,METAR KEHA 131055Z AUTO 24012KT 10SM CLR 13/M04 A2986 RMK AO2 T01341038
KEHO,2026-04-13 10:55:00+00:00,2026-04-13 10:55:00+00:00,13.6,10.5,180.0,4.0,,10.0,1027.092087,VFR,,,METAR KEHO 131055Z AUTO 18004KT 10SM CLR 14/11 A3033 RMK AO2 T01360105
KEHR,2026-04-13 10:56:00+00:00,2026-04-13 10:56:00+00:00,21.7,12.8,210.0,8.0,,10.0,,VFR,,"[{""cover"": ""BKN"", ""base_ft_agl"": 4200.0}, {""cover"": ""BKN"", ""base_ft_agl"": 7000.0}]",METAR KEHR 131056Z AUTO 21008KT 10SM BKN042 BKN070 22/13 RMK AO2 SLPNO T02170128 $
KEIK,2026-04-13 10:55:00+00:00,2026-04-13 10:55:00+00:00,12.2,-9.1,180.0,7.0,,10.0,1009.14422,VFR,,"[{""cover"": ""FEW"", ""base_ft_agl"": 32000.0}]",METAR KEIK 131055Z AUTO 18007KT 10SM FEW320 12/M09 A2980 RMK AO2 T01221091
KEKE,2026-04-13 10:55:00+00:00,2026-04-13 10:55:00+00:00,24.0,19.0,120.0,20.0,,10.0,1018.2874730000001,VFR,,,METAR KEKE 131055Z AUTO 12020KT 10SM CLR 24/19 A3007 RMK A01
KEKM,2026-04-13 10:55:00+00:00,2026-04-13 10:55:00+00:00,18.0,16.2,240.0,11.0,,10.0,1012.1919710000001,MVFR,,"[{""cover"": ""OVC"", ""base_ft_agl"": 1900.0}]",METAR KEKM 131055Z AUTO 24011KT 10SM OVC019 18/16 A2989 RMK AO2 CIG 018V022 T01800162 $
KEKN,2026-04-13 10:51:00+00:00,2026-04-13 10:51:00+00:00,21.1,6.7,190.0,9.0,15.0,10.0,1022.012502,VFR,,,METAR KEKN 131051Z AUTO 19009G15KT 130V240 10SM CLR 21/07 A3018 RMK AO2 SLP207 T02110067
KEKO,2026-04-13 10:56:00+00:00,2026-04-13 10:56:00+00:00,1.1,0.6,0.0,0.0,,10.0,1015.578361,VFR,,"[{""cover"": ""OVC"", ""base_ft_agl"": 7000.0}]",METAR KEKO 131056Z AUTO 00000KT 10SM OVC070 01/01 A2999 RMK AO2 SNE08 SLP151 P0000 T00110006
KEKQ,2026-04-13 10:56:00+00:00,2026-04-13 10:56:00+00:00,20.6,11.7,210.0,10.0,,10.0,1023.7056970000001,VFR,,"[{""cover"": ""BKN"", ""base_ft_agl"": 8000.0}, {""cover"": ""OVC"", ""base_ft_agl"": 10000.0}]",METAR KEKQ 131056Z AUTO 21010KT 10SM BKN080 OVC100 21/12 A3023 RMK AO2 RAE0958 SLP224 T02060117 PNO $
KEKS,2026-04-13 10:50:00+00:00,2026-04-13 10:50:00+00:00,3.0,-3.0,160.0,14.0,19.0,10.0,1010.8374150000001,VFR,,"[{""cover"": ""SCT"", ""base_ft_agl"": 11000.0}]",METAR KEKS 131050Z AUTO 16014G19KT 10SM SCT110 03/M03 A2985 RMK AO2
KEKX,2026-04-13 10:55:00+00:00,2026-04-13 10:55:00+00:00,18.8,11.5,200.0,4.0,,10.0,1019.980668,VFR,,"[{""cover"": ""BKN"", ""base_ft_agl"": 7000.0}]",METAR KEKX 131055Z AUTO 20004KT 10SM BKN070 19/12 A3012 RMK AO2 T01880115
KEKY,2026-04-13 10:56:00+00:00,2026-04-13 10:56:00+00:00,14.4,10.6,180.0,4.0,,,1025.3988920000002,,,,METAR KEKY 131056Z AUTO 18004KT CLR 14/11 A3028 RMK AO2 SLP228 T01440106 PWINO RVRNO $
KELA,2026-04-13 10:55:00+00:00,2026-04-13 10:55:00+00:00,20.6,20.5,150.0,5.0,,7.0,1018.6261119999999,MVFR,,"[{""cover"": ""BKN"", ""base_ft_agl"": 1000.0}, {""cover"": ""OVC"", ""base_ft_agl"": 2500.0}]",METAR KELA 131055Z AUTO 15005KT 7SM BKN010 OVC025 21/21 A3008 RMK AO2 T02060205
KELD,2026-04-13 11:00:00+00:00,2026-04-13 11:00:00+00:00,20.0,18.3,160.0,3.0,,10.0,1019.980668,MVFR,,"[{""cover"": ""BKN"", ""base_ft_agl"": 2300.0}, {""cover"": ""OVC"", ""base_ft_agl"": 3800.0}]",SPECI KELD 131100Z AUTO 16003KT 10SM BKN023 OVC038 20/18 A3012 RMK AO2 T02000183
KELK,2026-04-13 10:55:00+00:00,2026-04-13 10:55:00+00:00,19.1,19.1,200.0,13.0,,9.0,1011.853332,VFR,,,METAR KELK 131055Z AUTO 20013KT 9SM CLR 19/19 A2988 RMK AO2 P0001 T01910191 $
KELM,2026-04-13 10:53:00+00:00,2026-04-13 10:53:00+00:00,10.6,6.7,0.0,0.0,,10.0,1015.239722,VFR,,,METAR KELM 131053Z 00000KT 10SM CLR 11/07 A2998 RMK AO2 SLP153 T01060067
KELN,2026-04-13 10:53:00+00:00,2026-04-13 10:53:00+00:00,7.8,2.2,300.0,14.0,26.0,10.0,1008.805581,VFR,,,METAR KELN 131053Z AUTO 30014G26KT 10SM CLR 08/02 A2979 RMK AO2 PK WND 32028/1015 SLP084 T00780022
KELO,2026-04-13 10:55:00+00:00,2026-04-13 10:55:00+00:00,4.2,4.2,300.0,6.0,,10.0,1007.112386,LIFR,,"[{""cover"": ""OVC"", ""base_ft_agl"": 300.0}]",METAR KELO 131055Z AUTO 30006KT 10SM OVC003 04/04 A2974 RMK AO2 CIG 003V006 T00420042
KELP,2026-04-13 10:51:00+00:00,2026-04-13 10:51:00+00:00,15.6,1.1,200.0,4.0,,10.0,1017.948834,VFR,,"[{""cover"": ""FEW"", ""base_ft_agl"": 10000.0}, {""cover"": ""FEW"", ""base_ft_agl"": 17000.0}, {""cover"": ""SCT"", ""base_ft_agl"": 25000.0}]",METAR KELP 131051Z 20004KT 10SM FEW100 FEW170 SCT250 16/01 A3006 RMK AO2 SLP118 T01560011
KELY,2026-04-13 11:04:00+00:00,2026-04-13 11:04:00+00:00,-5.6,-6.7,200.0,3.0,,0.25,1015.578361,LIFR,FZFG,"[{""cover"": ""OVX"", ""base_ft_agl"": 200.0}]",SPECI KELY 131104Z AUTO 20003KT 1/4SM FZFG VV002 M06/M07 A2999 RMK AO2 T10561067 $
KELZ,2026-04-13 10:56:00+00:00,2026-04-13 10:56:00+00:00,15.6,7.8,190.0,12.0,19.0,10.0,1014.901083,VFR,,"[{""cover"": ""SCT"", ""base_ft_agl"": 12000.0}]",METAR KELZ 131056Z AUTO 19012G19KT 10SM SCT120 16/08 A2997 RMK AO2 SLP141 T01560078 $
KEMM,2026-04-13 10:55:00+00:00,2026-04-13 10:55:00+00:00,-1.0,-3.0,320.0,11.0,,3.0,1014.223805,MVFR,,"[{""cover"": ""SCT"", ""base_ft_agl"": 700.0}, {""cover"": ""SCT"", ""base_ft_agl"": 1100.0}]",METAR KEMM 131055Z AUTO 32011KT 3SM SCT007 SCT011 M01/M03 A2995 RMK AO2
KEMP,2026-04-13 10:53:00+00:00,2026-04-13 10:53:00+00:00,20.0,17.8,200.0,20.0,27.0,10.0,1009.14422,VFR,,"[{""cover"": ""FEW"", ""base_ft_agl"": 1700.0}]",METAR KEMP 131053Z AUTO 20020G27KT 10SM FEW017 20/18 A2980 RMK AO2 PK WND 19031/0955 SLP084 T02000178
KEND,2026-04-13 09:55:00+00:00,2026-04-13 09:55:00+00:00,20.6,18.9,190.0,20.0,25.0,10.0,1009.482859,VFR,,"[{""cover"": ""FEW"", ""base_ft_agl"": 1300.0}]",METAR KEND 130955Z 19020G25KT 10SM FEW013 21/19 A2981 RMK AO2A PK WND 19026/19 SLP083 T02060189 $
KENL,2026-04-13 10:55:00+00:00,2026-04-13 10:55:00+00:00,19.5,15.5,0.0,0.0,,10.0,1016.594278,VFR,,"[{""cover"": ""SCT"", ""base_ft_agl"": 5000.0}]",METAR KENL 131055Z AUTO 00000KT 10SM SCT050 20/16 A3002 RMK AO2 T01950155
KENV,2026-04-13 10:56:00+00:00,2026-04-13 10:56:00+00:00,2.8,-1.7,0.0,0.0,,10.0,1015.578361,VFR,,,METAR KENV 131056Z AUTO 00000KT 10SM CLR 03/M02 A2999 RMK AO2 SLP155 T00281017
KEOE,2026-04-13 10:55:00+00:00,2026-04-13 10:55:00+00:00,15.0,12.0,180.0,4.0,,10.0,1028.108004,VFR,,,METAR KEOE 131055Z AUTO 18004KT 10SM CLR 15/12 A3036 RMK AO2
KEOK,2026-04-13 10:55:00+00:00,2026-04-13 10:55:00+00:00,17.0,16.0,220.0,13.0,,10.0,1011.176054,VFR,,,METAR KEOK 131055Z AUTO 22013KT 10SM CLR 17/16 A2986 RMK A01
KEPH,2026-04-13 10:53:00+00:00,2026-04-13 10:53:00+00:00,11.1,2.8,60.0,3.0,,10.0,1006.0964690000001,VFR,,"[{""cover"": ""OVC"", ""base_ft_agl"": 7500.0}]",METAR KEPH 131053Z AUTO 06003KT 10SM OVC075 11/03 A2971 RMK AO2 SLP057 T01110028
KEQA,2026-04-13 10:55:00+00:00,2026-04-13 10:55:00+00:00,21.0,18.0,190.0,17.0,,10.0,1010.498776,MVFR,,"[{""cover"": ""OVC"", ""base_ft_agl"": 1200.0}]",METAR KEQA 131055Z AUTO 19017KT 10SM OVC012 21/18 A2984 RMK AO2
KEQY,2026-04-13 10:53:00+00:00,2026-04-13 10:53:00+00:00,15.0,13.3,260.0,5.0,,10.0,1027.430726,VFR,,,METAR KEQY 131053Z AUTO 26005KT 10SM CLR 15/13 A3034 RMK AO2 SLP277 T01500133
KERI,2026-04-13 10:51:00+00:00,2026-04-13 10:51:00+00:00,18.3,11.1,200.0,14.0,21.0,10.0,1011.853332,VFR,,"[{""cover"": ""OVC"", ""base_ft_agl"": 5500.0}]",METAR KERI 131051Z 20014G21KT 10SM OVC055 18/11 A2988 RMK AO2 RAE51 SLP114 P0001 T01830111 $
KERV,2026-04-13 10:55:00+00:00,2026-04-13 10:55:00+00:00,20.5,19.7,160.0,8.0,,7.0,1018.2874730000001,IFR,,"[{""cover"": ""OVC"", ""base_ft_agl"": 800.0}]",METAR KERV 131055Z AUTO 16008KT 7SM OVC008 21/20 A3007 RMK AO2 T02050197
KERY,2026-04-13 10:55:00+00:00,2026-04-13 10:55:00+00:00,7.0,7.0,320.0,9.0,,10.0,1003.725996,IFR,,"[{""cover"": ""OVC"", ""base_ft_agl"": 500.0}]",METAR KERY 131055Z AUTO 32009KT 10SM OVC005 07/07 A2964 RMK AO2
KESC,2026-04-13 10:56:00+00:00,2026-04-13 10:56:00+00:00,12.2,12.2,300.0,3.0,,3.0,1004.7419130000001,MVFR,BR,"[{""cover"": ""OVC"", ""base_ft_agl"": 2400.0}]",METAR KESC 131056Z AUTO 30003KT 3SM BR OVC024 12/12 A2967 RMK AO2 SLP053 T01220122
KESF,2026-04-13 10:53:00+00:00,2026-04-13 10:53:00+00:00,18.9,17.8,0.0,0.0,,10.0,1020.657946,MVFR,,"[{""cover"": ""OVC"", ""base_ft_agl"": 2000.0}]",METAR KESF 131053Z AUTO 00000KT 10SM OVC020 19/18 A3014 RMK AO2 SLP202 T01890178
KESN,2026-04-13 10:45:00+00:00,2026-04-13 10:45:00+00:00,16.0,15.0,200.0,11.0,,10.0,1022.3511410000001,VFR,,,METAR KESN 131045Z 20011KT 10SM CLR 16/15 A3019
KEST,2026-04-13 10:52:00+00:00,2026-04-13 10:52:00+00:00,11.7,11.1,180.0,10.0,,0.75,1006.435108,LIFR,BR,"[{""cover"": ""OVX"", ""base_ft_agl"": 200.0}]",METAR KEST 131052Z AUTO 18010KT 3/4SM BR VV002 12/11 A2972 RMK AO2 SLP061 T01170111
KETB,2026-04-13 10:55:00+00:00,2026-04-13 10:55:00+00:00,17.0,16.0,240.0,9.0,14.0,10.0,1008.466942,MVFR,,"[{""cover"": ""BKN"", ""base_ft_agl"": 1700.0}, {""cover"": ""OVC"", ""base_ft_agl"": 2600.0}]",METAR KETB 131055Z AUTO 24009G14KT 10SM BKN017 OVC026 17/16 A2978 RMK AO2
KETC,2026-04-13 10:50:00+00:00,2026-04-13 10:50:00+00:00,14.8,14.2,180.0,3.0,,5.0,1027.092087,MVFR,BR,,METAR KETC 131050Z AUTO 18003KT 5SM BR CLR 15/14 A3033 RMK AO2 T01480142
KETH,2026-04-13 10:53:00+00:00,2026-04-13 10:53:00+00:00,6.0,5.0,360.0,10.0,,7.0,1009.482859,IFR,,"[{""cover"": ""OVC"", ""base_ft_agl"": 500.0}]",METAR KETH 131053Z AUTO 36010KT 7SM OVC005 06/05 A2981 RMK AO2
KETN,2026-04-13 10:55:00+00:00,2026-04-13 10:55:00+00:00,20.8,18.8,190.0,11.0,,10.0,1016.594278,MVFR,,"[{""cover"": ""OVC"", ""base_ft_agl"": 1300.0}]",METAR KETN 131055Z AUTO 19011KT 10SM OVC013 21/19 A3002 RMK AO2 T02080188
KEUF,2026-04-13 10:58:00+00:00,2026-04-13 10:58:00+00:00,10.6,10.6,0.0,0.0,,10.0,1026.4148089999999,VFR,,,METAR KEUF 131058Z AUTO 00000KT 10SM CLR 11/11 A3031 RMK AO1 SLP263 T01060106
KEUG,2026-04-13 10:54:00+00:00,2026-04-13 10:54:00+00:00,9.4,7.2,230.0,6.0,,10.0,1017.6101950000001,MVFR,,"[{""cover"": ""OVC"", ""base_ft_agl"": 1800.0}]",METAR KEUG 131054Z AUTO 23006KT 10SM OVC018 09/07 A3005 RMK AO2 SLP178 T00940072
KEUL,2026-04-13 10:56:00+00:00,2026-04-13 10:56:00+00:00,6.1,5.6,130.0,8.0,,9.0,1011.853332,VFR,-RA,"[{""cover"": ""OVC"", ""base_ft_agl"": 3400.0}]",METAR KEUL 131056Z AUTO 13008KT 9SM -RA OVC034 06/06 A2988 RMK AO2 SLP125 P0004 T00610056 $
KEVB,2026-04-13 10:47:00+00:00,2026-04-13 10:47:00+00:00,20.0,18.0,110.0,4.0,,10.0,1025.3988920000002,VFR,,"[{""cover"": ""SCT"", ""base_ft_agl"": 4000.0}]",METAR KEVB 131047Z 11004KT 10SM SCT 040 20/18 A3028 RMK FIRST
KEVM,2026-04-13 10:55:00+00:00,2026-04-13 10:55:00+00:00,5.3,4.5,340.0,3.0,,10.0,1008.466942,IFR,,"[{""cover"": ""OVC"", ""base_ft_agl"": 600.0}]",METAR KEVM 131055Z AUTO 34003KT 10SM OVC006 05/05 A2978 RMK AO2 T00530045
KEVU,2026-04-13 10:55:00+00:00,2026-04-13 10:55:00+00:00,20.3,20.3,180.0,11.0,,10.0,1007.7896640000001,MVFR,,"[{""cover"": ""BKN"", ""base_ft_agl"": 1800.0}]",METAR KEVU 131055Z AUTO 18011KT 10SM BKN018 20/20 A2976 RMK AO2 T02030203
KEVV,2026-04-13 10:54:00+00:00,2026-04-13 10:54:00+00:00,21.7,12.8,210.0,10.0,,10.0,1018.2874730000001,VFR,,"[{""cover"": ""FEW"", ""base_ft_agl"": 4600.0}, {""cover"": ""BKN"", ""base_ft_agl"": 7500.0}]",METAR KEVV 131054Z 21010KT 10SM FEW046 BKN075 22/13 A3007 RMK AO2 SLP178 T02170128
KEVW,2026-04-13 10:58:00+00:00,2026-04-13 10:58:00+00:00,-2.2,-2.8,220.0,9.0,,0.25,1014.901083,LIFR,FZFG,"[{""cover"": ""BKN"", ""base_ft_agl"": 200.0}, {""cover"": ""OVC"", ""base_ft_agl"": 7500.0}]",SPECI KEVW 131058Z AUTO 22009KT 1/4SM FZFG BKN002 OVC075 M02/M03 A2997 RMK AO2 T10221028 $
KEWB,2026-04-13 10:53:00+00:00,2026-04-13 10:53:00+00:00,9.4,5.6,210.0,14.0,,10.0,1022.68978,VFR,,"[{""cover"": ""FEW"", ""base_ft_agl"": 2500.0}, {""cover"": ""OVC"", ""base_ft_agl"": 3400.0}]",METAR KEWB 131053Z 21014KT 10SM FEW025 OVC034 09/06 A3020 RMK AO2 SLP225 T00940056 $
KEWK,2026-04-13 10:56:00+00:00,2026-04-13 10:56:00+00:00,20.0,20.0,200.0,18.0,,10.0,1009.14422,MVFR,,"[{""cover"": ""OVC"", ""base_ft_agl"": 1200.0}]",METAR KEWK 131056Z AUTO 20018KT 10SM OVC012 20/20 A2980 RMK AO2 PK WND 19029/1001 SLP078 T02000200 $
KEWN,2026-04-13 10:54:00+00:00,2026-04-13 10:54:00+00:00,12.8,12.8,0.0,0.0,,10.0,1027.769365,VFR,,,METAR KEWN 131054Z 00000KT 10SM CLR 13/13 A3035 RMK AO2 SLP278 T01280128
KEWR,2026-04-13 10:51:00+00:00,2026-04-13 10:51:00+00:00,10.6,6.7,250.0,4.0,,10.0,1021.335224,MVFR,,"[{""cover"": ""OVC"", ""base_ft_agl"": 1800.0}]",METAR KEWR 131051Z 25004KT 10SM OVC018 11/07 A3016 RMK AO2 SLP213 T01060067
KEYE,2026-04-13 10:53:00+00:00,2026-04-13 10:53:00+00:00,19.4,12.2,220.0,5.0,,10.0,1015.917,VFR,,"[{""cover"": ""BKN"", ""base_ft_agl"": 4300.0}]",METAR KEYE 131053Z AUTO 22005KT 10SM BKN043 19/12 A3000 RMK AO2 SLP151 T01940122
KEYF,2026-04-13 10:55:00+00:00,2026-04-13 10:55:00+00:00,14.9,14.6,190.0,5.0,,10.0,1027.769365,VFR,,,METAR KEYF 131055Z AUTO 19005KT 10SM CLR 15/15 A3035 RMK AO2 T01490146
KEYW,2026-04-13 10:53:00+00:00,2026-04-13 10:53:00+00:00,22.8,15.6,60.0,7.0,,10.0,1022.012502,VFR,,"[{""cover"": ""SCT"", ""base_ft_agl"": 3000.0}]",METAR KEYW 131053Z 06007KT 10SM SCT030 23/16 A3018 RMK AO2 SLP225 T02280156 $
KEZF,2026-04-13 10:55:00+00:00,2026-04-13 10:55:00+00:00,17.3,17.3,200.0,8.0,,10.0,1022.3511410000001,VFR,,,METAR KEZF 131055Z AUTO 20008KT 10SM CLR 17/17 A3019 RMK AO2 T01730173
KEZP,2026-04-13 10:55:00+00:00,2026-04-13 10:55:00+00:00,24.0,20.0,,,,10.0,1020.319307,VFR,,,METAR KEZP 131055Z AUTO 10SM CLR 24/20 A3013 RMK A01
KEZS,2026-04-13 10:55:00+00:00,2026-04-13 10:55:00+00:00,15.9,13.9,230.0,3.0,,10.0,1005.75783,VFR,,,METAR KEZS 131055Z AUTO 23003KT 10SM CLR 16/14 A2970 RMK AO2 T01590139
KEZZ,2026-04-13 10:55:00+00:00,2026-04-13 10:55:00+00:00,20.0,19.0,180.0,12.0,,10.0,1011.176054,MVFR,,"[{""cover"": ""OVC"", ""base_ft_agl"": 2500.0}]",METAR KEZZ 131055Z AUTO 18012KT 10SM OVC025 20/19 A2986 RMK AO2
KF00,2026-04-13 10:55:00+00:00,2026-04-13 10:55:00+00:00,20.0,20.0,190.0,14.0,,10.0,1016.594278,MVFR,,"[{""cover"": ""OVC"", ""base_ft_agl"": 1300.0}]",METAR KF00 131055Z AUTO 19014KT 10SM OVC013 20/20 A3002 RMK AO2
KF05,2026-04-13 10:55:00+00:00,2026-04-13 10:55:00+00:00,20.5,19.8,200.0,10.0,,10.0,1013.885166,VFR,,"[{""cover"": ""SCT"", ""base_ft_agl"": 1600.0}]",METAR KF05 131055Z AUTO 20010KT 10SM SCT016 21/20 A2994 RMK AO2 T02050198
KF17,2026-04-13 10:55:00+00:00,2026-04-13 10:55:00+00:00,18.0,17.0,200.0,7.0,,10.0,1020.657946,IFR,,"[{""cover"": ""OVC"", ""base_ft_agl"": 600.0}]",METAR KF17 131055Z AUTO 20007KT 10SM OVC006 18/17 A3014 RMK AO2
KF44,2026-04-13 10:55:00+00:00,2026-04-13 10:55:00+00:00,20.0,18.0,180.0,9.0,,10.0,1018.2874730000001,VFR,,"[{""cover"": ""SCT"", ""base_ft_agl"": 1000.0}, {""cover"": ""SCT"", ""base_ft_agl"": 5000.0}]",METAR KF44 131055Z AUTO 18009KT 10SM SCT010 SCT050 20/18 A3007 RMK AO2 LTG DSNT SE
KF45,2026-04-13 10:55:00+00:00,2026-04-13 10:55:00+00:00,21.0,14.0,70.0,8.0,,10.0,1024.382975,VFR,,"[{""cover"": ""OVC"", ""base_ft_agl"": 4100.0}]",METAR KF45 131055Z AUTO 07008KT 10SM OVC041 21/14 A3025 RMK AO2
KF46,2026-04-13 10:55:00+00:00,2026-04-13 10:55:00+00:00,20.1,20.1,180.0,9.0,14.0,10.0,1017.6101950000001,IFR,,"[{""cover"": ""OVC"", ""base_ft_agl"": 900.0}]",METAR KF46 131055Z AUTO 18009G14KT 10SM OVC009 20/20 A3005 RMK AO2 T02010201
KF70,2026-04-13 10:55:00+00:00,2026-04-13 10:55:00+00:00,11.0,10.0,0.0,0.0,,10.0,1016.9329170000001,VFR,,"[{""cover"": ""SCT"", ""base_ft_agl"": 4200.0}, {""cover"": ""BKN"", ""base_ft_agl"": 5000.0}, {""cover"": ""BKN"", ""base_ft_agl"": 7000.0}]",METAR KF70 131055Z AUTO 00000KT 10SM SCT042 BKN050 BKN070 11/10 A3003 RMK AO2 P0001
KF95,2026-04-13 10:55:00+00:00,2026-04-13 10:55:00+00:00,10.0,10.0,0.0,0.0,,10.0,1025.737531,VFR,,,METAR KF95 131055Z AUTO 00000KT 10SM CLR 10/10 A3029 RMK AO2
KFAF,2026-04-13 10:55:00+00:00,2026-04-13 10:55:00+00:00,16.9,14.2,200.0,8.0,,10.0,1025.3988920000002,VFR,,"[{""cover"": ""FEW"", ""base_ft_agl"": 2000.0}, {""cover"": ""SCT"", ""base_ft_agl"": 25000.0}]",METAR KFAF 131055Z 20008KT 10SM FEW020 SCT250 17/14 A3028 RMK AO2A SLP257 T01690142 $
KFAM,2026-04-13 10:56:00+00:00,2026-04-13 10:56:00+00:00,20.0,16.7,200.0,11.0,,10.0,1017.271556,MVFR,,"[{""cover"": ""OVC"", ""base_ft_agl"": 2300.0}]",METAR KFAM 131056Z AUTO 20011KT 10SM OVC023 20/17 A3004 RMK AO2 SLP177 T02000167 $
KFAR,2026-04-13 10:53:00+00:00,2026-04-13 10:53:00+00:00,3.9,3.3,360.0,11.0,,3.0,1009.821498,LIFR,BR,"[{""cover"": ""OVC"", ""base_ft_agl"": 400.0}]",METAR KFAR 131053Z 36011KT 3SM BR OVC004 04/03 A2982 RMK AO2 SLP103 T00390033
KFAT,2026-04-13 10:53:00+00:00,2026-04-13 10:53:00+00:00,11.1,7.2,320.0,7.0,,10.0,1016.9329170000001,VFR,,"[{""cover"": ""SCT"", ""base_ft_agl"": 6500.0}, {""cover"": ""BKN"", ""base_ft_agl"": 9500.0}]",METAR KFAT 131053Z 32007KT 10SM SCT065 BKN095 11/07 A3003 RMK AO2 SLP168 T01110072 $
KFAY,2026-04-13 10:53:00+00:00,2026-04-13 10:53:00+00:00,15.0,14.4,180.0,5.0,,4.0,1027.092087,MVFR,BR,,METAR KFAY 131053Z 18005KT 4SM BR CLR 15/14 A3033 RMK AO2 SLP265 T01500144
KFBL,2026-04-13 10:55:00+00:00,2026-04-13 10:55:00+00:00,8.0,8.0,0.0,0.0,,0.25,1006.7737470000001,LIFR,FG,"[{""cover"": ""OVC"", ""base_ft_agl"": 100.0}]",METAR KFBL 131055Z AUTO 00000KT 1/4SM FG OVC001 08/08 A2973 RMK AO2
KFBR,2026-04-13 10:55:00+00:00,2026-04-13 10:55:00+00:00,0.0,-0.2,270.0,9.0,16.0,10.0,1015.917,VFR,,"[{""cover"": ""SCT"", ""base_ft_agl"": 800.0}, {""cover"": ""BKN"", ""base_ft_agl"": 4200.0}, {""cover"": ""OVC"", ""base_ft_agl"": 5000.0}]",METAR KFBR 131055Z AUTO 27009G16KT 10SM SCT008 BKN042 OVC050 00/00 A3000 RMK AO2 T00001002
KFCH,2026-04-13 10:55:00+00:00,2026-04-13 10:55:00+00:00,11.0,9.0,330.0,6.0,,10.0,1017.6101950000001,VFR,,"[{""cover"": ""OVC"", ""base_ft_agl"": 9000.0}]",METAR KFCH 131055Z AUTO 33006KT 10SM OVC090 11/09 A3005 RMK A01
KFCI,2026-04-13 10:56:00+00:00,2026-04-13 10:56:00+00:00,16.1,15.0,200.0,6.0,,10.0,1025.060253,VFR,,,METAR KFCI 131056Z AUTO 20006KT 10SM CLR 16/15 A3027 RMK AO2 SLP261 T01610150 $
KFCM,2026-04-13 10:53:00+00:00,2026-04-13 10:53:00+00:00,12.2,9.4,30.0,7.0,,10.0,1006.0964690000001,VFR,,,METAR KFCM 131053Z 03007KT 10SM CLR 12/09 A2971 RMK AO2 SLP059 T01220094
KFCS,2026-04-13 10:55:00+00:00,2026-04-13 10:55:00+00:00,12.4,-12.0,90.0,3.0,,10.0,1011.853332,VFR,,,METAR KFCS 131055Z AUTO 09003KT 10SM CLR 12/M12 A2988 RMK AO2 SLP071 T01241120 $
KFDK,2026-04-13 10:47:00+00:00,2026-04-13 10:47:00+00:00,12.0,10.0,0.0,0.0,,10.0,1020.996585,VFR,,,METAR KFDK 131047Z 00000KT 10SM CLR 12/10 A3015
KFDW,2026-04-13 10:55:00+00:00,2026-04-13 10:55:00+00:00,14.0,13.0,200.0,4.0,,10.0,1027.430726,VFR,,,METAR KFDW 131055Z AUTO 20004KT 10SM CLR 14/13 A3034 RMK AO1
KFDY,2026-04-13 10:53:00+00:00,2026-04-13 10:53:00+00:00,19.4,12.8,230.0,15.0,30.0,10.0,1013.546527,VFR,,"[{""cover"": ""SCT"", ""base_ft_agl"": 10000.0}]",METAR KFDY 131053Z AUTO 23015G30KT 10SM SCT100 19/13 A2993 RMK AO2 PK WND 23036/1019 SLP126 T01940128
KFEP,2026-04-13 10:55:00+00:00,2026-04-13 10:55:00+00:00,17.5,16.6,250.0,7.0,,7.0,1011.176054,IFR,,"[{""cover"": ""OVC"", ""base_ft_agl"": 500.0}]",METAR KFEP 131055Z AUTO 25007KT 7SM OVC005 18/17 A2986 RMK AO2 T01750166
KFET,2026-04-13 10:55:00+00:00,2026-04-13 10:55:00+00:00,15.8,15.0,100.0,4.0,,10.0,1005.080552,MVFR,,"[{""cover"": ""OVC"", ""base_ft_agl"": 1700.0}]",METAR KFET 131055Z AUTO 10004KT 10SM OVC017 16/15 A2968 RMK AO2 T01580150
KFFA,2026-04-13 10:55:00+00:00,2026-04-13 10:55:00+00:00,16.1,15.1,190.0,4.0,,10.0,1027.092087,VFR,,,METAR KFFA 131055Z AUTO 19004KT 10SM CLR 16/15 A3033 RMK AO2 T01610151
KFFC,2026-04-13 10:53:00+00:00,2026-04-13 10:53:00+00:00,10.6,10.0,0.0,0.0,,7.0,1026.753448,VFR,,,METAR KFFC 131053Z AUTO 00000KT 7SM CLR 11/10 A3032 RMK AO2 SLP264 T01060100
KFFL,2026-04-13 10:55:00+00:00,2026-04-13 10:55:00+00:00,18.0,18.0,220.0,10.0,16.0,10.0,1010.498776,VFR,,"[{""cover"": ""SCT"", ""base_ft_agl"": 1700.0}]",METAR KFFL 131055Z AUTO 22010G16KT 10SM SCT017 18/18 A2984 RMK A01
KFFM,2026-04-13 10:55:00+00:00,2026-04-13 10:55:00+00:00,7.0,6.0,10.0,7.0,14.0,10.0,1008.805581,IFR,,"[{""cover"": ""OVC"", ""base_ft_agl"": 600.0}]",METAR KFFM 131055Z AUTO 01007G14KT 10SM OVC006 07/06 A2979 RMK AO2
KFFT,2026-04-13 10:53:00+00:00,2026-04-13 10:53:00+00:00,,,,,,,1019.30339,,,,METAR KFFT 131053Z AUTO A3010 RMK AO2 SLPNO PWINO FZRANO PNO $
KFFX,2026-04-13 10:55:00+00:00,2026-04-13 10:55:00+00:00,13.0,13.0,220.0,12.0,,9.0,1008.466942,LIFR,,"[{""cover"": ""OVC"", ""base_ft_agl"": 200.0}]",METAR KFFX 131055Z AUTO 22012KT 9SM OVC002 13/13 A2978 RMK AO2
KFFZ,2026-04-13 10:54:00+00:00,2026-04-13 10:54:00+00:00,18.3,5.6,110.0,5.0,,10.0,1013.885166,VFR,,"[{""cover"": ""BKN"", ""base_ft_agl"": 5500.0}]",METAR KFFZ 131054Z AUTO 11005KT 10SM BKN055 18/06 A2994 RMK AO2 SLP120 T01830056
KFGN,2026-04-13 10:55:00+00:00,2026-04-13 10:55:00+00:00,0.0,-1.0,330.0,10.0,,10.0,1009.821498,IFR,,"[{""cover"": ""BKN"", ""base_ft_agl"": 700.0}, {""cover"": ""BKN"", ""base_ft_agl"": 1100.0}, {""cover"": ""OVC"", ""base_ft_agl"": 1700.0}]",METAR KFGN 131055Z AUTO 33010KT 10SM BKN007 BKN011 OVC017 00/M01 A2982 RMK AO2
KFGX,2026-04-13 10:55:00+00:00,2026-04-13 10:55:00+00:00,20.3,9.9,250.0,9.0,15.0,10.0,1019.980668,VFR,,"[{""cover"": ""SCT"", ""base_ft_agl"": 6000.0}, {""cover"": ""OVC"", ""base_ft_agl"": 11000.0}]",METAR KFGX 131055Z AUTO 25009G15KT 220V320 10SM SCT060 OVC110 20/10 A3012 RMK AO2 T02030099
KFHB,2026-04-13 10:55:00+00:00,2026-04-13 10:55:00+00:00,16.0,14.0,0.0,0.0,,10.0,1026.753448,VFR,,,METAR KFHB 131055Z AUTO 00000KT 10SM CLR 16/14 A3032 RMK AO2
KFHM,2026-04-13 11:05:00+00:00,2026-04-13 11:05:00+00:00,13.0,9.0,320.0,1.0,,,,,,,METAR KFHM 131105Z 32001KT 13/09 
KFHR,2026-04-13 10:53:00+00:00,2026-04-13 10:53:00+00:00,10.0,4.4,260.0,7.0,,10.0,1012.1919710000001,VFR,,"[{""cover"": ""SCT"", ""base_ft_agl"": 6000.0}, {""cover"": ""BKN"", ""base_ft_agl"": 7500.0}, {""cover"": ""OVC"", ""base_ft_agl"": 11000.0}]",METAR KFHR 131053Z AUTO 26007KT 230V290 10SM SCT060 BKN075 OVC110 10/04 A2989 RMK AO2 SLP120 T01000044
KFHU,2026-04-13 10:55:00+00:00,2026-04-13 10:55:00+00:00,17.4,0.5,180.0,9.0,15.0,10.0,1018.964751,VFR,,"[{""cover"": ""OVC"", ""base_ft_agl"": 12000.0}]",METAR KFHU 131055Z AUTO 18009G15KT 10SM OVC120 17/01 A3009 RMK AO2 SLP139 T01740005
KFIG,2026-04-13 10:54:00+00:00,2026-04-13 10:54:00+00:00,11.1,7.8,0.0,0.0,,10.0,1016.9329170000001,VFR,,,METAR KFIG 131054Z AUTO 00000KT 10SM CLR 11/08 A3003 RMK AO2 SLP165 T01110078
KFIN,2026-04-13 10:55:00+00:00,2026-04-13 10:55:00+00:00,13.5,12.9,0.0,0.0,,10.0,1026.07617,VFR,,"[{""cover"": ""SCT"", ""base_ft_agl"": 3500.0}]",METAR KFIN 131055Z AUTO 00000KT 10SM SCT035 14/13 A3030 RMK AO2 T01350129
KFIT,2026-04-13 10:52:00+00:00,2026-04-13 10:52:00+00:00,11.1,5.6,170.0,7.0,,10.0,1018.964751,MVFR,,"[{""cover"": ""OVC"", ""base_ft_agl"": 2200.0}]",METAR KFIT 131052Z AUTO 17007KT 10SM OVC022 11/06 A3009 RMK AO2 SLP192 T01110056
KFKA,2026-04-13 10:55:00+00:00,2026-04-13 10:55:00+00:00,12.0,12.0,170.0,6.0,,0.25,1007.4510250000001,LIFR,FG,"[{""cover"": ""OVC"", ""base_ft_agl"": 100.0}]",METAR KFKA 131055Z AUTO 17006KT M1/4SM FG OVC001 12/12 A2975 RMK AO2
KFKL,2026-04-13 10:56:00+00:00,2026-04-13 10:56:00+00:00,20.0,7.8,230.0,10.0,19.0,10.0,1015.239722,VFR,-RA,"[{""cover"": ""BKN"", ""base_ft_agl"": 6000.0}, {""cover"": ""OVC"", ""base_ft_agl"": 8500.0}]",METAR KFKL 131056Z AUTO 23010G19KT 10SM -RA BKN060 OVC085 20/08 A2998 RMK AO2 RAB30 SLP142 P0000 T02000078
KFKN,2026-04-13 10:55:00+00:00,2026-04-13 10:55:00+00:00,14.7,12.8,180.0,5.0,,10.0,1026.753448,VFR,,,METAR KFKN 131055Z AUTO 18005KT 10SM CLR 15/13 A3032 RMK AO2 T01470128
KFKR,2026-04-13 10:55:00+00:00,2026-04-13 10:55:00+00:00,19.0,15.0,210.0,11.0,,10.0,1014.562444,VFR,,"[{""cover"": ""SCT"", ""base_ft_agl"": 3200.0}, {""cover"": ""BKN"", ""base_ft_agl"": 4800.0}, {""cover"": ""OVC"", ""base_ft_agl"": 7000.0}]",METAR KFKR 131055Z AUTO 21011KT 10SM SCT032 BKN048 OVC070 19/15 A2996 RMK AO2
KFKS,2026-04-13 10:55:00+00:00,2026-04-13 10:55:00+00:00,12.0,12.0,220.0,10.0,19.0,10.0,1006.0964690000001,LIFR,,"[{""cover"": ""OVC"", ""base_ft_agl"": 300.0}]",METAR KFKS 131055Z AUTO 22010G19KT 10SM OVC003 12/12 A2971 RMK AO2
KFLD,2026-04-13 10:53:00+00:00,2026-04-13 10:53:00+00:00,15.6,14.4,220.0,7.0,,10.0,1007.4510250000001,MVFR,,"[{""cover"": ""FEW"", ""base_ft_agl"": 1500.0}, {""cover"": ""BKN"", ""base_ft_agl"": 2200.0}]",METAR KFLD 131053Z AUTO 22007KT 10SM FEW015 BKN022 16/14 A2975 RMK AO2 SLP074 T01560144 $
KFLG,2026-04-13 10:57:00+00:00,2026-04-13 10:57:00+00:00,3.9,0.0,240.0,11.0,22.0,10.0,1017.6101950000001,VFR,,,METAR KFLG 131057Z AUTO 24011G22KT 10SM CLR 04/00 A3005 RMK AO2 SLP116 T00390000 $
KFLL,2026-04-13 10:53:00+00:00,2026-04-13 10:53:00+00:00,22.8,12.8,90.0,14.0,,10.0,1023.367058,VFR,,"[{""cover"": ""BKN"", ""base_ft_agl"": 4500.0}]",METAR KFLL 131053Z 09014KT 10SM BKN045 23/13 A3022 RMK AO2 SLP232 T02280128 $
KFLO,2026-04-13 10:59:00+00:00,2026-04-13 10:59:00+00:00,12.2,11.7,150.0,4.0,,4.0,1027.430726,MVFR,BR,"[{""cover"": ""FEW"", ""base_ft_agl"": 300.0}]",SPECI KFLO 131059Z 15004KT 4SM BR FEW003 12/12 A3034 RMK AO2 T01220117
KFLY,2026-04-13 10:55:00+00:00,2026-04-13 10:55:00+00:00,8.1,-11.5,300.0,6.0,,10.0,1013.546527,VFR,,,METAR KFLY 131055Z AUTO 30006KT 10SM CLR 08/M11 A2993 RMK AO2 T00811115
KFME,2026-04-13 10:55:00+00:00,2026-04-13 10:55:00+00:00,11.0,10.0,230.0,5.0,,10.0,1022.012502,VFR,,,METAR KFME 131055Z AUTO 23005KT 10SM CLR 11/10 A3018 RMK AO1
KFMH,2026-04-13 10:56:00+00:00,2026-04-13 10:56:00+00:00,10.0,6.0,190.0,17.0,,10.0,1023.367058,MVFR,,"[{""cover"": ""OVC"", ""base_ft_agl"": 2700.0}]",METAR KFMH 131056Z 19017KT 10SM OVC027 10/06 A3022
KFMM,2026-04-13 10:55:00+00:00,2026-04-13 10:55:00+00:00,7.0,-6.0,200.0,6.0,,10.0,1008.805581,VFR,,,METAR KFMM 131055Z AUTO 20006KT 10SM CLR 07/M06 A2979 RMK AO2
KFMN,2026-04-13 10:53:00+00:00,2026-04-13 10:53:00+00:00,10.6,-3.9,140.0,4.0,,10.0,1016.594278,VFR,,,METAR KFMN 131053Z AUTO 14004KT 10SM CLR 11/M04 A3002 RMK AO2 SLP129 T01061039
KFMY,2026-04-13 10:53:00+00:00,2026-04-13 10:53:00+00:00,16.7,13.9,80.0,3.0,,10.0,1024.382975,VFR,,"[{""cover"": ""BKN"", ""base_ft_agl"": 4100.0}]",METAR KFMY 131053Z 08003KT 10SM BKN041 17/14 A3025 RMK AO2 SLP244 T01670139 $
KFNB,2026-04-13 10:53:00+00:00,2026-04-13 10:53:00+00:00,19.4,17.8,160.0,6.0,,10.0,1007.112386,VFR,,"[{""cover"": ""FEW"", ""base_ft_agl"": 2000.0}]",METAR KFNB 131053Z AUTO 16006KT 10SM FEW020 19/18 A2974 RMK AO2 SLP062 T01940178
KFNL,2026-04-13 10:56:00+00:00,2026-04-13 10:56:00+00:00,14.4,-9.4,280.0,5.0,,10.0,1009.14422,VFR,,,METAR KFNL 131056Z AUTO 28005KT 10SM CLR 14/M09 A2980 RMK AO2 SLP029 T01441094 $
KFNT,2026-04-13 10:53:00+00:00,2026-04-13 10:53:00+00:00,16.1,14.4,260.0,13.0,28.0,10.0,1009.482859,MVFR,,"[{""cover"": ""OVC"", ""base_ft_agl"": 1200.0}]",METAR KFNT 131053Z AUTO 26013G28KT 10SM OVC012 16/14 A2981 RMK AO2 PK WND 24028/1047 RAE28 SLP091 P0001 T01610144
KFOA,2026-04-13 10:55:00+00:00,2026-04-13 10:55:00+00:00,21.0,16.0,210.0,9.0,,10.0,1016.9329170000001,VFR,,"[{""cover"": ""BKN"", ""base_ft_agl"": 3700.0}]",METAR KFOA 131055Z AUTO 21009KT 10SM BKN037 21/16 A3003 RMK AO2
KFOD,2026-04-13 10:56:00+00:00,2026-04-13 10:56:00+00:00,13.3,13.3,0.0,0.0,,0.5,1007.7896640000001,LIFR,FG,,METAR KFOD 131056Z AUTO 00000KT 1/2SM FG CLR 13/13 A2976 RMK AO2 SLP086 T01330133 $
KFOE,2026-04-13 11:01:00+00:00,2026-04-13 11:01:00+00:00,20.0,17.8,190.0,15.0,25.0,10.0,1008.466942,VFR,,"[{""cover"": ""SCT"", ""base_ft_agl"": 1800.0}]",SPECI KFOE 131101Z 19015G25KT 10SM SCT018 20/18 A2978 RMK AO2 T02000178 $
KFOK,2026-04-13 10:53:00+00:00,2026-04-13 10:53:00+00:00,10.0,7.8,210.0,8.0,18.0,10.0,1022.68978,VFR,,"[{""cover"": ""OVC"", ""base_ft_agl"": 3200.0}]",METAR KFOK 131053Z 21008G18KT 10SM OVC032 10/08 A3020 RMK AO2 SLP228 T01000078 $
KFOM,2026-04-13 10:55:00+00:00,2026-04-13 10:55:00+00:00,7.0,0.0,60.0,3.0,,10.0,1015.578361,VFR,,"[{""cover"": ""FEW"", ""base_ft_agl"": 6500.0}, {""cover"": ""OVC"", ""base_ft_agl"": 7500.0}]",METAR KFOM 131055Z AUTO 06003KT 10SM FEW065 OVC075 07/M00 A2999 RMK AO2
KFOT,2026-04-13 10:40:00+00:00,2026-04-13 10:40:00+00:00,8.0,8.0,0.0,0.0,,0.5,1018.964751,LIFR,,"[{""cover"": ""BKN"", ""base_ft_agl"": 100.0}, {""cover"": ""OVC"", ""base_ft_agl"": 4400.0}]",METAR KFOT 131040Z AUTO 00000KT 1/2SM BKN001 OVC044 08/08 A3009 RMK AO1
KFOZ,2026-04-13 10:55:00+00:00,2026-04-13 10:55:00+00:00,4.0,4.0,320.0,5.0,,3.0,1008.128303,LIFR,BR,"[{""cover"": ""OVC"", ""base_ft_agl"": 300.0}]",METAR KFOZ 131055Z AUTO 32005KT 3SM BR OVC003 04/04 A2977 RMK AO2 T00400040
KFPK,2026-04-13 10:55:00+00:00,2026-04-13 10:55:00+00:00,16.0,15.0,250.0,10.0,,10.0,1010.498776,MVFR,,"[{""cover"": ""OVC"", ""base_ft_agl"": 1000.0}]",METAR KFPK 131055Z AUTO 25010KT 10SM OVC010 16/15 A2984 RMK AO2
KFPR,2026-04-13 10:53:00+00:00,2026-04-13 10:53:00+00:00,20.6,13.3,80.0,6.0,,10.0,1024.721614,VFR,,"[{""cover"": ""SCT"", ""base_ft_agl"": 4200.0}]",METAR KFPR 131053Z 08006KT 10SM SCT042 21/13 A3026 RMK AO2 SLP246 T02060133
KFPY,2026-04-13 10:55:00+00:00,2026-04-13 10:55:00+00:00,10.7,10.2,0.0,0.0,,10.0,1026.4148089999999,VFR,,,METAR KFPY 131055Z AUTO 00000KT 10SM CLR 11/10 A3031 RMK AO2 T01070102
KFRG,2026-04-13 10:53:00+00:00,2026-04-13 10:53:00+00:00,10.0,8.3,190.0,8.0,,8.0,1022.012502,VFR,,"[{""cover"": ""FEW"", ""base_ft_agl"": 700.0}]",METAR KFRG 131053Z 19008KT 8SM FEW007 10/08 A3018 RMK AO2 SLP220 T01000083
KFRH,2026-04-13 10:55:00+00:00,2026-04-13 10:55:00+00:00,21.0,11.0,230.0,5.0,,10.0,1018.6261119999999,VFR,,"[{""cover"": ""SCT"", ""base_ft_agl"": 3800.0}, {""cover"": ""OVC"", ""base_ft_agl"": 5000.0}]",METAR KFRH 131055Z AUTO 23005KT 10SM SCT038 OVC050 21/11 A3008 RMK AO1
KFRM,2026-04-13 10:56:00+00:00,2026-04-13 10:56:00+00:00,13.3,12.2,0.0,0.0,,10.0,1006.7737470000001,VFR,,,METAR KFRM 131056Z AUTO 00000KT 10SM CLR 13/12 A2973 RMK AO2 SLP066 T01330122
KFRR,2026-04-13 10:55:00+00:00,2026-04-13 10:55:00+00:00,20.3,10.6,200.0,6.0,,10.0,1020.319307,VFR,,,METAR KFRR 131055Z AUTO 20006KT 10SM CLR 20/11 A3013 RMK AO2 T02030106
KFSD,2026-04-13 10:56:00+00:00,2026-04-13 10:56:00+00:00,10.6,6.1,340.0,3.0,,10.0,1006.435108,VFR,-RA,"[{""cover"": ""BKN"", ""base_ft_agl"": 13000.0}]",METAR KFSD 131056Z 34003KT 10SM -RA BKN130 11/06 A2972 RMK AO2 RAB52 SLP060 P0000 T01060061
KFSE,2026-04-13 10:55:00+00:00,2026-04-13 10:55:00+00:00,2.0,2.0,350.0,9.0,,1.25,1009.821498,LIFR,BR,"[{""cover"": ""OVC"", ""base_ft_agl"": 300.0}]",METAR KFSE 131055Z AUTO 35009KT 1 1/4SM BR OVC003 02/02 A2982 RMK AO2
KFSI,2026-04-13 10:55:00+00:00,2026-04-13 10:55:00+00:00,19.9,18.2,180.0,4.0,,10.0,1012.53061,MVFR,,"[{""cover"": ""BKN"", ""base_ft_agl"": 1600.0}]",METAR KFSI 131055Z AUTO 18004KT 10SM BKN016 20/18 A2990 RMK AO2 SLP114 T01990182 $
KFSK,2026-04-13 10:55:00+00:00,2026-04-13 10:55:00+00:00,20.6,18.3,190.0,13.0,19.0,10.0,1011.853332,MVFR,,"[{""cover"": ""OVC"", ""base_ft_agl"": 2300.0}]",METAR KFSK 131055Z AUTO 19013G19KT 10SM OVC023 21/18 A2988 RMK AO2 T02060183
KFSM,2026-04-13 10:53:00+00:00,2026-04-13 10:53:00+00:00,22.8,18.3,210.0,7.0,,10.0,1016.594278,VFR,,"[{""cover"": ""FEW"", ""base_ft_agl"": 2700.0}, {""cover"": ""OVC"", ""base_ft_agl"": 3300.0}]",METAR KFSM 131053Z 21007KT 10SM FEW027 OVC033 23/18 A3002 RMK AO2 SLP162 T02280183
KFSO,2026-04-13 10:55:00+00:00,2026-04-13 10:55:00+00:00,11.1,3.5,170.0,12.0,22.0,10.0,1010.498776,VFR,,"[{""cover"": ""SCT"", ""base_ft_agl"": 7000.0}, {""cover"": ""OVC"", ""base_ft_agl"": 9000.0}]",METAR KFSO 131055Z AUTO 17012G22KT 10SM SCT070 OVC090 11/04 A2984 RMK AO2 T01110035
KFST,2026-04-13 10:53:00+00:00,2026-04-13 10:53:00+00:00,18.3,15.0,190.0,8.0,,10.0,1017.6101950000001,VFR,,,METAR KFST 131053Z AUTO 19008KT 10SM CLR 18/15 A3005 RMK AO2 SLP131 T01830150 TSNO
KFSW,2026-04-13 10:55:00+00:00,2026-04-13 10:55:00+00:00,18.0,16.0,190.0,10.0,,10.0,1011.176054,VFR,,,METAR KFSW 131055Z AUTO 19010KT 10SM CLR 18/16 A2986 RMK AO2
KFTK,2026-04-13 09:55:00+00:00,2026-04-13 09:55:00+00:00,22.1,12.1,200.0,12.0,17.0,10.0,1018.6261119999999,VFR,,"[{""cover"": ""SCT"", ""base_ft_agl"": 6000.0}]",METAR KFTK 130955Z AUTO 20012G17KT 10SM SCT060 22/12 A3008 RMK AO2 SLP181 T02210121
KFTW,2026-04-13 10:53:00+00:00,2026-04-13 10:53:00+00:00,21.7,18.9,170.0,14.0,21.0,10.0,1015.917,MVFR,,"[{""cover"": ""OVC"", ""base_ft_agl"": 1100.0}]",METAR KFTW 131053Z 17014G21KT 10SM OVC011 22/19 A3000 RMK AO2 SLP152 T02170189 $
KFTY,2026-04-13 10:53:00+00:00,2026-04-13 10:53:00+00:00,12.2,10.0,0.0,0.0,,10.0,1026.4148089999999,VFR,,,METAR KFTY 131053Z 00000KT 10SM CLR 12/10 A3031 RMK AO2 SLP259 T01220100
KFUL,2026-04-13 10:53:00+00:00,2026-04-13 10:53:00+00:00,13.9,10.0,0.0,0.0,,10.0,1016.2556390000001,VFR,,"[{""cover"": ""FEW"", ""base_ft_agl"": 3400.0}, {""cover"": ""BKN"", ""base_ft_agl"": 4000.0}, {""cover"": ""BKN"", ""base_ft_agl"": 4800.0}]",METAR KFUL 131053Z AUTO 00000KT 10SM FEW034 BKN040 BKN048 14/10 A3001 RMK AO2 SLP162 T01390100
KFVE,2026-04-13 10:53:00+00:00,2026-04-13 10:53:00+00:00,2.8,-1.1,150.0,14.0,,10.0,1012.8692490000001,MVFR,,"[{""cover"": ""BKN"", ""base_ft_agl"": 2500.0}, {""cover"": ""OVC"", ""base_ft_agl"": 4500.0}]",METAR KFVE 131053Z AUTO 15014KT 10SM BKN025 OVC045 03/M01 A2991 RMK AO2 SLP134 T00281011
KFVX,2026-04-13 10:55:00+00:00,2026-04-13 10:55:00+00:00,18.5,15.8,210.0,5.0,,10.0,1024.382975,VFR,,,METAR KFVX 131055Z AUTO 21005KT 10SM CLR 19/16 A3025 RMK AO2 T01850158
KFWA,2026-04-13 10:54:00+00:00,2026-04-13 10:54:00+00:00,19.4,13.3,230.0,18.0,26.0,10.0,1013.546527,VFR,,"[{""cover"": ""SCT"", ""base_ft_agl"": 3800.0}, {""cover"": ""BKN"", ""base_ft_agl"": 6000.0}]",METAR KFWA 131054Z 23018G26KT 10SM SCT038 BKN060 19/13 A2993 RMK AO2 PK WND 22029/1004 SLP131 T01940133
KFWB,2026-04-13 10:55:00+00:00,2026-04-13 10:55:00+00:00,21.0,17.0,210.0,7.0,16.0,9.0,1015.578361,VFR,,,METAR KFWB 131055Z AUTO 21007G16KT 9SM 21/17 A2999 RMK AO2 TSNO
KFWC,2026-04-13 10:55:00+00:00,2026-04-13 10:55:00+00:00,21.5,15.2,200.0,6.0,,10.0,1016.9329170000001,VFR,,"[{""cover"": ""OVC"", ""base_ft_agl"": 4000.0}]",METAR KFWC 131055Z AUTO 20006KT 10SM OVC040 22/15 A3003 RMK AO2 T02150152
KFWN,2026-04-13 10:53:00+00:00,2026-04-13 10:53:00+00:00,10.6,5.0,0.0,3.0,,10.0,1020.657946,MVFR,,"[{""cover"": ""OVC"", ""base_ft_agl"": 1400.0}]",METAR KFWN 131053Z AUTO VRB03KT 10SM OVC014 11/05 A3014 RMK AO2 SLP206 T01060050
KFWS,2026-04-13 10:55:00+00:00,2026-04-13 10:55:00+00:00,20.9,20.4,180.0,11.0,,10.0,1016.9329170000001,IFR,,"[{""cover"": ""BKN"", ""base_ft_agl"": 700.0}, {""cover"": ""OVC"", ""base_ft_agl"": 1200.0}]",METAR KFWS 131055Z AUTO 18011KT 10SM BKN007 OVC012 21/20 A3003 RMK AO2 CIG 006V010 BKN V OVC T02090204 $
KFXE,2026-04-13 10:53:00+00:00,2026-04-13 10:53:00+00:00,22.2,15.0,70.0,12.0,20.0,10.0,1023.7056970000001,VFR,,"[{""cover"": ""BKN"", ""base_ft_agl"": 4500.0}]",METAR KFXE 131053Z 07012G20KT 10SM BKN045 22/15 A3023 RMK AO2 SLP239 T02220150 $
KFXY,2026-04-13 10:55:00+00:00,2026-04-13 10:55:00+00:00,12.0,12.0,160.0,4.0,,0.25,1007.4510250000001,LIFR,FG,"[{""cover"": ""OVC"", ""base_ft_agl"": 200.0}]",METAR KFXY 131055Z AUTO 16004KT 1/4SM FG OVC002 12/12 A2975 RMK AO2
KFYE,2026-04-13 10:55:00+00:00,2026-04-13 10:55:00+00:00,21.0,15.0,160.0,6.0,,10.0,1020.319307,VFR,,"[{""cover"": ""FEW"", ""base_ft_agl"": 8000.0}, {""cover"": ""OVC"", ""base_ft_agl"": 11000.0}]",METAR KFYE 131055Z AUTO 16006KT 10SM FEW080 OVC110 21/15 A3013 RMK A01
KFYG,2026-04-13 10:55:00+00:00,2026-04-13 10:55:00+00:00,21.0,18.0,0.0,0.0,,7.0,1014.562444,VFR,,"[{""cover"": ""BKN"", ""base_ft_agl"": 4000.0}, {""cover"": ""BKN"", ""base_ft_agl"": 5000.0}, {""cover"": ""BKN"", ""base_ft_agl"": 6000.0}]",METAR KFYG 131055Z AUTO 00000KT 7SM BKN040 BKN050 BKN060 21/18 A2996 RMK AO2
KFYJ,2026-04-13 10:55:00+00:00,2026-04-13 10:55:00+00:00,16.6,14.3,210.0,8.0,16.0,10.0,1025.3988920000002,VFR,,,METAR KFYJ 131055Z AUTO 21008G16KT 180V240 10SM CLR 17/14 A3028 RMK AO1 T01660143
KFYM,2026-04-13 10:55:00+00:00,2026-04-13 10:55:00+00:00,18.0,12.0,190.0,6.0,,10.0,1024.721614,VFR,,,METAR KFYM 131055Z AUTO 19006KT 10SM 18/12 A3026 RMK A01
KFYV,2026-04-13 10:53:00+00:00,2026-04-13 10:53:00+00:00,21.1,17.2,190.0,13.0,19.0,10.0,1016.2556390000001,MVFR,,"[{""cover"": ""OVC"", ""base_ft_agl"": 2500.0}]",METAR KFYV 131053Z AUTO 19013G19KT 10SM OVC025 21/17 A3001 RMK AO2 SLP150 T02110172
KFZG,2026-04-13 10:55:00+00:00,2026-04-13 10:55:00+00:00,13.3,12.2,0.0,0.0,,10.0,1027.092087,VFR,,,METAR KFZG 131055Z AUTO 00000KT 10SM CLR 13/12 A3033 RMK AO2 T01330122
KFZY,2026-04-13 10:54:00+00:00,2026-04-13 10:54:00+00:00,15.6,6.7,190.0,9.0,19.0,10.0,1012.1919710000001,VFR,,,METAR KFZY 131054Z AUTO 19009G19KT 10SM CLR 16/07 A2989 RMK AO2 SLP123 T01560067
KGAD,2026-04-13 10:56:00+00:00,2026-04-13 10:56:00+00:00,10.6,10.0,0.0,0.0,,,1026.07617,,,,METAR KGAD 131056Z AUTO 00000KT CLR 11/10 A3030 RMK AO2 SLP260 T01060100 PWINO $
KGAF,2026-04-13 10:55:00+00:00,2026-04-13 10:55:00+00:00,2.0,2.0,340.0,6.0,,10.0,1011.853332,IFR,,"[{""cover"": ""OVC"", ""base_ft_agl"": 900.0}]",METAR KGAF 131055Z AUTO 34006KT 10SM OVC009 02/02 A2988 RMK AO2 PWINO
KGAG,2026-04-13 10:53:00+00:00,2026-04-13 10:53:00+00:00,18.3,14.4,180.0,20.0,28.0,10.0,1009.821498,VFR,,,METAR KGAG 131053Z AUTO 18020G28KT 10SM CLR 18/14 A2982 RMK AO2 PK WND 18030/1040 SLP071 T01830144 $
KGAI,2026-04-13 10:56:00+00:00,2026-04-13 10:56:00+00:00,16.7,16.1,0.0,6.0,,10.0,1021.6738630000001,VFR,,,METAR KGAI 131056Z AUTO VRB06KT 10SM CLR 17/16 A3017 RMK AO2 SLP227 T01670161
KGAO,2026-04-13 10:55:00+00:00,2026-04-13 10:55:00+00:00,21.2,18.0,140.0,5.0,,10.0,1022.3511410000001,VFR,,,METAR KGAO 131055Z AUTO 14005KT 10SM CLR 21/18 A3019 RMK AO2 T02120180
KGBD,2026-04-13 10:56:00+00:00,2026-04-13 10:56:00+00:00,18.3,15.6,200.0,13.0,,10.0,1007.4510250000001,VFR,,,METAR KGBD 131056Z AUTO 20013KT 10SM CLR 18/16 A2975 RMK AO2 SLP055 T01830156 $
KGBG,2026-04-13 10:55:00+00:00,2026-04-13 10:55:00+00:00,16.2,16.2,200.0,7.0,,10.0,1012.53061,VFR,,"[{""cover"": ""SCT"", ""base_ft_agl"": 2200.0}, {""cover"": ""SCT"", ""base_ft_agl"": 2700.0}]",METAR KGBG 131055Z AUTO 20007KT 10SM SCT022 SCT027 16/16 A2990 RMK AO2 T01620162
KGCC,2026-04-13 10:53:00+00:00,2026-04-13 10:53:00+00:00,3.9,2.2,0.0,0.0,,10.0,1006.7737470000001,VFR,,"[{""cover"": ""BKN"", ""base_ft_agl"": 11000.0}]",METAR KGCC 131053Z AUTO 00000KT 10SM BKN110 04/02 A2973 RMK AO2 SLP048 T00390022 $
KGCD,2026-04-13 10:50:00+00:00,2026-04-13 10:50:00+00:00,3.7,3.1,0.0,0.0,,10.0,1011.176054,MVFR,-RA,"[{""cover"": ""BKN"", ""base_ft_agl"": 1000.0}, {""cover"": ""BKN"", ""base_ft_agl"": 1400.0}, {""cover"": ""OVC"", ""base_ft_agl"": 2200.0}]",METAR KGCD 131050Z AUTO 00000KT 10SM -RA BKN010 BKN014 OVC022 04/03 A2986 RMK AO2 P0002 T00370031
KGCK,2026-04-13 10:54:00+00:00,2026-04-13 10:54:00+00:00,9.4,0.6,180.0,4.0,,10.0,1007.7896640000001,VFR,,,METAR KGCK 131054Z AUTO 18004KT 10SM CLR 09/01 A2976 RMK AO2 SLP052 T00940006 $
KGCM,2026-04-13 10:55:00+00:00,2026-04-13 10:55:00+00:00,22.0,22.0,180.0,15.0,23.0,10.0,1013.546527,MVFR,,"[{""cover"": ""OVC"", ""base_ft_agl"": 2100.0}]",METAR KGCM 131055Z AUTO 18015G23KT 10SM OVC021 22/22 A2993 RMK AO2
KGCN,2026-04-13 10:54:00+00:00,2026-04-13 10:54:00+00:00,2.8,-3.9,250.0,3.0,,10.0,1017.6101950000001,VFR,,"[{""cover"": ""SCT"", ""base_ft_agl"": 4500.0}]",METAR KGCN 131054Z AUTO 25003KT 10SM SCT045 03/M04 A3005 RMK AO2 SLP126 T00281039
KGCY,2026-04-13 10:55:00+00:00,2026-04-13 10:55:00+00:00,18.0,6.0,0.0,4.0,,10.0,1024.382975,VFR,,,METAR KGCY 131055Z AUTO VRB04KT 10SM CLR 18/06 A3025 RMK A01
KGDA,2026-04-13 10:55:00+00:00,2026-04-13 10:55:00+00:00,20.5,12.0,220.0,4.0,,10.0,1019.30339,VFR,,,METAR KGDA 131055Z AUTO 22004KT 10SM CLR 21/12 A3010 RMK AO2 T02050120
KGDB,2026-04-13 10:55:00+00:00,2026-04-13 10:55:00+00:00,10.3,9.3,330.0,7.0,,0.5,1008.128303,LIFR,FG,"[{""cover"": ""OVC"", ""base_ft_agl"": 200.0}]",METAR KGDB 131055Z AUTO 33007KT 1/2SM FG OVC002 10/09 A2977 RMK AO2 T01030093
KGDJ,2026-04-13 10:55:00+00:00,2026-04-13 10:55:00+00:00,21.0,20.0,160.0,9.0,,7.0,1015.917,MVFR,BR,"[{""cover"": ""BKN"", ""base_ft_agl"": 1300.0}, {""cover"": ""OVC"", ""base_ft_agl"": 1800.0}]",METAR KGDJ 131055Z AUTO 16009KT 7SM BR BKN013 OVC018 21/20 A3000 RMK AO2
KGDK,2026-04-13 10:55:00+00:00,2026-04-13 10:55:00+00:00,20.0,12.0,230.0,11.0,,10.0,1016.9329170000001,VFR,,"[{""cover"": ""FEW"", ""base_ft_agl"": 4400.0}, {""cover"": ""FEW"", ""base_ft_agl"": 4900.0}, {""cover"": ""BKN"", ""base_ft_agl"": 6000.0}]",METAR KGDK 131055Z AUTO 23011KT 10SM FEW044 FEW049 BKN060 20/12 A3003 RMK AO2
KGDV,2026-04-13 10:56:00+00:00,2026-04-13 10:56:00+00:00,5.0,1.7,40.0,7.0,,10.0,1007.112386,IFR,,"[{""cover"": ""OVC"", ""base_ft_agl"": 900.0}]",METAR KGDV 131056Z AUTO 04007KT 10SM OVC009 05/02 A2974 RMK AO2 SLP072 T00500017 TSNO $
KGED,2026-04-13 10:54:00+00:00,2026-04-13 10:54:00+00:00,16.7,13.9,220.0,14.0,23.0,10.0,1023.0284190000001,VFR,,,METAR KGED 131054Z AUTO 22014G23KT 10SM CLR 17/14 A3021 RMK AO2 SLP230 T01670139 $
KGEG,2026-04-13 10:53:00+00:00,2026-04-13 10:53:00+00:00,8.9,7.8,210.0,9.0,,8.0,1006.0964690000001,MVFR,-RA,"[{""cover"": ""FEW"", ""base_ft_agl"": 900.0}, {""cover"": ""BKN"", ""base_ft_agl"": 1200.0}, {""cover"": ""OVC"", ""base_ft_agl"": 5500.0}]",METAR KGEG 131053Z 21009KT 8SM -RA FEW009 BKN012 OVC055 09/08 A2971 RMK AO2 RAE16B48 SLP057 P0001 T00890078 $
KGEV,2026-04-13 10:55:00+00:00,2026-04-13 10:55:00+00:00,14.0,6.0,150.0,4.0,,10.0,1027.092087,VFR,,,METAR KGEV 131055Z AUTO 15004KT 10SM CLR 14/06 A3033 RMK AO2 T01400060
KGEY,2026-04-13 10:53:00+00:00,2026-04-13 10:53:00+00:00,5.6,1.7,130.0,4.0,,10.0,1007.112386,VFR,,"[{""cover"": ""OVC"", ""base_ft_agl"": 10000.0}]",METAR KGEY 131053Z AUTO 13004KT 10SM OVC100 06/02 A2974 RMK AO2 SLP057 T00560017 $
KGEZ,2026-04-13 10:53:00+00:00,2026-04-13 10:53:00+00:00,20.6,12.8,220.0,13.0,,10.0,1015.917,VFR,,"[{""cover"": ""BKN"", ""base_ft_agl"": 5500.0}]",METAR KGEZ 131053Z AUTO 22013KT 10SM BKN055 21/13 A3000 RMK AO2 SLP154 T02060128
KGFA,2026-04-13 09:55:00+00:00,2026-04-13 09:55:00+00:00,5.9,5.5,240.0,4.0,,7.0,1005.080552,VFR,,"[{""cover"": ""OVC"", ""base_ft_agl"": 7500.0}]",METAR KGFA 130955Z 24004KT 7SM OVC075 06/06 A2968 RMK AO2A SLP063 T00590055 $
KGFK,2026-04-13 10:53:00+00:00,2026-04-13 10:53:00+00:00,1.7,1.1,350.0,6.0,,1.5,1010.8374150000001,LIFR,BR,"[{""cover"": ""OVX"", ""base_ft_agl"": 300.0}]",METAR KGFK 131053Z 35006KT 1 1/2SM BR VV003 02/01 A2985 RMK AO2 SLP115 T00170011
KGFL,2026-04-13 10:53:00+00:00,2026-04-13 10:53:00+00:00,7.8,2.2,230.0,6.0,,10.0,1016.9329170000001,VFR,,,METAR KGFL 131053Z AUTO 23006KT 10SM CLR 08/02 A3003 RMK AO2 SLP172 T00780022
KGGE,2026-04-13 10:55:00+00:00,2026-04-13 10:55:00+00:00,11.0,11.0,0.0,0.0,,0.75,1027.769365,LIFR,BR,"[{""cover"": ""BKN"", ""base_ft_agl"": 200.0}]",METAR KGGE 131055Z AUTO 00000KT 3/4SM BR BKN002 11/11 A3035 RMK AO2
KGGF,2026-04-13 10:55:00+00:00,2026-04-13 10:55:00+00:00,8.0,0.0,320.0,10.0,,10.0,1004.403274,VFR,,,METAR KGGF 131055Z AUTO 32010KT 10SM CLR 08/00 A2966 RMK AO2
KGGG,2026-04-13 10:53:00+00:00,2026-04-13 10:53:00+00:00,21.1,18.3,180.0,14.0,26.0,10.0,1017.6101950000001,VFR,,"[{""cover"": ""FEW"", ""base_ft_agl"": 10000.0}, {""cover"": ""OVC"", ""base_ft_agl"": 12000.0}]",METAR KGGG 131053Z 18014G26KT 10SM FEW100 OVC120 21/18 A3005 RMK AO2 PK WND 20031/0956 RAB0958E36 SLP169 P0000 T02110183
KGGI,2026-04-13 10:55:00+00:00,2026-04-13 10:55:00+00:00,15.1,12.6,0.0,0.0,,10.0,1009.821498,VFR,,,METAR KGGI 131055Z AUTO 00000KT 10SM CLR 15/13 A2982 RMK AO2 T01510126
KGGP,2026-04-13 10:55:00+00:00,2026-04-13 10:55:00+00:00,19.0,14.0,230.0,14.0,,10.0,1014.223805,VFR,,"[{""cover"": ""SCT"", ""base_ft_agl"": 3300.0}, {""cover"": ""BKN"", ""base_ft_agl"": 3900.0}, {""cover"": ""OVC"", ""base_ft_agl"": 5000.0}]",METAR KGGP 131055Z AUTO 23014KT 10SM SCT033 BKN039 OVC050 19/14 A2995 RMK AO2
KGGW,2026-04-13 10:53:00+00:00,2026-04-13 10:53:00+00:00,3.9,0.0,110.0,12.0,,10.0,1007.112386,VFR,,"[{""cover"": ""BKN"", ""base_ft_agl"": 5500.0}, {""cover"": ""OVC"", ""base_ft_agl"": 7000.0}]",METAR KGGW 131053Z AUTO 11012KT 10SM BKN055 OVC070 04/00 A2974 RMK AO2 RAB22E37 SLP078 P0000 T00390000 TSNO 
KGHB,2026-04-13 10:55:00+00:00,2026-04-13 10:55:00+00:00,24.0,19.0,120.0,9.0,17.0,10.0,1020.657946,VFR,,,METAR KGHB 131055Z AUTO 12009G17KT 100V160 10SM CLR 24/19 A3014 RMK A01
KGHG,2026-04-13 10:55:00+00:00,2026-04-13 10:55:00+00:00,10.0,5.0,210.0,13.0,23.0,10.0,1020.996585,VFR,,"[{""cover"": ""OVC"", ""base_ft_agl"": 3600.0}]",METAR KGHG 131055Z AUTO 21013G23KT 10SM OVC036 10/05 A3015 RMK AO2
KGHW,2026-04-13 10:55:00+00:00,2026-04-13 10:55:00+00:00,7.9,7.9,50.0,8.0,,9.0,1008.128303,LIFR,,"[{""cover"": ""OVC"", ""base_ft_agl"": 300.0}]",METAR KGHW 131055Z AUTO 05008KT 9SM OVC003 08/08 A2977 RMK AO2 CIG 002V004 T00790079 $
KGIC,2026-04-13 09:40:00+00:00,2026-04-13 09:40:00+00:00,5.0,1.0,260.0,3.0,,10.0,1007.4510250000001,VFR,,"[{""cover"": ""SCT"", ""base_ft_agl"": 3000.0}, {""cover"": ""SCT"", ""base_ft_agl"": 3600.0}, {""cover"": ""OVC"", ""base_ft_agl"": 5000.0}]",METAR KGIC 130940Z AUTO 26003KT 10SM SCT030 SCT036 OVC050 05/01 A2975 RMK AO1
KGIF,2026-04-13 10:53:00+00:00,2026-04-13 10:53:00+00:00,16.7,13.3,80.0,6.0,,10.0,1025.3988920000002,VFR,,,METAR KGIF 131053Z AUTO 08006KT 10SM CLR 17/13 A3028 RMK AO1 SLP252 T01670133
KGJT,2026-04-13 10:53:00+00:00,2026-04-13 10:53:00+00:00,10.0,-11.1,290.0,9.0,,10.0,1013.546527,VFR,,,METAR KGJT 131053Z AUTO 29009KT 10SM CLR 10/M11 A2993 RMK AO2 SLP084 T01001111
KGKJ,2026-04-13 10:53:00+00:00,2026-04-13 10:53:00+00:00,16.7,10.0,220.0,9.0,20.0,7.0,1013.546527,VFR,-RA,"[{""cover"": ""OVC"", ""base_ft_agl"": 6000.0}]",METAR KGKJ 131053Z AUTO 22009G20KT 7SM -RA OVC060 17/10 A2993 RMK AO2 PK WND 24029/1010 SLP126 P0001 T01670100
KGKT,2026-04-13 10:55:00+00:00,2026-04-13 10:55:00+00:00,16.0,8.0,0.0,0.0,,10.0,1024.382975,VFR,,,METAR KGKT 131055Z AUTO 00000KT 10SM CLR 16/08 A3025 RMK A01
KGKY,2026-04-13 10:53:00+00:00,2026-04-13 10:53:00+00:00,21.7,20.0,150.0,12.0,,10.0,1016.594278,MVFR,,"[{""cover"": ""OVC"", ""base_ft_agl"": 1200.0}]",METAR KGKY 131053Z AUTO 15012KT 10SM OVC012 22/20 A3002 RMK AO2 RAE03 SLP159 P0000 T02170200 $
KGLD,2026-04-13 10:53:00+00:00,2026-04-13 10:53:00+00:00,12.8,-5.6,240.0,12.0,,10.0,1006.7737470000001,VFR,,,METAR KGLD 131053Z AUTO 24012KT 10SM CLR 13/M06 A2973 RMK AO2 SLP030 T01281056
KGLE,2026-04-13 10:55:00+00:00,2026-04-13 10:55:00+00:00,21.3,19.3,160.0,10.0,,10.0,1016.594278,MVFR,,"[{""cover"": ""OVC"", ""base_ft_agl"": 1400.0}]",METAR KGLE 131055Z AUTO 16010KT 10SM OVC014 21/19 A3002 RMK AO2 CIG 012V019 T02130193
KGLH,2026-04-13 10:53:00+00:00,2026-04-13 10:53:00+00:00,20.6,17.2,180.0,10.0,,10.0,1020.657946,VFR,,"[{""cover"": ""OVC"", ""base_ft_agl"": 11000.0}]",METAR KGLH 131053Z AUTO 18010KT 10SM OVC110 21/17 A3014 RMK AO2 SLP211 T02060172
KGLR,2026-04-13 10:53:00+00:00,2026-04-13 10:53:00+00:00,13.9,12.8,250.0,15.0,21.0,10.0,1004.7419130000001,IFR,,"[{""cover"": ""OVC"", ""base_ft_agl"": 800.0}]",METAR KGLR 131053Z AUTO 25015G21KT 10SM OVC008 14/13 A2967 RMK AO2 CIG 007V012 SLP046 T01390128
KGLS,2026-04-13 10:52:00+00:00,2026-04-13 10:52:00+00:00,22.8,21.1,150.0,11.0,,10.0,1019.642029,VFR,,"[{""cover"": ""BKN"", ""base_ft_agl"": 9000.0}]",METAR KGLS 131052Z 15011KT 10SM BKN090 23/21 A3011 RMK AO1 SLP196 T02280211
KGLW,2026-04-13 10:55:00+00:00,2026-04-13 10:55:00+00:00,19.1,13.7,180.0,5.0,,10.0,1021.335224,VFR,,"[{""cover"": ""BKN"", ""base_ft_agl"": 6000.0}, {""cover"": ""BKN"", ""base_ft_agl"": 7500.0}, {""cover"": ""OVC"", ""base_ft_agl"": 10000.0}]",METAR KGLW 131055Z AUTO 18005KT 10SM BKN060 BKN075 OVC100 19/14 A3016 RMK AO2 T01910137
KGLX,2026-04-13 10:55:00+00:00,2026-04-13 10:55:00+00:00,23.0,16.0,0.0,5.0,21.0,10.0,1023.0284190000001,VFR,,,METAR KGLX 131055Z AUTO VRB05G21KT 10SM CLR 23/16 A3021 RMK A01
KGLY,2026-04-13 10:55:00+00:00,2026-04-13 10:55:00+00:00,21.0,18.0,190.0,9.0,,10.0,1012.53061,MVFR,,"[{""cover"": ""OVC"", ""base_ft_agl"": 2400.0}]",METAR KGLY 131055Z AUTO 19009KT 10SM OVC024 21/18 A2990 RMK AO2
KGMJ,2026-04-13 10:55:00+00:00,2026-04-13 10:55:00+00:00,22.0,18.0,200.0,12.0,17.0,10.0,1014.223805,MVFR,,"[{""cover"": ""OVC"", ""base_ft_agl"": 2000.0}]",METAR KGMJ 131055Z AUTO 20012G17KT 10SM OVC020 22/18 A2995 RMK AO2
KGMU,2026-04-13 10:53:00+00:00,2026-04-13 10:53:00+00:00,15.6,10.6,210.0,4.0,,10.0,1027.769365,VFR,,,METAR KGMU 131053Z 21004KT 10SM CLR 16/11 A3035 RMK AO2 SLP268 T01560106
KGNA,2026-04-13 10:56:00+00:00,2026-04-13 10:56:00+00:00,5.6,4.4,0.0,0.0,,,1006.435108,,,,METAR KGNA 131056Z AUTO 00000KT 06/04 A2972 RMK AO1 SLP072 T00560044
KGNB,2026-04-13 10:55:00+00:00,2026-04-13 10:55:00+00:00,-2.3,-8.5,160.0,3.0,,10.0,1016.2556390000001,VFR,,"[{""cover"": ""SCT"", ""base_ft_agl"": 8500.0}]",METAR KGNB 131055Z AUTO 16003KT 10SM SCT085 M02/M08 A3001 RMK AO2 T10231085
KGNC,2026-04-13 10:55:00+00:00,2026-04-13 10:55:00+00:00,15.7,14.6,210.0,7.0,,10.0,1018.6261119999999,VFR,,,METAR KGNC 131055Z AUTO 21007KT 10SM CLR 16/15 A3008 RMK AO2 T01570146
KGNG,2026-04-13 10:55:00+00:00,2026-04-13 10:55:00+00:00,2.0,3.0,120.0,5.0,,10.0,1013.885166,VFR,,"[{""cover"": ""BKN"", ""base_ft_agl"": 6500.0}, {""cover"": ""OVC"", ""base_ft_agl"": 7500.0}]",METAR KGNG 131055Z AUTO 12005KT 10SM BKN065 OVC075 02/03 A2994 RMK AO2
KGNR,2026-04-13 10:56:00+00:00,2026-04-13 10:56:00+00:00,1.1,1.1,160.0,7.0,,,1014.562444,,,,METAR KGNR 131056Z AUTO 16007KT 01/01 A2996 RMK AO1 SLP159 P0014 T00110011
KGNT,2026-04-13 10:55:00+00:00,2026-04-13 10:55:00+00:00,3.0,-3.7,0.0,0.0,,10.0,1019.980668,VFR,,,METAR KGNT 131055Z AUTO 00000KT 10SM CLR 03/M04 A3012 RMK AO2 T00301037
KGNV,2026-04-13 10:53:00+00:00,2026-04-13 10:53:00+00:00,11.1,10.6,0.0,0.0,,10.0,1026.753448,VFR,,,METAR KGNV 131053Z 00000KT 10SM CLR 11/11 A3032 RMK AO2 SLP266 T01110106
KGOK,2026-04-13 10:53:00+00:00,2026-04-13 10:53:00+00:00,22.2,17.8,200.0,18.0,37.0,10.0,1011.853332,VFR,,,METAR KGOK 131053Z AUTO 20018G37KT 10SM CLR 22/18 A2988 RMK AO2 PK WND 21038/1010 SLP107 T02220178 $
KGON,2026-04-13 10:56:00+00:00,2026-04-13 10:56:00+00:00,7.8,5.6,170.0,5.0,,10.0,1022.68978,MVFR,,"[{""cover"": ""OVC"", ""base_ft_agl"": 2500.0}]",METAR KGON 131056Z 17005KT 10SM OVC025 08/06 A3020 RMK AO2 SLP226 T00780056
KGOO,2026-04-13 10:55:00+00:00,2026-04-13 10:55:00+00:00,3.0,3.0,110.0,4.0,,10.0,1016.9329170000001,MVFR,,"[{""cover"": ""OVC"", ""base_ft_agl"": 1500.0}]",METAR KGOO 131055Z AUTO 11004KT 10SM OVC015 03/03 A3003 RMK A01 P0001
KGOP,2026-04-13 10:55:00+00:00,2026-04-13 10:55:00+00:00,22.0,22.0,180.0,7.0,12.0,10.0,1017.271556,MVFR,,"[{""cover"": ""OVC"", ""base_ft_agl"": 1300.0}]",METAR KGOP 131055Z AUTO 18007G12KT 10SM OVC013 22/22 A3004 RMK AO2
KGOV,2026-04-13 10:55:00+00:00,2026-04-13 10:55:00+00:00,15.0,14.2,250.0,7.0,,10.0,1004.7419130000001,IFR,,"[{""cover"": ""OVC"", ""base_ft_agl"": 700.0}]",METAR KGOV 131055Z AUTO 25007KT 10SM OVC007 15/14 A2967 RMK AO2 SLP052 T01500142 $
KGPC,2026-04-13 10:55:00+00:00,2026-04-13 10:55:00+00:00,19.8,13.5,220.0,10.0,,10.0,1016.2556390000001,VFR,,"[{""cover"": ""SCT"", ""base_ft_agl"": 3700.0}, {""cover"": ""SCT"", ""base_ft_agl"": 4600.0}]",METAR KGPC 131055Z AUTO 22010KT 10SM SCT037 SCT046 20/14 A3001 RMK AO2 T01980135
KGPH,2026-04-13 10:15:00+00:00,2026-04-13 10:15:00+00:00,21.0,17.0,170.0,3.0,,10.0,1010.8374150000001,MVFR,,"[{""cover"": ""OVC"", ""base_ft_agl"": 2100.0}]",METAR KGPH 131015Z AUTO 17003KT 10SM OVC021 21/17 A2985 RMK AO2
KGPI,2026-04-13 10:55:00+00:00,2026-04-13 10:55:00+00:00,7.2,5.6,140.0,7.0,,10.0,1005.4191910000001,VFR,-RA,"[{""cover"": ""SCT"", ""base_ft_agl"": 3300.0}, {""cover"": ""OVC"", ""base_ft_agl"": 4700.0}]",METAR KGPI 131055Z AUTO 14007KT 10SM -RA SCT033 OVC047 07/06 A2969 RMK AO2 RAB37 SLP053 P0000 T00720056
KGPM,2026-04-13 10:55:00+00:00,2026-04-13 10:55:00+00:00,21.3,21.3,180.0,9.0,15.0,10.0,1017.271556,MVFR,,"[{""cover"": ""OVC"", ""base_ft_agl"": 1000.0}]",METAR KGPM 131055Z AUTO 18009G15KT 10SM OVC010 21/21 A3004 RMK AO2 T02130213
KGPT,2026-04-13 10:53:00+00:00,2026-04-13 10:53:00+00:00,20.6,17.2,150.0,8.0,,10.0,1022.3511410000001,VFR,,,METAR KGPT 131053Z AUTO 15008KT 10SM CLR 21/17 A3019 RMK AO2 SLP224 T02060172
KGPZ,2026-04-13 10:56:00+00:00,2026-04-13 10:56:00+00:00,5.6,5.0,350.0,5.0,,10.0,1008.805581,IFR,,"[{""cover"": ""OVC"", ""base_ft_agl"": 600.0}]",METAR KGPZ 131056Z AUTO 35005KT 10SM OVC006 06/05 A2979 RMK AO2 SLP094 T00560050
KGRB,2026-04-13 10:53:00+00:00,2026-04-13 10:53:00+00:00,14.4,13.3,200.0,4.0,,,1005.75783,,,,METAR KGRB 131053Z 20004KT CLR 14/13 A2970 RMK AO2 SLP057 T01440133 $
KGRD,2026-04-13 10:56:00+00:00,2026-04-13 10:56:00+00:00,13.9,12.2,210.0,3.0,,10.0,1027.769365,VFR,,,METAR KGRD 131056Z AUTO 21003KT 10SM CLR 14/12 A3035 RMK AO2 SLP272 T01390122
KGRF,2026-04-13 10:55:00+00:00,2026-04-13 10:55:00+00:00,9.2,6.8,160.0,7.0,,10.0,1013.2078880000001,VFR,,"[{""cover"": ""OVC"", ""base_ft_agl"": 3400.0}]",METAR KGRF 131055Z AUTO 16007KT 10SM OVC034 09/07 A2992 RMK AO2 SLP136 T00920068 $
KGRI,2026-04-13 10:53:00+00:00,2026-04-13 10:53:00+00:00,16.1,14.4,180.0,12.0,,10.0,1003.387357,VFR,,,METAR KGRI 131053Z AUTO 18012KT 10SM CLR 16/14 A2963 RMK AO2 SLP022 T01610144
KGRK,2026-04-13 10:55:00+00:00,2026-04-13 10:55:00+00:00,21.5,20.5,150.0,11.0,,10.0,1017.271556,IFR,,"[{""cover"": ""OVC"", ""base_ft_agl"": 900.0}]",METAR KGRK 131055Z AUTO 15011KT 10SM OVC009 22/21 A3004 RMK AO2 SLP164 T02150205
KGRN,2026-04-13 10:55:00+00:00,2026-04-13 10:55:00+00:00,4.3,0.2,0.0,0.0,,10.0,1006.0964690000001,VFR,,,METAR KGRN 131055Z AUTO 00000KT 10SM CLR 04/00 A2971 RMK AO2 T00430002
KGRR,2026-04-13 10:53:00+00:00,2026-04-13 10:53:00+00:00,15.0,14.4,240.0,16.0,,5.0,1009.821498,IFR,-RA BR,"[{""cover"": ""OVC"", ""base_ft_agl"": 700.0}]",METAR KGRR 131053Z 24016KT 5SM -RA BR OVC007 15/14 A2982 RMK AO2 RAE11B41DZB12E41 SLP096 T01500144 PNO $
KGSB,2026-04-13 10:55:00+00:00,2026-04-13 10:55:00+00:00,13.0,12.0,0.0,0.0,,10.0,1027.092087,VFR,,"[{""cover"": ""FEW"", ""base_ft_agl"": 2200.0}]",METAR KGSB 131055Z 00000KT 10SM FEW022 13/12 A3033 RMK AO2A ALSTG DATA ESTMD SLPNO RVRNO TSNO $
KGSH,2026-04-13 10:53:00+00:00,2026-04-13 10:53:00+00:00,17.8,15.0,240.0,7.0,,10.0,1012.53061,MVFR,,"[{""cover"": ""OVC"", ""base_ft_agl"": 2500.0}]",METAR KGSH 131053Z AUTO 24007KT 10SM OVC025 18/15 A2990 RMK AO2 SLP119 T01780150
KGSO,2026-04-13 10:54:00+00:00,2026-04-13 10:54:00+00:00,15.6,11.1,220.0,9.0,,10.0,1026.4148089999999,VFR,,"[{""cover"": ""OVC"", ""base_ft_agl"": 25000.0}]",METAR KGSO 131054Z 22009KT 10SM OVC250 16/11 A3031 RMK AO2 SLP255 T01560111 $
KGSP,2026-04-13 10:53:00+00:00,2026-04-13 10:53:00+00:00,14.4,11.1,210.0,7.0,,10.0,1027.430726,VFR,,,METAR KGSP 131053Z 21007KT 10SM CLR 14/11 A3034 RMK AO2 SLP266 T01440111
KGTB,2026-04-13 10:55:00+00:00,2026-04-13 10:55:00+00:00,17.4,7.2,210.0,14.0,20.0,10.0,1009.482859,VFR,,"[{""cover"": ""BKN"", ""base_ft_agl"": 8500.0}, {""cover"": ""OVC"", ""base_ft_agl"": 16000.0}]",METAR KGTB 131055Z 21014G20KT 10SM BKN085 OVC160 17/07 A2981 RMK AO2A SLP096 T01740072 $
KGTR,2026-04-13 10:56:00+00:00,2026-04-13 10:56:00+00:00,16.1,13.3,140.0,7.0,,10.0,1023.0284190000001,VFR,,,METAR KGTR 131056Z AUTO 14007KT 10SM CLR 16/13 A3021 RMK AO2 SLP230 T01610133 $
KGTU,2026-04-13 10:55:00+00:00,2026-04-13 10:55:00+00:00,21.7,21.1,170.0,7.0,,9.0,1018.2874730000001,IFR,,"[{""cover"": ""OVC"", ""base_ft_agl"": 700.0}]",METAR KGTU 131055Z AUTO 17007KT 9SM OVC007 22/21 A3007 RMK AO2 SLP179 T02170211
KGUC,2026-04-13 10:56:00+00:00,2026-04-13 10:56:00+00:00,0.6,-7.2,90.0,9.0,,10.0,1017.271556,VFR,,,METAR KGUC 131056Z AUTO 09009KT 10SM CLR 01/M07 A3004 RMK AO2 SLP135 T00061072 FZRANO $
KGUP,2026-04-13 10:53:00+00:00,2026-04-13 10:53:00+00:00,7.2,1.1,220.0,8.0,,10.0,1018.6261119999999,VFR,,,METAR KGUP 131053Z AUTO 22008KT 10SM CLR 07/01 A3008 RMK AO2 SLP093 T00720011
KGUR,2026-04-13 10:55:00+00:00,2026-04-13 10:55:00+00:00,10.0,-5.5,280.0,6.0,,9.0,1009.14422,VFR,-RA,"[{""cover"": ""FEW"", ""base_ft_agl"": 3700.0}, {""cover"": ""SCT"", ""base_ft_agl"": 6500.0}, {""cover"": ""OVC"", ""base_ft_agl"": 9500.0}]",METAR KGUR 131055Z AUTO 28006KT 9SM -RA FEW037 SCT065 OVC095 10/M05 A2980 RMK AO2 RAE0955RAB52 SLP077 P0000 T01001055
KGUS,2026-04-13 09:55:00+00:00,2026-04-13 09:55:00+00:00,19.3,13.2,230.0,16.0,,10.0,1012.53061,VFR,,,METAR KGUS 130955Z AUTO 23016KT 10SM CLR 19/13 A2990 RMK AO2 SLP123 T01930132 $
KGUY,2026-04-13 10:53:00+00:00,2026-04-13 10:53:00+00:00,14.4,-2.2,240.0,17.0,,10.0,1009.14422,VFR,,,METAR KGUY 131053Z AUTO 24017KT 10SM CLR 14/M02 A2980 RMK AO2 SLP049 T01441022
KGVE,2026-04-13 10:55:00+00:00,2026-04-13 10:55:00+00:00,18.6,14.4,230.0,5.0,,10.0,1022.68978,VFR,,,METAR KGVE 131055Z AUTO 23005KT 10SM CLR 19/14 A3020 RMK AO1 T01860144
KGVL,2026-04-13 10:53:00+00:00,2026-04-13 10:53:00+00:00,13.9,8.9,0.0,0.0,,9.0,1027.430726,VFR,,,METAR KGVL 131053Z AUTO 00000KT 9SM CLR 14/09 A3034 RMK AO2 SLP263 T01390089
KGVQ,2026-04-13 10:56:00+00:00,2026-04-13 10:56:00+00:00,18.9,7.8,260.0,7.0,,10.0,1011.5146930000001,VFR,,"[{""cover"": ""BKN"", ""base_ft_agl"": 11000.0}]",METAR KGVQ 131056Z AUTO 26007KT 10SM BKN110 19/08 A2987 RMK AO2 SLP110 T01890078
KGVT,2026-04-13 10:55:00+00:00,2026-04-13 10:55:00+00:00,20.0,20.0,190.0,14.0,,10.0,1017.6101950000001,MVFR,,"[{""cover"": ""OVC"", ""base_ft_agl"": 2500.0}]",METAR KGVT 131055Z AUTO 19014KT 10SM OVC025 20/20 A3005 RMK AO2
KGVW,2026-04-13 11:05:00+00:00,2026-04-13 11:05:00+00:00,,,130.0,15.0,,6.0,1019.980668,VFR,HZ,"[{""cover"": ""OVC"", ""base_ft_agl"": 9500.0}]",METAR KGVW 131105Z AUTO 13015KT 6SM HZ OVC095 A3012 RMK A01
KGWB,2026-04-13 10:55:00+00:00,2026-04-13 10:55:00+00:00,18.0,16.0,240.0,7.0,,10.0,1012.53061,VFR,,"[{""cover"": ""BKN"", ""base_ft_agl"": 3300.0}, {""cover"": ""BKN"", ""base_ft_agl"": 3900.0}, {""cover"": ""OVC"", ""base_ft_agl"": 4800.0}]",METAR KGWB 131055Z AUTO 24007KT 10SM BKN033 BKN039 OVC048 18/16 A2990 RMK AO2 P0001
KGWO,2026-04-13 10:53:00+00:00,2026-04-13 10:53:00+00:00,18.3,16.7,210.0,3.0,,10.0,1022.012502,VFR,,,METAR KGWO 131053Z AUTO 21003KT 10SM CLR 18/17 A3018 RMK AO2 SLP218 T01830167 $
KGWR,2026-04-13 10:55:00+00:00,2026-04-13 10:55:00+00:00,4.0,4.0,30.0,11.0,,6.0,1009.821498,IFR,BR,"[{""cover"": ""OVC"", ""base_ft_agl"": 500.0}]",METAR KGWR 131055Z AUTO 03011KT 6SM BR OVC005 04/04 A2982 RMK A01
KGWW,2026-04-13 10:55:00+00:00,2026-04-13 10:55:00+00:00,15.1,15.1,210.0,4.0,,10.0,1027.430726,VFR,,,METAR KGWW 131055Z AUTO 21004KT 10SM CLR 15/15 A3034 RMK AO2 T01510151
KGYB,2026-04-13 10:55:00+00:00,2026-04-13 10:55:00+00:00,21.7,20.7,170.0,4.0,,7.0,1019.642029,MVFR,,"[{""cover"": ""OVC"", ""base_ft_agl"": 1000.0}]",METAR KGYB 131055Z AUTO 17004KT 7SM OVC010 22/21 A3011 RMK AO2 T02170207
KGYF,2026-04-13 10:55:00+00:00,2026-04-13 10:55:00+00:00,23.8,21.2,130.0,25.0,28.0,10.0,1017.271556,VFR,,"[{""cover"": ""SCT"", ""base_ft_agl"": 1100.0}]",METAR KGYF 131055Z AUTO 13025G28KT 10SM SCT011 24/21 A3004 RMK AO2 PWINO T02380212
KGYH,2026-04-13 10:47:00+00:00,2026-04-13 10:47:00+00:00,15.0,11.0,230.0,3.0,,10.0,1027.769365,VFR,,,METAR KGYH 131047Z 23003KT 10SM CLR 15/11 A3035
KGYI,2026-04-13 10:55:00+00:00,2026-04-13 10:55:00+00:00,20.0,19.0,190.0,12.0,,10.0,1016.594278,IFR,,"[{""cover"": ""OVC"", ""base_ft_agl"": 900.0}]",METAR KGYI 131055Z AUTO 19012KT 10SM OVC009 20/19 A3002 RMK AO2 CIG 007V013 T02000190 $
KGYL,2026-04-13 10:55:00+00:00,2026-04-13 10:55:00+00:00,8.8,8.1,0.0,0.0,,10.0,1006.7737470000001,VFR,,,METAR KGYL 131055Z AUTO 00000KT 10SM CLR 09/08 A2973 RMK AO2 T00880081
KGZH,2026-04-13 11:00:00+00:00,2026-04-13 11:00:00+00:00,11.1,10.6,0.0,0.0,,0.25,1025.060253,LIFR,FG,"[{""cover"": ""OVX"", ""base_ft_agl"": 100.0}]",SPECI KGZH 131100Z AUTO 00000KT 1/4SM FG VV001 11/11 A3027 RMK AO2 T01110106
KGZL,2026-04-13 10:55:00+00:00,2026-04-13 10:55:00+00:00,22.0,19.0,210.0,10.0,16.0,10.0,1015.578361,MVFR,,"[{""cover"": ""OVC"", ""base_ft_agl"": 2100.0}]",METAR KGZL 131055Z AUTO 21010G16KT 10SM OVC021 22/19 A2999 RMK AO2
KGZS,2026-04-13 10:55:00+00:00,2026-04-13 10:55:00+00:00,18.0,12.0,190.0,7.0,,10.0,1023.367058,MVFR,,"[{""cover"": ""BKN"", ""base_ft_agl"": 2000.0}, {""cover"": ""OVC"", ""base_ft_agl"": 4200.0}]",METAR KGZS 131055Z AUTO 19007KT 10SM BKN020 OVC042 18/12 A3022 RMK A01
KHAE,2026-04-13 10:55:00+00:00,2026-04-13 10:55:00+00:00,18.0,16.0,200.0,9.0,,10.0,1013.2078880000001,VFR,,,METAR KHAE 131055Z AUTO 20009KT 10SM CLR 18/16 A2992 RMK AO2
KHAF,2026-04-13 10:55:00+00:00,2026-04-13 10:55:00+00:00,10.0,10.0,0.0,0.0,,9.0,1017.6101950000001,VFR,,"[{""cover"": ""FEW"", ""base_ft_agl"": 1600.0}, {""cover"": ""BKN"", ""base_ft_agl"": 7500.0}]",METAR KHAF 131055Z AUTO 00000KT 9SM FEW016 BKN075 10/10 A3005 RMK AO2
KHAI,2026-04-13 10:55:00+00:00,2026-04-13 10:55:00+00:00,18.0,16.0,240.0,10.0,15.0,10.0,1011.5146930000001,MVFR,,"[{""cover"": ""OVC"", ""base_ft_agl"": 1400.0}]",METAR KHAI 131055Z AUTO 24010G15KT 10SM OVC014 18/16 A2987 RMK AO2
KHAO,2026-04-13 10:53:00+00:00,2026-04-13 10:53:00+00:00,20.0,12.2,0.0,4.0,,10.0,1017.6101950000001,VFR,,"[{""cover"": ""FEW"", ""base_ft_agl"": 5000.0}]",METAR KHAO 131053Z AUTO VRB04KT 10SM FEW050 20/12 A3005 RMK AO2 SLP172 T02000122
KHBG,2026-04-13 10:53:00+00:00,2026-04-13 10:53:00+00:00,13.9,13.3,0.0,0.0,,5.0,1023.367058,MVFR,BR,,METAR KHBG 131053Z AUTO 00000KT 5SM BR CLR 14/13 A3022 RMK AO2 SLP230 T01390133 PWINO
KHBR,2026-04-13 10:53:00+00:00,2026-04-13 10:53:00+00:00,19.4,18.3,190.0,18.0,,9.0,1012.8692490000001,MVFR,,"[{""cover"": ""BKN"", ""base_ft_agl"": 1100.0}]",METAR KHBR 131053Z AUTO 19018KT 9SM BKN011 19/18 A2991 RMK AO2 SLP111 T01940183
KHBV,2026-04-13 10:55:00+00:00,2026-04-13 10:55:00+00:00,22.0,22.0,110.0,8.0,,9.0,1016.594278,LIFR,,"[{""cover"": ""OVC"", ""base_ft_agl"": 300.0}]",METAR KHBV 131055Z AUTO 11008KT 9SM OVC003 22/22 A3002 RMK AO2 T02200220 $
KHCD,2026-04-13 10:55:00+00:00,2026-04-13 10:55:00+00:00,8.1,7.8,330.0,5.0,,10.0,1007.4510250000001,VFR,,,METAR KHCD 131055Z AUTO 33005KT 10SM CLR 08/08 A2975 RMK AO2 T00810078
KHCO,2026-04-13 10:55:00+00:00,2026-04-13 10:55:00+00:00,2.0,2.0,10.0,4.0,,5.0,1011.176054,IFR,BR,"[{""cover"": ""OVC"", ""base_ft_agl"": 500.0}]",METAR KHCO 131055Z AUTO 01004KT 5SM BR OVC005 02/02 A2986 RMK AO2
KHCR,2026-04-13 10:55:00+00:00,2026-04-13 10:55:00+00:00,2.0,0.7,90.0,3.0,,10.0,1014.901083,VFR,,"[{""cover"": ""SCT"", ""base_ft_agl"": 3400.0}, {""cover"": ""BKN"", ""base_ft_agl"": 4300.0}]",METAR KHCR 131055Z AUTO 09003KT 10SM SCT034 BKN043 02/01 A2997 RMK AO2 T00200007 $
KHDE,2026-04-13 10:55:00+00:00,2026-04-13 10:55:00+00:00,11.5,5.9,180.0,10.0,,10.0,1003.387357,VFR,,,METAR KHDE 131055Z AUTO 18010KT 10SM CLR 12/06 A2963 RMK AO2 T01150059
KHDN,2026-04-13 10:56:00+00:00,2026-04-13 10:56:00+00:00,6.1,-3.9,250.0,10.0,,10.0,1013.2078880000001,VFR,,,METAR KHDN 131056Z AUTO 25010KT 10SM CLR 06/M04 A2992 RMK AO2 SLP083 T00611039
KHDO,2026-04-13 10:51:00+00:00,2026-04-13 10:51:00+00:00,22.2,20.6,140.0,9.0,,10.0,1017.271556,MVFR,,"[{""cover"": ""OVC"", ""base_ft_agl"": 1300.0}]",METAR KHDO 131051Z AUTO 14009KT 10SM OVC013 22/21 A3004 RMK AO2 SLP158 T02220206 $
KHEF,2026-04-13 10:56:00+00:00,2026-04-13 10:56:00+00:00,19.4,14.4,210.0,8.0,,10.0,1021.6738630000001,VFR,,,METAR KHEF 131056Z 21008KT 10SM CLR 19/14 A3017 RMK AO2 SLP221 T01940144 $
KHEG,2026-04-13 10:55:00+00:00,2026-04-13 10:55:00+00:00,11.0,10.0,0.0,0.0,,10.0,1027.092087,MVFR,,"[{""cover"": ""BKN"", ""base_ft_agl"": 2800.0}]",METAR KHEG 131055Z AUTO 00000KT 10SM BKN028 11/10 A3033 RMK AO2 TSNO
KHEI,2026-04-13 10:57:00+00:00,2026-04-13 10:57:00+00:00,6.1,6.1,80.0,12.0,,1.75,1007.4510250000001,LIFR,BR,"[{""cover"": ""OVC"", ""base_ft_agl"": 200.0}]",SPECI KHEI 131057Z AUTO 08012KT 1 3/4SM BR OVC002 06/06 A2975 RMK AO2 T00610061
KHEY,2026-04-13 09:55:00+00:00,2026-04-13 09:55:00+00:00,13.6,12.0,0.0,0.0,,10.0,1025.3988920000002,VFR,,,METAR KHEY 130955Z AUTO 00000KT 10SM CLR 14/12 A3028 RMK AO2 SLP254 T01360120 $
KHEZ,2026-04-13 10:56:00+00:00,2026-04-13 10:56:00+00:00,20.0,17.8,190.0,3.0,,10.0,1022.012502,MVFR,,"[{""cover"": ""BKN"", ""base_ft_agl"": 1600.0}, {""cover"": ""OVC"", ""base_ft_agl"": 2400.0}]",METAR KHEZ 131056Z AUTO 19003KT 10SM BKN016 OVC024 20/18 A3018 RMK AO2 SLP219 T02000178 $
KHFD,2026-04-13 10:53:00+00:00,2026-04-13 10:53:00+00:00,10.0,5.0,180.0,8.0,,10.0,1020.996585,MVFR,,"[{""cover"": ""OVC"", ""base_ft_agl"": 2100.0}]",METAR KHFD 131053Z 18008KT 10SM OVC021 10/05 A3015 RMK AO2 SLP211 T01000050
KHFF,2026-04-13 10:55:00+00:00,2026-04-13 10:55:00+00:00,14.3,14.0,250.0,4.0,,10.0,1026.4148089999999,VFR,,,METAR KHFF 131055Z AUTO 25004KT 10SM CLR 14/14 A3031 RMK AO2 SLP265 T01430140 $
KHFJ,2026-04-13 10:55:00+00:00,2026-04-13 10:55:00+00:00,20.0,17.0,200.0,15.0,22.0,10.0,1014.901083,MVFR,,"[{""cover"": ""OVC"", ""base_ft_agl"": 2000.0}]",METAR KHFJ 131055Z AUTO 20015G22KT 10SM OVC020 20/17 A2997 RMK AO2
KHGR,2026-04-13 10:53:00+00:00,2026-04-13 10:53:00+00:00,14.4,10.6,0.0,0.0,,10.0,1019.642029,VFR,,,METAR KHGR 131053Z 00000KT 10SM CLR 14/11 A3011 RMK AO2 SLP202 T01440106 $
KHHF,2026-04-13 10:55:00+00:00,2026-04-13 10:55:00+00:00,16.0,8.0,220.0,10.0,,10.0,1011.176054,VFR,,,METAR KHHF 131055Z AUTO 22010KT 10SM CLR 16/08 A2986 RMK AO2
KHHG,2026-04-13 10:55:00+00:00,2026-04-13 10:55:00+00:00,19.3,13.6,230.0,11.0,17.0,10.0,1013.885166,VFR,,"[{""cover"": ""BKN"", ""base_ft_agl"": 3100.0}]",METAR KHHG 131055Z AUTO 23011G17KT 10SM BKN031 19/14 A2994 RMK AO2 T01930136
KHHR,2026-04-13 10:53:00+00:00,2026-04-13 10:53:00+00:00,14.4,8.3,0.0,0.0,,10.0,1016.594278,VFR,,"[{""cover"": ""SCT"", ""base_ft_agl"": 6000.0}, {""cover"": ""OVC"", ""base_ft_agl"": 7500.0}]",METAR KHHR 131053Z AUTO 00000KT 10SM SCT060 OVC075 14/08 A3002 RMK AO2 SLP167 T01440083
KHHV,2026-04-13 10:55:00+00:00,2026-04-13 10:55:00+00:00,24.0,21.0,0.0,4.0,12.0,6.0,1017.271556,VFR,HZ,,METAR KHHV 131055Z AUTO VRB04G12KT 6SM HZ CLR 24/21 A3004 RMK A01
KHHW,2026-04-13 10:55:00+00:00,2026-04-13 10:55:00+00:00,18.0,17.0,150.0,4.0,,10.0,1017.6101950000001,MVFR,,"[{""cover"": ""OVC"", ""base_ft_agl"": 1300.0}]",METAR KHHW 131055Z AUTO 15004KT 10SM OVC013 18/17 A3005 RMK AO2
KHIB,2026-04-13 10:53:00+00:00,2026-04-13 10:53:00+00:00,5.0,4.4,350.0,5.0,,10.0,1007.7896640000001,IFR,,"[{""cover"": ""OVC"", ""base_ft_agl"": 500.0}]",METAR KHIB 131053Z AUTO 35005KT 10SM OVC005 05/04 A2976 RMK AO2 SLP083 T00500044 $
KHIE,2026-04-13 10:52:00+00:00,2026-04-13 10:52:00+00:00,3.9,3.3,0.0,0.0,,10.0,1015.239722,IFR,,"[{""cover"": ""BKN"", ""base_ft_agl"": 600.0}, {""cover"": ""OVC"", ""base_ft_agl"": 11000.0}]",METAR KHIE 131052Z AUTO 00000KT 10SM BKN006 OVC110 04/03 A2998 RMK AO2 RAB0959E10 SLP163 P0000 T00390033
KHII,2026-04-13 10:55:00+00:00,2026-04-13 10:55:00+00:00,18.0,7.0,130.0,11.0,,10.0,1012.8692490000001,VFR,,,METAR KHII 131055Z AUTO 13011KT 10SM CLR 18/07 A2991 RMK AO2
KHIO,2026-04-13 11:03:00+00:00,2026-04-13 11:03:00+00:00,8.9,7.8,20.0,3.0,,10.0,1015.917,VFR,,"[{""cover"": ""FEW"", ""base_ft_agl"": 1000.0}, {""cover"": ""SCT"", ""base_ft_agl"": 3800.0}, {""cover"": ""OVC"", ""base_ft_agl"": 6000.0}]",SPECI KHIO 131103Z 02003KT 10SM FEW010 SCT038 OVC060 09/08 A3000 RMK AO2 T00890078
KHJH,2026-04-13 10:55:00+00:00,2026-04-13 10:55:00+00:00,19.6,17.0,190.0,11.0,18.0,10.0,1004.7419130000001,VFR,,,METAR KHJH 131055Z AUTO 19011G18KT 10SM CLR 20/17 A2967 RMK AO2 T01960170
KHJO,2026-04-13 10:53:00+00:00,2026-04-13 10:53:00+00:00,10.0,7.8,310.0,6.0,,10.0,1017.271556,VFR,,"[{""cover"": ""FEW"", ""base_ft_agl"": 5500.0}, {""cover"": ""SCT"", ""base_ft_agl"": 7000.0}, {""cover"": ""BKN"", ""base_ft_agl"": 8000.0}]",METAR KHJO 131053Z AUTO 31006KT 10SM FEW055 SCT070 BKN080 10/08 A3004 RMK AO2 SLP174 T01000078
KHKA,2026-04-13 10:53:00+00:00,2026-04-13 10:53:00+00:00,22.8,13.9,200.0,12.0,21.0,10.0,1018.964751,VFR,,"[{""cover"": ""FEW"", ""base_ft_agl"": 9500.0}, {""cover"": ""BKN"", ""base_ft_agl"": 12000.0}]",METAR KHKA 131053Z AUTO 20012G21KT 10SM FEW095 BKN120 23/14 A3009 RMK AO2 LTG DSNT S SLP187 T02280139 $
KHKS,2026-04-13 10:53:00+00:00,2026-04-13 10:53:00+00:00,19.4,17.8,240.0,6.0,,10.0,1022.3511410000001,MVFR,,"[{""cover"": ""BKN"", ""base_ft_agl"": 1100.0}]",METAR KHKS 131053Z AUTO 24006KT 10SM BKN011 19/18 A3019 RMK AO2 SLP216 T01940178 PWINO
KHKY,2026-04-13 10:53:00+00:00,2026-04-13 10:53:00+00:00,15.0,10.0,200.0,7.0,,10.0,1026.07617,VFR,,,METAR KHKY 131053Z AUTO 20007KT 10SM CLR 15/10 A3030 RMK AO2 SLP243 T01500100
KHLB,2026-04-13 10:55:00+00:00,2026-04-13 10:55:00+00:00,20.0,13.0,0.0,4.0,,10.0,1017.271556,VFR,,"[{""cover"": ""BKN"", ""base_ft_agl"": 4100.0}, {""cover"": ""BKN"", ""base_ft_agl"": 4700.0}, {""cover"": ""OVC"", ""base_ft_agl"": 5500.0}]",METAR KHLB 131055Z AUTO VRB04KT 10SM BKN041 BKN047 OVC055 20/13 A3004 RMK A01
KHLC,2026-04-13 10:53:00+00:00,2026-04-13 10:53:00+00:00,12.2,-2.8,240.0,9.0,,10.0,1005.4191910000001,VFR,,,METAR KHLC 131053Z AUTO 24009KT 10SM CLR 12/M03 A2969 RMK AO2 SLP034 T01221028
KHLG,2026-04-13 10:53:00+00:00,2026-04-13 10:53:00+00:00,21.7,6.1,210.0,15.0,29.0,10.0,1016.594278,VFR,,"[{""cover"": ""OVC"", ""base_ft_agl"": 7500.0}]",METAR KHLG 131053Z AUTO 21015G29KT 10SM OVC075 22/06 A3002 RMK AO2 PK WND 22030/1028 RAB33E44 SLP161 P0000 T02170061
KHLN,2026-04-13 10:53:00+00:00,2026-04-13 10:53:00+00:00,3.9,3.9,0.0,0.0,,6.0,1006.7737470000001,VFR,BR,"[{""cover"": ""BKN"", ""base_ft_agl"": 7000.0}]",METAR KHLN 131053Z AUTO 00000KT 6SM BR BKN070 04/04 A2973 RMK AO2 SLP085 T00390039 $
KHLR,2026-04-13 10:55:00+00:00,2026-04-13 10:55:00+00:00,21.8,20.6,170.0,10.0,,10.0,1016.9329170000001,IFR,,"[{""cover"": ""BKN"", ""base_ft_agl"": 900.0}, {""cover"": ""OVC"", ""base_ft_agl"": 1300.0}]",METAR KHLR 131055Z AUTO 17010KT 10SM BKN009 OVC013 22/21 A3003 RMK AO2 SLP161 T02180206
KHLX,2026-04-13 10:55:00+00:00,2026-04-13 10:55:00+00:00,15.0,8.0,200.0,8.0,,10.0,1026.07617,VFR,,,METAR KHLX 131055Z AUTO 20008KT 10SM CLR 15/08 A3030 RMK AO2
KHMN,2026-04-13 09:55:00+00:00,2026-04-13 09:55:00+00:00,15.2,2.0,120.0,6.0,,10.0,1019.30339,VFR,,"[{""cover"": ""SCT"", ""base_ft_agl"": 15000.0}, {""cover"": ""BKN"", ""base_ft_agl"": 20000.0}]",METAR KHMN 130955Z COR 12006KT 10SM SCT150 BKN200 15/02 A3010 RMK AO2A SLP132 T01520020 $ COR 1028
KHMP,2026-04-13 10:55:00+00:00,2026-04-13 10:55:00+00:00,12.1,11.0,0.0,0.0,,10.0,1028.108004,VFR,,,METAR KHMP 131055Z AUTO 00000KT 10SM CLR 12/11 A3036 RMK AO2 T01210110
KHMT,2026-04-13 10:55:00+00:00,2026-04-13 10:55:00+00:00,11.0,9.0,0.0,0.0,,10.0,1016.9329170000001,MVFR,-RA,"[{""cover"": ""SCT"", ""base_ft_agl"": 2100.0}, {""cover"": ""BKN"", ""base_ft_agl"": 2700.0}, {""cover"": ""OVC"", ""base_ft_agl"": 4000.0}]",METAR KHMT 131055Z AUTO 00000KT 10SM -RA SCT021 BKN027 OVC040 11/09 A3003 RMK AO2
KHMZ,2026-04-13 10:55:00+00:00,2026-04-13 10:55:00+00:00,11.2,8.7,0.0,0.0,,10.0,1018.6261119999999,VFR,,,METAR KHMZ 131055Z AUTO 00000KT 10SM CLR 11/09 A3008 RMK AO2 T01120087
KHNB,2026-04-13 10:56:00+00:00,2026-04-13 10:56:00+00:00,21.1,13.9,220.0,8.0,,10.0,1018.6261119999999,VFR,,"[{""cover"": ""BKN"", ""base_ft_agl"": 5500.0}, {""cover"": ""BKN"", ""base_ft_agl"": 7000.0}]",METAR KHNB 131056Z AUTO 22008KT 10SM BKN055 BKN070 21/14 A3008 RMK AO2 SLP182 T02110139
KHND,2026-04-13 10:56:00+00:00,2026-04-13 10:56:00+00:00,11.7,0.6,200.0,14.0,,10.0,1014.223805,VFR,,"[{""cover"": ""FEW"", ""base_ft_agl"": 8500.0}]",METAR KHND 131056Z 20014KT 10SM FEW085 12/01 A2995 RMK AO2 SLP145 T01170006 $
KHNR,2026-04-13 10:55:00+00:00,2026-04-13 10:55:00+00:00,16.0,16.0,180.0,9.0,,10.0,1006.7737470000001,VFR,,"[{""cover"": ""FEW"", ""base_ft_agl"": 1500.0}]",METAR KHNR 131055Z AUTO 18009KT 10SM FEW015 16/16 A2973 RMK A01
KHNZ,2026-04-13 10:55:00+00:00,2026-04-13 10:55:00+00:00,14.8,14.1,220.0,8.0,,10.0,1026.4148089999999,VFR,,,METAR KHNZ 131055Z AUTO 22008KT 10SM CLR 15/14 A3031 RMK AO2 T01480141
KHOB,2026-04-13 10:35:00+00:00,2026-04-13 10:35:00+00:00,12.0,4.0,190.0,7.0,,10.0,1017.271556,VFR,,"[{""cover"": ""BKN"", ""base_ft_agl"": 12000.0}]",METAR KHOB 131035Z AUTO 19007KT 10SM BKN120 12/04 A3004 RMK AO2
KHOE,2026-04-13 10:55:00+00:00,2026-04-13 10:55:00+00:00,10.8,9.8,0.0,0.0,,10.0,1027.092087,VFR,,,METAR KHOE 131055Z AUTO 00000KT 10SM CLR 11/10 A3033 RMK AO2 T01080098
KHON,2026-04-13 10:55:00+00:00,2026-04-13 10:55:00+00:00,8.3,6.7,100.0,9.0,,10.0,1005.080552,VFR,,"[{""cover"": ""FEW"", ""base_ft_agl"": 6000.0}, {""cover"": ""BKN"", ""base_ft_agl"": 11000.0}]",METAR KHON 131055Z AUTO 10009KT 10SM FEW060 BKN110 08/07 A2968 RMK AO2 PRESFR SLP047 T00830067
KHOP,2026-04-13 10:55:00+00:00,2026-04-13 10:55:00+00:00,22.2,13.5,200.0,11.0,,10.0,1019.30339,VFR,,"[{""cover"": ""FEW"", ""base_ft_agl"": 19000.0}]",METAR KHOP 131055Z AUTO 20011KT 10SM FEW190 22/14 A3010 RMK AO2 SLP190 T02220135
KHOT,2026-04-13 11:02:00+00:00,2026-04-13 11:02:00+00:00,21.1,17.8,220.0,4.0,,10.0,1019.30339,VFR,,"[{""cover"": ""FEW"", ""base_ft_agl"": 2800.0}, {""cover"": ""BKN"", ""base_ft_agl"": 3200.0}, {""cover"": ""OVC"", ""base_ft_agl"": 4100.0}]",SPECI KHOT 131102Z AUTO 22004KT 10SM FEW028 BKN032 OVC041 21/18 A3010 RMK AO2 T02110178
KHOU,2026-04-13 10:53:00+00:00,2026-04-13 10:53:00+00:00,22.8,21.1,150.0,8.0,,8.0,1018.964751,MVFR,,"[{""cover"": ""BKN"", ""base_ft_agl"": 1300.0}, {""cover"": ""BKN"", ""base_ft_agl"": 3000.0}, {""cover"": ""OVC"", ""base_ft_agl"": 10000.0}]",METAR KHOU 131053Z 15008KT 8SM BKN013 BKN030 OVC100 23/21 A3009 RMK AO2 SLP195 T02280211 $
KHPN,2026-04-13 10:56:00+00:00,2026-04-13 10:56:00+00:00,8.9,6.7,0.0,0.0,,10.0,1020.996585,MVFR,,"[{""cover"": ""OVC"", ""base_ft_agl"": 1500.0}]",METAR KHPN 131056Z 00000KT 10SM OVC015 09/07 A3015 RMK AO2 SLP214 T00890067
KHPT,2026-04-13 10:55:00+00:00,2026-04-13 10:55:00+00:00,12.0,12.0,220.0,9.0,,4.0,1007.7896640000001,MVFR,BR,,METAR KHPT 131055Z AUTO 22009KT 4SM BR CLR 12/12 A2976 RMK AO2
KHQG,2026-04-13 10:55:00+00:00,2026-04-13 10:55:00+00:00,13.0,-2.0,220.0,7.0,,10.0,1009.14422,VFR,,,METAR KHQG 131055Z AUTO 22007KT 10SM CLR 13/M02 A2980 RMK AO2
KHQM,2026-04-13 10:58:00+00:00,2026-04-13 10:58:00+00:00,8.3,7.2,280.0,8.0,,4.0,1015.239722,MVFR,-RA BR,"[{""cover"": ""FEW"", ""base_ft_agl"": 900.0}, {""cover"": ""BKN"", ""base_ft_agl"": 2500.0}, {""cover"": ""OVC"", ""base_ft_agl"": 3200.0}]",SPECI KHQM 131058Z AUTO 28008KT 4SM -RA BR FEW009 BKN025 OVC032 08/07 A2998 RMK AO2 P0001 T00830072
KHQU,2026-04-13 10:50:00+00:00,2026-04-13 10:50:00+00:00,14.0,13.0,0.0,0.0,,10.0,1028.785282,VFR,,,METAR KHQU 131050Z AUTO 00000KT 10SM CLR 14/13 A3038 RMK AO2
KHQZ,2026-04-13 10:55:00+00:00,2026-04-13 10:55:00+00:00,20.3,19.1,170.0,8.0,,10.0,1017.271556,MVFR,,"[{""cover"": ""OVC"", ""base_ft_agl"": 1100.0}]",METAR KHQZ 131055Z AUTO 17008KT 10SM OVC011 20/19 A3004 RMK AO1 T02030191
KHRF,2026-04-13 10:55:00+00:00,2026-04-13 10:55:00+00:00,4.0,-1.0,210.0,9.0,,10.0,1007.112386,VFR,,,METAR KHRF 131055Z AUTO 21009KT 10SM CLR 04/M01 A2974 RMK AO2
KHRI,2026-04-13 10:53:00+00:00,2026-04-13 10:53:00+00:00,10.6,6.1,250.0,14.0,26.0,,1008.805581,,,,METAR KHRI 131053Z AUTO 25014G26KT CLR 11/06 A2979 RMK AO2 PK WND 25027/1006 SLP087 T01060061 $
KHRJ,2026-04-13 10:55:00+00:00,2026-04-13 10:55:00+00:00,15.1,14.9,170.0,3.0,,4.0,1027.769365,MVFR,BR,,METAR KHRJ 131055Z AUTO 17003KT 4SM BR CLR 15/15 A3035 RMK AO2 T01510149
KHRL,2026-04-13 11:00:00+00:00,2026-04-13 11:00:00+00:00,23.9,22.8,130.0,7.0,,10.0,1016.594278,VFR,,"[{""cover"": ""SCT"", ""base_ft_agl"": 1600.0}, {""cover"": ""OVC"", ""base_ft_agl"": 4100.0}]",SPECI KHRL 131100Z 13007KT 10SM SCT016 OVC041 24/23 A3002 RMK AO2 T02390228
KHRO,2026-04-13 10:53:00+00:00,2026-04-13 10:53:00+00:00,20.6,16.1,,,,10.0,1016.9329170000001,VFR,,"[{""cover"": ""SCT"", ""base_ft_agl"": 3100.0}]",METAR KHRO 131053Z AUTO 10SM SCT031 21/16 A3003 RMK AO2 SLP156 T02060161 TSNO
KHRT,2026-04-13 10:55:00+00:00,2026-04-13 10:55:00+00:00,15.4,14.1,0.0,0.0,,6.0,1024.721614,VFR,BR,,METAR KHRT 131055Z 00000KT 6SM BR CLR 15/14 A3026 RMK AO2A SLP245 T01540141 $
KHRX,2026-04-13 10:55:00+00:00,2026-04-13 10:55:00+00:00,11.1,1.0,230.0,6.0,,10.0,1014.901083,VFR,,,METAR KHRX 131055Z AUTO 23006KT 10SM CLR 11/01 A2997 RMK AO2 T01110010 TSNO
KHSB,2026-04-13 10:55:00+00:00,2026-04-13 10:55:00+00:00,20.5,12.2,220.0,6.0,,10.0,1018.2874730000001,VFR,,"[{""cover"": ""SCT"", ""base_ft_agl"": 3800.0}, {""cover"": ""SCT"", ""base_ft_agl"": 4700.0}, {""cover"": ""BKN"", ""base_ft_agl"": 7000.0}]",METAR KHSB 131055Z AUTO 22006KT 10SM SCT038 SCT047 BKN070 21/12 A3007 RMK AO2 T02050122
KHSD,2026-04-13 10:55:00+00:00,2026-04-13 10:55:00+00:00,21.0,19.0,190.0,19.0,,10.0,1012.53061,MVFR,,"[{""cover"": ""OVC"", ""base_ft_agl"": 2000.0}]",METAR KHSD 131055Z AUTO 19019KT 10SM OVC020 21/19 A2990 RMK A01
KHSE,2026-04-13 10:51:00+00:00,2026-04-13 10:51:00+00:00,18.9,15.6,220.0,8.0,,10.0,1027.769365,VFR,,,METAR KHSE 131051Z AUTO 22008KT 10SM CLR 19/16 A3035 RMK AO2 SLP278 T01890156 $
KHSG,2026-04-13 10:55:00+00:00,2026-04-13 10:55:00+00:00,2.4,-2.1,250.0,5.0,,10.0,1007.4510250000001,VFR,,"[{""cover"": ""SCT"", ""base_ft_agl"": 10000.0}]",METAR KHSG 131055Z AUTO 25005KT 10SM SCT100 02/M02 A2975 RMK AO2 T00241021
KHSI,2026-04-13 10:53:00+00:00,2026-04-13 10:53:00+00:00,16.1,12.2,180.0,7.0,,10.0,1003.725996,VFR,,,METAR KHSI 131053Z AUTO 18007KT 10SM CLR 16/12 A2964 RMK AO2 SLP022 T01610122 $
KHSP,2026-04-13 10:55:00+00:00,2026-04-13 10:55:00+00:00,15.3,4.8,240.0,13.0,20.0,10.0,1025.3988920000002,VFR,,,METAR KHSP 131055Z AUTO 24013G20KT 10SM CLR 15/05 A3028 RMK AO2 T01530048
KHSV,2026-04-13 10:53:00+00:00,2026-04-13 10:53:00+00:00,13.3,11.1,160.0,4.0,,10.0,1024.382975,VFR,,"[{""cover"": ""SCT"", ""base_ft_agl"": 18000.0}, {""cover"": ""BKN"", ""base_ft_agl"": 25000.0}]",METAR KHSV 131053Z 16004KT 10SM SCT180 BKN250 13/11 A3025 RMK AO2 SLP238 T01330111
KHTH,2026-04-13 10:55:00+00:00,2026-04-13 10:55:00+00:00,3.0,-5.0,50.0,3.0,,10.0,1015.917,VFR,,,METAR KHTH 131055Z AUTO 05003KT 10SM CLR 03/M05 A3000 RMK A01
KHTL,2026-04-13 10:53:00+00:00,2026-04-13 10:53:00+00:00,13.3,12.8,230.0,10.0,,10.0,1005.75783,IFR,,"[{""cover"": ""OVC"", ""base_ft_agl"": 900.0}]",METAR KHTL 131053Z AUTO 23010KT 10SM OVC009 13/13 A2970 RMK AO2 CIG 007V012 SLP060 T01330128 $
KHTS,2026-04-13 10:51:00+00:00,2026-04-13 10:51:00+00:00,23.3,7.8,220.0,10.0,22.0,10.0,1019.980668,VFR,,"[{""cover"": ""OVC"", ""base_ft_agl"": 9000.0}]",METAR KHTS 131051Z 22010G22KT 10SM OVC090 23/08 A3012 RMK AO2 SLP190 T02330078
KHUA,2026-04-13 09:55:00+00:00,2026-04-13 09:55:00+00:00,16.7,11.6,190.0,3.0,,10.0,1023.7056970000001,VFR,,"[{""cover"": ""SCT"", ""base_ft_agl"": 17000.0}]",METAR KHUA 130955Z AUTO 19003KT 10SM SCT170 17/12 A3023 RMK AO2 SLP233 T01670116
KHUF,2026-04-13 10:53:00+00:00,2026-04-13 10:53:00+00:00,21.7,15.0,220.0,12.0,21.0,10.0,1015.917,VFR,,,METAR KHUF 131053Z AUTO 22012G21KT 10SM CLR 22/15 A3000 RMK AO2 SLP154 T02170150 $
KHUL,2026-04-13 10:53:00+00:00,2026-04-13 10:53:00+00:00,3.3,1.7,180.0,6.0,,8.0,1017.271556,MVFR,-RA,"[{""cover"": ""OVC"", ""base_ft_agl"": 1600.0}]",METAR KHUL 131053Z AUTO 18006KT 8SM -RA OVC016 03/02 A3004 RMK AO2 RAB08 SLP176 P0000 T00330017
KHUM,2026-04-13 10:47:00+00:00,2026-04-13 10:47:00+00:00,21.0,19.0,150.0,10.0,,7.0,1022.3511410000001,VFR,,,METAR KHUM 131047Z 15010KT 7SM CLR 21/19 A3019
KHUT,2026-04-13 10:52:00+00:00,2026-04-13 10:52:00+00:00,20.0,17.8,190.0,13.0,19.0,10.0,1008.128303,VFR,,"[{""cover"": ""SCT"", ""base_ft_agl"": 4000.0}]",METAR KHUT 131052Z 19013G19KT 10SM SCT040 20/18 A2977 RMK AO2 SLP058 T02000178
KHVE,2026-04-13 10:55:00+00:00,2026-04-13 10:55:00+00:00,10.0,-6.0,350.0,4.0,,10.0,1014.562444,VFR,,,METAR KHVE 131055Z AUTO 35004KT 10SM CLR 10/M06 A2996 RMK AO2
KHVN,2026-04-13 10:53:00+00:00,2026-04-13 10:53:00+00:00,8.9,6.1,120.0,4.0,,9.0,1021.6738630000001,MVFR,,"[{""cover"": ""OVC"", ""base_ft_agl"": 2400.0}]",METAR KHVN 131053Z 12004KT 9SM OVC024 09/06 A3017 RMK AO2 SLP217 T00890061 $
KHVR,2026-04-13 10:53:00+00:00,2026-04-13 10:53:00+00:00,5.6,3.9,80.0,9.0,,10.0,1005.75783,VFR,-RA,"[{""cover"": ""OVC"", ""base_ft_agl"": 3800.0}]",METAR KHVR 131053Z AUTO 08009KT 10SM -RA OVC038 06/04 A2970 RMK AO2 SLP061 P0000 T00560039
KHVS,2026-04-13 10:55:00+00:00,2026-04-13 10:55:00+00:00,13.0,13.0,0.0,0.0,,4.0,1027.092087,MVFR,BR,,METAR KHVS 131055Z AUTO 00000KT 4SM BR CLR 13/13 A3033 RMK AO2
KHWD,2026-04-13 10:54:00+00:00,2026-04-13 10:54:00+00:00,11.1,10.0,150.0,5.0,,10.0,1017.6101950000001,MVFR,,"[{""cover"": ""BKN"", ""base_ft_agl"": 1800.0}, {""cover"": ""BKN"", ""base_ft_agl"": 2600.0}, {""cover"": ""OVC"", ""base_ft_agl"": 7000.0}]",METAR KHWD 131054Z AUTO 15005KT 10SM BKN018 BKN026 OVC070 11/10 A3005 RMK AO2 RAE13 SLP185 P0001 T01110100
KHWO,2026-04-13 10:53:00+00:00,2026-04-13 10:53:00+00:00,23.3,13.9,70.0,10.0,,10.0,1023.7056970000001,VFR,,"[{""cover"": ""FEW"", ""base_ft_agl"": 4300.0}, {""cover"": ""BKN"", ""base_ft_agl"": 5000.0}]",METAR KHWO 131053Z 07010KT 10SM FEW043 BKN050 23/14 A3023 RMK AO2 SLP236 T02330139 PNO $
KHWV,2026-04-13 10:56:00+00:00,2026-04-13 10:56:00+00:00,11.1,8.9,210.0,12.0,21.0,10.0,1022.3511410000001,MVFR,,"[{""cover"": ""OVC"", ""base_ft_agl"": 2900.0}]",METAR KHWV 131056Z AUTO 21012G21KT 10SM OVC029 11/09 A3019 RMK AO2 SLP224 T01110089 PWINO
KHWY,2026-04-13 10:55:00+00:00,2026-04-13 10:55:00+00:00,19.8,12.7,210.0,9.0,,10.0,1022.012502,VFR,,,METAR KHWY 131055Z AUTO 21009KT 10SM CLR 20/13 A3018 RMK AO2 T01980127
KHXD,2026-04-13 10:50:00+00:00,2026-04-13 10:50:00+00:00,14.0,14.0,0.0,0.0,,10.0,1027.430726,VFR,,,METAR KHXD 131050Z 00000KT 10SM CLR 14/14 A3034
KHYA,2026-04-13 10:56:00+00:00,2026-04-13 10:56:00+00:00,9.4,6.1,200.0,13.0,26.0,10.0,1022.3511410000001,VFR,,"[{""cover"": ""FEW"", ""base_ft_agl"": 2900.0}, {""cover"": ""OVC"", ""base_ft_agl"": 4100.0}]",METAR KHYA 131056Z 20013G26KT 10SM FEW029 OVC041 09/06 A3019 RMK AO2 PK WND 18026/1051 SLP224 T00940061 $
KHYI,2026-04-13 10:56:00+00:00,2026-04-13 10:56:00+00:00,21.7,21.1,170.0,9.0,,10.0,1018.2874730000001,IFR,,"[{""cover"": ""OVC"", ""base_ft_agl"": 800.0}]",METAR KHYI 131056Z AUTO 17009KT 10SM OVC008 22/21 A3007 RMK AO2 CIG 006V010 SLP177 T02170211 $
KHYR,2026-04-13 10:53:00+00:00,2026-04-13 10:53:00+00:00,10.0,9.4,20.0,5.0,,6.0,1007.7896640000001,IFR,BR,"[{""cover"": ""OVC"", ""base_ft_agl"": 700.0}]",METAR KHYR 131053Z AUTO 02005KT 6SM BR OVC007 10/09 A2976 RMK AO2 CIG 006V011 SLP077 T01000094 $
KHYS,2026-04-13 10:56:00+00:00,2026-04-13 10:56:00+00:00,13.3,7.8,220.0,10.0,,10.0,1006.435108,VFR,,,METAR KHYS 131056Z AUTO 22010KT 10SM CLR 13/08 A2972 RMK AO2 SLP050 T01330078 $
KHYW,2026-04-13 10:55:00+00:00,2026-04-13 10:55:00+00:00,11.0,11.0,0.0,0.0,,0.25,1027.769365,LIFR,FG,"[{""cover"": ""OVX"", ""base_ft_agl"": 0.0}]",METAR KHYW 131055Z AUTO 00000KT M1/4SM FG VV000 11/11 A3035 RMK AO2
KHYX,2026-04-13 10:55:00+00:00,2026-04-13 10:55:00+00:00,16.0,15.0,250.0,13.0,20.0,10.0,1007.7896640000001,MVFR,,"[{""cover"": ""OVC"", ""base_ft_agl"": 1000.0}]",METAR KHYX 131055Z AUTO 25013G20KT 10SM OVC010 16/15 A2976 RMK AO2 P0002
KHZD,2026-04-13 10:55:00+00:00,2026-04-13 10:55:00+00:00,22.0,15.0,200.0,8.0,14.0,10.0,1019.980668,VFR,,"[{""cover"": ""FEW"", ""base_ft_agl"": 3900.0}, {""cover"": ""SCT"", ""base_ft_agl"": 6000.0}, {""cover"": ""BKN"", ""base_ft_agl"": 8000.0}]",METAR KHZD 131055Z AUTO 20008G14KT 10SM FEW039 SCT060 BKN080 22/15 A3012 RMK A01
KHZE,2026-04-13 10:55:00+00:00,2026-04-13 10:55:00+00:00,3.0,3.0,60.0,7.0,,2.5,1009.821498,LIFR,BR,"[{""cover"": ""OVC"", ""base_ft_agl"": 300.0}]",METAR KHZE 131055Z AUTO 06007KT 2 1/2SM BR OVC003 03/03 A2982 RMK AO2
KHZL,2026-04-13 10:55:00+00:00,2026-04-13 10:55:00+00:00,10.0,8.0,170.0,4.0,,10.0,1020.657946,IFR,,"[{""cover"": ""OVC"", ""base_ft_agl"": 700.0}]",METAR KHZL 131055Z AUTO 17004KT 10SM OVC007 10/08 A3014 RMK AO2
KHZR,2026-04-13 10:55:00+00:00,2026-04-13 10:55:00+00:00,20.1,19.8,170.0,4.0,,10.0,1020.996585,IFR,,"[{""cover"": ""BKN"", ""base_ft_agl"": 900.0}]",METAR KHZR 131055Z AUTO 17004KT 10SM BKN009 20/20 A3015 RMK AO2 CIG 008V010 T02010198 $
KHZX,2026-04-13 10:55:00+00:00,2026-04-13 10:55:00+00:00,8.0,6.0,10.0,7.0,,10.0,1008.128303,MVFR,,"[{""cover"": ""OVC"", ""base_ft_agl"": 1000.0}]",METAR KHZX 131055Z AUTO 01007KT 10SM OVC010 08/06 A2977 RMK AO2
KHZY,2026-04-13 10:53:00+00:00,2026-04-13 10:53:00+00:00,19.4,10.0,220.0,12.0,18.0,10.0,1012.53061,VFR,,"[{""cover"": ""OVC"", ""base_ft_agl"": 5500.0}]",METAR KHZY 131053Z AUTO 22012G18KT 10SM OVC055 19/10 A2990 RMK AO2 PK WND 22034/1025 RAE0955 SLP119 P0000 T01940100 $
KI16,2026-04-13 10:55:00+00:00,2026-04-13 10:55:00+00:00,18.1,8.8,,,,10.0,1025.3988920000002,VFR,,"[{""cover"": ""SCT"", ""base_ft_agl"": 12000.0}]",METAR KI16 131055Z AUTO 10SM SCT120 18/09 A3028 RMK AO2 T01810088
KI23,2026-04-13 10:55:00+00:00,2026-04-13 10:55:00+00:00,19.0,12.0,230.0,14.0,22.0,10.0,1017.6101950000001,VFR,,"[{""cover"": ""SCT"", ""base_ft_agl"": 7000.0}, {""cover"": ""BKN"", ""base_ft_agl"": 9500.0}, {""cover"": ""OVC"", ""base_ft_agl"": 12000.0}]",METAR KI23 131055Z AUTO 23014G22KT 10SM SCT070 BKN095 OVC120 19/12 A3005 RMK AO2
KI35,2026-04-13 10:55:00+00:00,2026-04-13 10:55:00+00:00,21.0,5.1,260.0,4.0,,10.0,1024.382975,VFR,,"[{""cover"": ""SCT"", ""base_ft_agl"": 7000.0}, {""cover"": ""OVC"", ""base_ft_agl"": 9500.0}]",METAR KI35 131055Z AUTO 26004KT 10SM SCT070 OVC095 21/05 A3025 RMK AO2 T02100051
KI40,2026-04-13 10:55:00+00:00,2026-04-13 10:55:00+00:00,22.0,9.0,240.0,12.0,21.0,10.0,1017.6101950000001,VFR,-RA,"[{""cover"": ""OVC"", ""base_ft_agl"": 6000.0}]",METAR KI40 131055Z AUTO 24012G21KT 213V283 10SM -RA OVC060 22/09 A3005 RMK AO2
KI63,2026-04-13 10:55:00+00:00,2026-04-13 10:55:00+00:00,18.5,15.8,220.0,11.0,16.0,10.0,1012.8692490000001,VFR,,,METAR KI63 131055Z AUTO 22011G16KT 10SM CLR 19/16 A2991 RMK AO2 T01850158
KI67,2026-04-13 10:55:00+00:00,2026-04-13 10:55:00+00:00,19.0,13.0,210.0,5.0,,10.0,1017.271556,VFR,,,METAR KI67 131055Z AUTO 21005KT 10SM CLR 19/13 A3004 RMK AO1
KI68,2026-04-13 10:55:00+00:00,2026-04-13 10:55:00+00:00,20.0,15.0,220.0,8.0,14.0,10.0,1017.271556,VFR,,"[{""cover"": ""BKN"", ""base_ft_agl"": 4400.0}]",METAR KI68 131055Z AUTO 22008G14KT 10SM BKN044 20/15 A3004 RMK AO2
KI69,2026-04-13 10:56:00+00:00,2026-04-13 10:56:00+00:00,21.5,11.1,220.0,7.0,19.0,10.0,1018.6261119999999,VFR,,"[{""cover"": ""SCT"", ""base_ft_agl"": 4800.0}, {""cover"": ""SCT"", ""base_ft_agl"": 6000.0}, {""cover"": ""BKN"", ""base_ft_agl"": 12000.0}]",METAR KI69 131056Z AUTO 22007G19KT 10SM SCT048 SCT060 BKN120 22/11 A3008 RMK AO1 T02150111
KI74,2026-04-13 10:55:00+00:00,2026-04-13 10:55:00+00:00,20.0,12.0,240.0,7.0,,10.0,1016.594278,VFR,,"[{""cover"": ""SCT"", ""base_ft_agl"": 4100.0}, {""cover"": ""OVC"", ""base_ft_agl"": 10000.0}]",METAR KI74 131055Z AUTO 24007KT 10SM SCT041 OVC100 20/12 A3002 RMK AO2
KI75,2026-04-13 10:55:00+00:00,2026-04-13 10:55:00+00:00,,,180.0,12.0,16.0,7.0,1009.14422,VFR,,,METAR KI75 131055Z AUTO 18012G16KT 7SM CLR A2980 RMK AO2
KI93,2026-04-13 10:55:00+00:00,2026-04-13 10:55:00+00:00,21.0,13.0,210.0,7.0,,10.0,1019.30339,VFR,,"[{""cover"": ""OVC"", ""base_ft_agl"": 6500.0}]",METAR KI93 131055Z AUTO 21007KT 10SM OVC065 21/13 A3010 RMK AO2
KI95,2026-04-13 10:55:00+00:00,2026-04-13 10:55:00+00:00,19.0,13.0,230.0,18.0,,10.0,1014.562444,VFR,,"[{""cover"": ""FEW"", ""base_ft_agl"": 3800.0}]",METAR KI95 131055Z AUTO 23018KT 10SM FEW038 19/13 A2996 RMK A01
KIAD,2026-04-13 10:52:00+00:00,2026-04-13 10:52:00+00:00,17.8,13.9,190.0,9.0,,10.0,1021.335224,VFR,,"[{""cover"": ""SCT"", ""base_ft_agl"": 17000.0}, {""cover"": ""BKN"", ""base_ft_agl"": 24000.0}]",METAR KIAD 131052Z 19009KT 10SM SCT170 BKN240 18/14 A3016 RMK AO2 SLP209 T01780139 $
KIAG,2026-04-13 10:53:00+00:00,2026-04-13 10:53:00+00:00,15.6,10.0,240.0,21.0,33.0,7.0,1010.8374150000001,VFR,-RA,"[{""cover"": ""FEW"", ""base_ft_agl"": 6000.0}, {""cover"": ""BKN"", ""base_ft_agl"": 7000.0}, {""cover"": ""OVC"", ""base_ft_agl"": 8500.0}]",METAR KIAG 131053Z 24021G33KT 7SM -RA FEW060 BKN070 OVC085 16/10 A2985 RMK AO2 PK WND 24033/1048 RAB48 SLP109 P0000 T01560100
KIAH,2026-04-13 10:53:00+00:00,2026-04-13 10:53:00+00:00,22.2,21.1,140.0,7.0,,10.0,1019.30339,MVFR,,"[{""cover"": ""SCT"", ""base_ft_agl"": 1800.0}, {""cover"": ""BKN"", ""base_ft_agl"": 2500.0}, {""cover"": ""OVC"", ""base_ft_agl"": 3300.0}]",METAR KIAH 131053Z 14007KT 10SM SCT018 BKN025 OVC033 22/21 A3010 RMK AO2 SLP191 T02220211
KIBM,2026-04-13 10:55:00+00:00,2026-04-13 10:55:00+00:00,12.0,-6.3,310.0,11.0,,10.0,1008.805581,VFR,,,METAR KIBM 131055Z AUTO 31011KT 10SM CLR 12/M06 A2979 RMK AO2 T01201063
KICL,2026-04-13 10:55:00+00:00,2026-04-13 10:55:00+00:00,19.0,19.0,190.0,10.0,,10.0,1007.7896640000001,MVFR,,"[{""cover"": ""OVC"", ""base_ft_agl"": 1800.0}]",METAR KICL 131055Z AUTO 19010KT 10SM OVC018 19/19 A2976 RMK AO2
KICR,2026-04-13 10:53:00+00:00,2026-04-13 10:53:00+00:00,13.9,7.2,110.0,11.0,,10.0,1004.064635,VFR,,"[{""cover"": ""SCT"", ""base_ft_agl"": 10000.0}]",METAR KICR 131053Z AUTO 11011KT 10SM SCT100 14/07 A2965 RMK AO2 LTG DSNT NE AND E SLP029 T01390072
KICT,2026-04-13 10:53:00+00:00,2026-04-13 10:53:00+00:00,20.6,18.3,190.0,19.0,26.0,10.0,1009.482859,MVFR,,"[{""cover"": ""OVC"", ""base_ft_agl"": 1300.0}]",METAR KICT 131053Z 19019G26KT 10SM OVC013 21/18 A2981 RMK AO2 PK WND 19026/1047 SLP079 T02060183
KIDA,2026-04-13 10:53:00+00:00,2026-04-13 10:53:00+00:00,3.9,-1.1,200.0,13.0,22.0,10.0,1013.2078880000001,VFR,,,METAR KIDA 131053Z AUTO 20013G22KT 10SM CLR 04/M01 A2992 RMK AO2 SLP124 T00391011
KIDI,2026-04-13 10:55:00+00:00,2026-04-13 10:55:00+00:00,20.0,8.0,220.0,11.0,19.0,10.0,1017.271556,VFR,,,METAR KIDI 131055Z AUTO 22011G19KT 10SM CLR 20/08 A3004 RMK A01
KIDP,2026-04-13 10:55:00+00:00,2026-04-13 10:55:00+00:00,21.0,19.0,180.0,13.0,,10.0,1011.853332,MVFR,,"[{""cover"": ""OVC"", ""base_ft_agl"": 2100.0}]",METAR KIDP 131055Z AUTO 18013KT 10SM OVC021 21/19 A2988 RMK AO2
KIEN,2026-04-13 10:52:00+00:00,2026-04-13 10:52:00+00:00,8.9,0.6,300.0,4.0,,10.0,1006.0964690000001,VFR,,,METAR KIEN 131052Z AUTO 30004KT 10SM CLR 09/01 A2971 RMK AO2 SLP039 T00890006
KIER,2026-04-13 10:55:00+00:00,2026-04-13 10:55:00+00:00,18.5,18.5,0.0,0.0,,2.0,1020.996585,IFR,BR,"[{""cover"": ""BKN"", ""base_ft_agl"": 1400.0}, {""cover"": ""OVC"", ""base_ft_agl"": 1800.0}]",METAR KIER 131055Z AUTO 00000KT 2SM BR BKN014 OVC018 19/19 A3015 RMK AO2 VIS 1/2V5 T01850185 PNO
KIFA,2026-04-13 10:55:00+00:00,2026-04-13 10:55:00+00:00,13.6,11.3,170.0,3.0,,0.75,1008.805581,LIFR,HZ,"[{""cover"": ""SCT"", ""base_ft_agl"": 200.0}]",METAR KIFA 131055Z AUTO 17003KT 3/4SM HZ SCT002 14/11 A2979 RMK AO2 T01360113
KIFP,2026-04-13 10:55:00+00:00,2026-04-13 10:55:00+00:00,18.0,1.0,180.0,10.0,,10.0,1012.1919710000001,VFR,,"[{""cover"": ""OVC"", ""base_ft_agl"": 7000.0}]",METAR KIFP 131055Z AUTO 18010KT 10SM OVC070 18/01 A2989 RMK AO2
KIGM,2026-04-13 10:51:00+00:00,2026-04-13 10:51:00+00:00,10.0,2.8,190.0,7.0,,10.0,1014.562444,VFR,,"[{""cover"": ""FEW"", ""base_ft_agl"": 6000.0}]",METAR KIGM 131051Z AUTO 19007KT 10SM FEW060 10/03 A2996 RMK AO2 SLP096 T01000028
KIGQ,2026-04-13 10:55:00+00:00,2026-04-13 10:55:00+00:00,17.3,15.0,240.0,8.0,,10.0,1012.53061,MVFR,,"[{""cover"": ""BKN"", ""base_ft_agl"": 2700.0}, {""cover"": ""BKN"", ""base_ft_agl"": 3300.0}, {""cover"": ""BKN"", ""base_ft_agl"": 4100.0}]",METAR KIGQ 131055Z AUTO 24008KT 10SM BKN027 BKN033 BKN041 17/15 A2990 RMK AO2 T01730150
KIIB,2026-04-13 10:55:00+00:00,2026-04-13 10:55:00+00:00,15.1,14.9,200.0,6.0,,5.0,1009.821498,LIFR,BR,"[{""cover"": ""OVC"", ""base_ft_agl"": 200.0}]",METAR KIIB 131055Z AUTO 20006KT 5SM BR OVC002 15/15 A2982 RMK AO2 T01510149
KIIY,2026-04-13 10:55:00+00:00,2026-04-13 10:55:00+00:00,14.3,,190.0,4.0,,10.0,1027.430726,VFR,,,METAR KIIY 131055Z AUTO 19004KT 10SM CLR 14/ A3034 RMK AO2 T0143////
KIJD,2026-04-13 10:52:00+00:00,2026-04-13 10:52:00+00:00,10.0,6.1,180.0,6.0,,10.0,1021.6738630000001,MVFR,,"[{""cover"": ""OVC"", ""base_ft_agl"": 1800.0}]",METAR KIJD 131052Z AUTO 18006KT 10SM OVC018 10/06 A3017 RMK AO2 SLP216 T01000061
KIJX,2026-04-13 10:55:00+00:00,2026-04-13 10:55:00+00:00,18.3,15.5,200.0,9.0,,10.0,1013.546527,VFR,,,METAR KIJX 131055Z AUTO 20009KT 10SM CLR 18/16 A2993 RMK AO2 T01830155
KIKG,2026-04-13 10:55:00+00:00,2026-04-13 10:55:00+00:00,23.1,22.0,100.0,7.0,,10.0,1017.271556,IFR,,"[{""cover"": ""OVC"", ""base_ft_agl"": 600.0}]",METAR KIKG 131055Z AUTO 10007KT 10SM OVC006 23/22 A3004 RMK AO2 T02310220
KIKK,2026-04-13 10:55:00+00:00,2026-04-13 10:55:00+00:00,17.2,15.3,230.0,10.0,,10.0,1013.2078880000001,VFR,,"[{""cover"": ""SCT"", ""base_ft_agl"": 5000.0}]",METAR KIKK 131055Z AUTO 23010KT 10SM SCT050 17/15 A2992 RMK AO2 T01720153
KIKT,2026-04-13 10:55:00+00:00,2026-04-13 10:55:00+00:00,23.0,6.0,130.0,14.0,,4.0,1023.367058,MVFR,HZ,"[{""cover"": ""OVC"", ""base_ft_agl"": 3900.0}]",METAR KIKT 131055Z AUTO 13014KT 4SM HZ OVC039 23/06 A3022 RMK A01
KIKV,2026-04-13 10:55:00+00:00,2026-04-13 10:55:00+00:00,17.0,17.0,180.0,7.0,,10.0,1008.466942,MVFR,,"[{""cover"": ""OVC"", ""base_ft_agl"": 1300.0}]",METAR KIKV 131055Z AUTO 18007KT 10SM OVC013 17/17 A2978 RMK AO2
KIKW,2026-04-13 10:55:00+00:00,2026-04-13 10:55:00+00:00,16.0,14.0,240.0,9.0,,10.0,1007.112386,MVFR,,"[{""cover"": ""OVC"", ""base_ft_agl"": 1100.0}]",METAR KIKW 131055Z AUTO 24009KT 10SM OVC011 16/14 A2974 RMK AO2
KILE,2026-04-13 10:56:00+00:00,2026-04-13 10:56:00+00:00,21.7,,160.0,8.0,,10.0,1017.948834,MVFR,,"[{""cover"": ""OVC"", ""base_ft_agl"": 1200.0}]",METAR KILE 131056Z AUTO 16008KT 10SM OVC012 22/ A3006 RMK AO2 SLP170 T0217
KILG,2026-04-13 10:51:00+00:00,2026-04-13 10:51:00+00:00,13.9,10.0,180.0,5.0,,10.0,1021.335224,VFR,,,METAR KILG 131051Z 18005KT 10SM CLR 14/10 A3016 RMK AO2 SLP213 T01390100 $
KILM,2026-04-13 10:58:00+00:00,2026-04-13 10:58:00+00:00,12.8,12.8,0.0,0.0,,0.5,1027.769365,LIFR,FG,"[{""cover"": ""OVX"", ""base_ft_agl"": 300.0}]",SPECI KILM 131058Z 00000KT 1/2SM R35/1800VP6000FT FG VV003 13/13 A3035 RMK AO2 TWR VIS 10 T01280128
KILN,2026-04-13 10:54:00+00:00,2026-04-13 10:54:00+00:00,20.0,11.7,240.0,14.0,25.0,10.0,1017.6101950000001,VFR,,"[{""cover"": ""OVC"", ""base_ft_agl"": 11000.0}]",METAR KILN 131054Z AUTO 24014G25KT 10SM OVC110 20/12 A3005 RMK AO2 PK WND 24032/1015 RAE32 SLP170 P0000 T02000117
KIML,2026-04-13 10:53:00+00:00,2026-04-13 10:53:00+00:00,7.2,-0.6,310.0,7.0,,10.0,1004.403274,VFR,,,METAR KIML 131053Z AUTO 31007KT 10SM CLR 07/M01 A2966 RMK AO2 SLP022 T00721006
KIMS,2026-04-13 10:57:00+00:00,2026-04-13 10:57:00+00:00,22.0,13.0,210.0,7.0,,10.0,1018.964751,VFR,,"[{""cover"": ""SCT"", ""base_ft_agl"": 4200.0}, {""cover"": ""OVC"", ""base_ft_agl"": 5000.0}]",METAR KIMS 131057Z AUTO 21007KT 10SM SCT042 OVC050 22/13 A3009 RMK AO1
KIMT,2026-04-13 10:54:00+00:00,2026-04-13 10:54:00+00:00,13.9,11.7,290.0,11.0,,10.0,1004.403274,MVFR,,"[{""cover"": ""OVC"", ""base_ft_agl"": 1600.0}]",METAR KIMT 131054Z AUTO 29011KT 10SM OVC016 14/12 A2966 RMK AO2 SLP047 T01390117
KIND,2026-04-13 10:54:00+00:00,2026-04-13 10:54:00+00:00,20.0,12.8,230.0,13.0,,10.0,1015.917,VFR,,"[{""cover"": ""BKN"", ""base_ft_agl"": 5000.0}, {""cover"": ""BKN"", ""base_ft_agl"": 25000.0}]",METAR KIND 131054Z 23013KT 10SM BKN050 BKN250 20/13 A3000 RMK AO2 SLP151 T02000128 PNO $
KINF,2026-04-13 10:55:00+00:00,2026-04-13 10:55:00+00:00,12.0,12.0,0.0,0.0,,5.0,1026.07617,MVFR,BR,,METAR KINF 131055Z AUTO 00000KT 5SM BR CLR 12/12 A3030 RMK AO2
KINJ,2026-04-13 10:55:00+00:00,2026-04-13 10:55:00+00:00,21.0,21.0,160.0,10.0,15.0,5.0,1017.6101950000001,IFR,BR,"[{""cover"": ""OVC"", ""base_ft_agl"": 700.0}]",METAR KINJ 131055Z AUTO 16010G15KT 5SM BR OVC007 21/21 A3005 RMK AO2 T02100210
KINL,2026-04-13 10:54:00+00:00,2026-04-13 10:54:00+00:00,2.8,2.2,300.0,8.0,,4.0,1008.466942,LIFR,BR,"[{""cover"": ""OVC"", ""base_ft_agl"": 300.0}]",METAR KINL 131054Z AUTO 30008KT 4SM BR OVC003 03/02 A2978 RMK AO2 SLP094 T00280022 $
KINS,2026-04-13 10:55:00+00:00,2026-04-13 10:55:00+00:00,6.1,-9.8,0.0,0.0,,10.0,1012.53061,VFR,,,METAR KINS 131055Z 00000KT 10SM CLR 06/M10 A2990 RMK AO2A SLP102 T00611098 $
KINW,2026-04-13 10:56:00+00:00,2026-04-13 10:56:00+00:00,7.2,1.1,0.0,0.0,,10.0,1016.9329170000001,VFR,,,METAR KINW 131056Z AUTO 00000KT 10SM CLR 07/01 A3003 RMK AO2 SLP127 T00720011
KIOB,2026-04-13 10:55:00+00:00,2026-04-13 10:55:00+00:00,21.0,10.0,240.0,9.0,16.0,10.0,1020.996585,VFR,,"[{""cover"": ""BKN"", ""base_ft_agl"": 6000.0}]",METAR KIOB 131055Z AUTO 24009G16KT 10SM BKN060 21/10 A3015 RMK AO2 PWINO
KIOW,2026-04-13 10:52:00+00:00,2026-04-13 10:52:00+00:00,12.8,,150.0,4.0,,0.25,1010.498776,LIFR,FG,"[{""cover"": ""BKN"", ""base_ft_agl"": 200.0}, {""cover"": ""OVC"", ""base_ft_agl"": 1500.0}]",METAR KIOW 131052Z AUTO 15004KT 1/4SM FG BKN002 OVC015 13/ A2984 RMK AO2 SLP103 T0128 $
KIPJ,2026-04-13 10:55:00+00:00,2026-04-13 10:55:00+00:00,12.6,11.2,0.0,0.0,,10.0,1027.092087,VFR,,,METAR KIPJ 131055Z AUTO 00000KT 10SM CLR 13/11 A3033 RMK AO2 T01260112
KIPL,2026-04-13 10:53:00+00:00,2026-04-13 10:53:00+00:00,19.4,10.0,260.0,14.0,21.0,10.0,1013.546527,VFR,,"[{""cover"": ""OVC"", ""base_ft_agl"": 6500.0}]",METAR KIPL 131053Z AUTO 26014G21KT 10SM OVC065 19/10 A2993 RMK AO2 SLP134 T01940100
KIPT,2026-04-13 10:54:00+00:00,2026-04-13 10:54:00+00:00,12.8,8.3,100.0,7.0,15.0,10.0,1018.2874730000001,VFR,,,METAR KIPT 131054Z 10007G15KT 10SM CLR 13/08 A3007 RMK AO2 SLP181 T01280083 $
KIRK,2026-04-13 10:55:00+00:00,2026-04-13 10:55:00+00:00,18.9,16.7,210.0,10.0,,10.0,1011.853332,MVFR,,"[{""cover"": ""OVC"", ""base_ft_agl"": 2300.0}]",METAR KIRK 131055Z AUTO 21010KT 10SM OVC023 19/17 A2988 RMK AO2 SLP118 T01890167 $
KIRS,2026-04-13 11:02:00+00:00,2026-04-13 11:02:00+00:00,17.0,16.0,250.0,12.0,17.0,10.0,1012.1919710000001,MVFR,-RA,"[{""cover"": ""OVC"", ""base_ft_agl"": 1600.0}]",METAR KIRS 131102Z AUTO 25012G17KT 10SM -RA OVC016 17/16 A2989 RMK AO2
KISM,2026-04-13 10:56:00+00:00,2026-04-13 10:56:00+00:00,17.2,14.4,0.0,0.0,,10.0,1025.737531,VFR,,,METAR KISM 131056Z 00000KT 10SM CLR 17/14 A3029 RMK AO2 SLP260 T01720144 $
KISO,2026-04-13 10:52:00+00:00,2026-04-13 10:52:00+00:00,13.0,13.0,0.0,0.0,,10.0,1027.769365,VFR,,,METAR KISO 131052Z 00000KT 10SM CLR 13/13 A3035
KISP,2026-04-13 10:56:00+00:00,2026-04-13 10:56:00+00:00,10.6,8.9,200.0,11.0,21.0,10.0,1022.012502,MVFR,,"[{""cover"": ""FEW"", ""base_ft_agl"": 1000.0}, {""cover"": ""BKN"", ""base_ft_agl"": 2600.0}, {""cover"": ""BKN"", ""base_ft_agl"": 24000.0}]",METAR KISP 131056Z 20011G21KT 10SM FEW010 BKN026 BKN240 11/09 A3018 RMK AO2 SLP220 T01060089
KISQ,2026-04-13 10:55:00+00:00,2026-04-13 10:55:00+00:00,9.9,9.8,340.0,9.0,14.0,2.5,1004.403274,LIFR,BR,"[{""cover"": ""OVC"", ""base_ft_agl"": 300.0}]",METAR KISQ 131055Z AUTO 34009G14KT 2 1/2SM BR OVC003 10/10 A2966 RMK AO2 T00990098
KISW,2026-04-13 10:54:00+00:00,2026-04-13 10:54:00+00:00,14.4,13.3,240.0,6.0,,10.0,1007.4510250000001,VFR,,,METAR KISW 131054Z AUTO 24006KT 10SM CLR 14/13 A2975 RMK AO2 SLP071 T01440133 $
KITH,2026-04-13 10:56:00+00:00,2026-04-13 10:56:00+00:00,13.3,6.7,160.0,11.0,,10.0,1015.239722,VFR,,"[{""cover"": ""OVC"", ""base_ft_agl"": 13000.0}]",METAR KITH 131056Z 16011KT 10SM OVC130 13/07 A2998 RMK AO2 SLP150 T01330067
KITR,2026-04-13 10:53:00+00:00,2026-04-13 10:53:00+00:00,10.6,-6.1,230.0,12.0,,10.0,1008.466942,VFR,,,METAR KITR 131053Z AUTO 23012KT 10SM CLR 11/M06 A2978 RMK AO2 SLP041 T01061061
KIUA,2026-04-13 10:55:00+00:00,2026-04-13 10:55:00+00:00,16.5,7.2,170.0,5.0,,10.0,1011.853332,VFR,,,METAR KIUA 131055Z AUTO 17005KT 10SM CLR 17/07 A2988 RMK AO2 T01650072
KIWA,2026-04-13 10:55:00+00:00,2026-04-13 10:55:00+00:00,17.8,4.6,120.0,6.0,,10.0,1014.901083,VFR,,"[{""cover"": ""BKN"", ""base_ft_agl"": 7000.0}]",METAR KIWA 131055Z AUTO 12006KT 10SM BKN070 18/05 A2997 RMK AO2 T01780046
KIWD,2026-04-13 10:56:00+00:00,2026-04-13 10:56:00+00:00,9.4,9.4,280.0,6.0,,10.0,1007.112386,MVFR,,"[{""cover"": ""OVC"", ""base_ft_agl"": 1500.0}]",METAR KIWD 131056Z AUTO 28006KT 10SM OVC015 09/09 A2974 RMK AO2 SLP072 T00940094
KIWI,2026-04-13 10:53:00+00:00,2026-04-13 10:53:00+00:00,7.2,5.0,190.0,10.0,21.0,7.0,1020.996585,IFR,-RA,"[{""cover"": ""OVC"", ""base_ft_agl"": 800.0}]",METAR KIWI 131053Z AUTO 19010G21KT 7SM -RA OVC008 07/05 A3015 RMK AO2 CIG 005V012 SLP208 P0008 T00720050
KIXA,2026-04-13 10:55:00+00:00,2026-04-13 10:55:00+00:00,13.0,13.0,190.0,5.0,,10.0,1026.4148089999999,VFR,,,METAR KIXA 131055Z AUTO 19005KT 10SM CLR 13/13 A3031 RMK AO2
KIXD,2026-04-13 10:53:00+00:00,2026-04-13 10:53:00+00:00,20.6,17.8,190.0,19.0,26.0,10.0,1010.160137,MVFR,,"[{""cover"": ""OVC"", ""base_ft_agl"": 2000.0}]",METAR KIXD 131053Z 19019G26KT 10SM OVC020 21/18 A2983 RMK AO2 PK WND 18027/1016 SLP092 T02060178 $
KIYA,2026-04-13 10:55:00+00:00,2026-04-13 10:55:00+00:00,20.0,20.0,140.0,3.0,,9.0,1020.319307,VFR,,"[{""cover"": ""FEW"", ""base_ft_agl"": 2300.0}]",METAR KIYA 131055Z AUTO 14003KT 9SM FEW023 20/20 A3013 RMK AO2 T02000200
KIZA,2026-04-13 10:55:00+00:00,2026-04-13 10:55:00+00:00,5.0,5.0,0.0,0.0,,10.0,1017.271556,VFR,,"[{""cover"": ""FEW"", ""base_ft_agl"": 7000.0}]",METAR KIZA 131055Z AUTO 00000KT 10SM FEW070 05/05 A3004 RMK AO2
KIZG,2026-04-13 10:54:00+00:00,2026-04-13 10:54:00+00:00,5.0,3.3,0.0,0.0,,10.0,1018.6261119999999,MVFR,,"[{""cover"": ""BKN"", ""base_ft_agl"": 1400.0}]",METAR KIZG 131054Z AUTO 00000KT 10SM BKN014 05/03 A3008 RMK AO2 RAE40 SLP190 P0001 T00500033
KJAC,2026-04-13 10:56:00+00:00,2026-04-13 10:56:00+00:00,-0.6,-2.2,220.0,7.0,,10.0,1012.53061,VFR,,"[{""cover"": ""FEW"", ""base_ft_agl"": 4300.0}, {""cover"": ""OVC"", ""base_ft_agl"": 10000.0}]",METAR KJAC 131056Z AUTO 22007KT 10SM FEW043 OVC100 M01/M02 A2990 RMK AO2 SLP128 T10061022 FZRANO
KJAN,2026-04-13 10:54:00+00:00,2026-04-13 10:54:00+00:00,18.9,17.2,170.0,7.0,,10.0,1021.6738630000001,VFR,,,METAR KJAN 131054Z 17007KT 10SM CLR 19/17 A3017 RMK AO2 SLP211 T01890172
KJAQ,2026-04-13 10:55:00+00:00,2026-04-13 10:55:00+00:00,6.5,6.5,0.0,0.0,,10.0,1017.271556,VFR,,"[{""cover"": ""SCT"", ""base_ft_agl"": 3100.0}, {""cover"": ""SCT"", ""base_ft_agl"": 4600.0}, {""cover"": ""OVC"", ""base_ft_agl"": 6000.0}]",METAR KJAQ 131055Z AUTO 00000KT 10SM SCT031 SCT046 OVC060 07/07 A3004 RMK AO1 T00650065
KJAS,2026-04-13 10:55:00+00:00,2026-04-13 10:55:00+00:00,19.0,19.0,0.0,0.0,,3.0,1020.319307,LIFR,BR,"[{""cover"": ""BKN"", ""base_ft_agl"": 400.0}, {""cover"": ""OVC"", ""base_ft_agl"": 900.0}]",METAR KJAS 131055Z AUTO 00000KT 3SM BR BKN004 OVC009 19/19 A3013 RMK AO2 LTG DSNT NW
KJAU,2026-04-13 10:50:00+00:00,2026-04-13 10:50:00+00:00,19.0,7.0,30.0,5.0,,10.0,1023.367058,VFR,,"[{""cover"": ""FEW"", ""base_ft_agl"": 5500.0}, {""cover"": ""BKN"", ""base_ft_agl"": 9000.0}, {""cover"": ""OVC"", ""base_ft_agl"": 12000.0}]",METAR KJAU 131050Z AUTO 03005KT 10SM FEW055 BKN090 OVC120 19/07 A3022 RMK A01
KJAX,2026-04-13 10:56:00+00:00,2026-04-13 10:56:00+00:00,11.7,10.6,0.0,0.0,,10.0,1026.07617,VFR,,"[{""cover"": ""FEW"", ""base_ft_agl"": 100.0}, {""cover"": ""BKN"", ""base_ft_agl"": 25000.0}]",METAR KJAX 131056Z 00000KT 10SM FEW001 BKN250 12/11 A3030 RMK AO2 SLP262 T01170106 $
KJBR,2026-04-13 11:02:00+00:00,2026-04-13 11:02:00+00:00,22.8,15.0,200.0,13.0,,10.0,1018.964751,MVFR,,"[{""cover"": ""OVC"", ""base_ft_agl"": 2900.0}]",SPECI KJBR 131102Z AUTO 20013KT 10SM OVC029 23/15 A3009 RMK AO2 T02280150 $
KJCA,2026-04-13 10:55:00+00:00,2026-04-13 10:55:00+00:00,12.3,10.3,0.0,0.0,,10.0,1027.430726,VFR,,,METAR KJCA 131055Z AUTO 00000KT 10SM CLR 12/10 A3034 RMK AO2 T01230103
KJCT,2026-04-13 10:51:00+00:00,2026-04-13 10:51:00+00:00,22.2,20.6,0.0,4.0,,10.0,1017.6101950000001,MVFR,,"[{""cover"": ""OVC"", ""base_ft_agl"": 1800.0}]",METAR KJCT 131051Z AUTO VRB04KT 10SM OVC018 22/21 A3005 RMK AO2 SLP140 T02220206 $
KJDD,2026-04-13 10:55:00+00:00,2026-04-13 10:55:00+00:00,19.6,17.4,240.0,6.0,,10.0,1017.271556,VFR,,,METAR KJDD 131055Z AUTO 24006KT 10SM CLR 20/17 A3004 RMK AO2 T01960174 $
KJDN,2026-04-13 10:48:00+00:00,2026-04-13 10:48:00+00:00,5.0,0.6,80.0,5.0,,,1006.435108,,,,METAR KJDN 131048Z AUTO 08005KT 05/01 A2972 RMK AO1 SLP067 T00500006
KJER,2026-04-13 10:53:00+00:00,2026-04-13 10:53:00+00:00,2.8,-2.2,170.0,7.0,,10.0,1013.546527,VFR,,"[{""cover"": ""FEW"", ""base_ft_agl"": 8000.0}]",METAR KJER 131053Z AUTO 17007KT 10SM FEW080 03/M02 A2993 RMK AO2 SLP137 T00281022
KJES,2026-04-13 10:50:00+00:00,2026-04-13 10:50:00+00:00,10.0,9.0,0.0,0.0,,10.0,1028.108004,VFR,,,METAR KJES 131050Z AUTO 00000KT 10SM 10/09 A3036 RMK AO2
KJFK,2026-04-13 10:51:00+00:00,2026-04-13 10:51:00+00:00,10.0,8.9,190.0,9.0,,10.0,1022.012502,MVFR,,"[{""cover"": ""OVC"", ""base_ft_agl"": 2100.0}]",METAR KJFK 131051Z 19009KT 10SM OVC021 10/09 A3018 RMK AO2 SLP218 T01000089 $
KJFX,2026-04-13 10:55:00+00:00,2026-04-13 10:55:00+00:00,12.0,12.0,0.0,0.0,,4.0,1024.721614,MVFR,BR,,METAR KJFX 131055Z AUTO 00000KT 4SM BR CLR 12/12 A3026 RMK AO2
KJFZ,2026-04-13 10:55:00+00:00,2026-04-13 10:55:00+00:00,16.0,4.7,270.0,7.0,,10.0,1025.737531,VFR,,,METAR KJFZ 131055Z AUTO 27007KT 10SM CLR 16/05 A3029 RMK AO2 T01600047
KJGG,2026-04-13 10:55:00+00:00,2026-04-13 10:55:00+00:00,,,0.0,6.0,,10.0,1025.3988920000002,MVFR,,"[{""cover"": ""OVC"", ""base_ft_agl"": 1600.0}]",METAR KJGG 131055Z AUTO VRB06KT 10SM OVC016 A3028 RMK AO2 CIG 013V020 $
KJHN,2026-04-13 10:55:00+00:00,2026-04-13 10:55:00+00:00,13.0,-5.0,230.0,8.0,,10.0,1008.466942,VFR,,,METAR KJHN 131055Z AUTO 23008KT 10SM CLR 13/M05 A2978 RMK AO2
KJHW,2026-04-13 10:56:00+00:00,2026-04-13 10:56:00+00:00,16.7,8.9,240.0,14.0,21.0,10.0,1014.223805,VFR,-RA,"[{""cover"": ""FEW"", ""base_ft_agl"": 6000.0}, {""cover"": ""SCT"", ""base_ft_agl"": 7500.0}, {""cover"": ""OVC"", ""base_ft_agl"": 9000.0}]",METAR KJHW 131056Z AUTO 24014G21KT 10SM -RA FEW060 SCT075 OVC090 17/09 A2995 RMK AO2 RAB23 SLP140 P0000 T01670089
KJKA,2026-04-13 10:55:00+00:00,2026-04-13 10:55:00+00:00,14.0,14.0,0.0,0.0,,0.5,1024.044336,LIFR,FG,"[{""cover"": ""OVX"", ""base_ft_agl"": 500.0}]",METAR KJKA 131055Z AUTO 00000KT 1/2SM FG VV005 14/14 A3024 RMK AO2
KJKJ,2026-04-13 10:55:00+00:00,2026-04-13 10:55:00+00:00,4.0,3.0,360.0,12.0,,3.0,1010.160137,LIFR,BR,"[{""cover"": ""OVC"", ""base_ft_agl"": 300.0}]",METAR KJKJ 131055Z AUTO 36012KT 3SM BR OVC003 04/03 A2983 RMK AO2
KJKL,2026-04-13 10:53:00+00:00,2026-04-13 10:53:00+00:00,21.1,7.2,230.0,5.0,,10.0,1022.68978,VFR,,"[{""cover"": ""OVC"", ""base_ft_agl"": 7500.0}]",METAR KJKL 131053Z AUTO 23005KT 10SM OVC075 21/07 A3020 RMK AO2 RAB0959E13 SLP210 P0000 T02110072 $
KJLN,2026-04-13 10:53:00+00:00,2026-04-13 10:53:00+00:00,21.1,17.2,190.0,18.0,24.0,10.0,1013.546527,MVFR,,"[{""cover"": ""OVC"", ""base_ft_agl"": 2400.0}]",METAR KJLN 131053Z 19018G24KT 10SM OVC024 21/17 A2993 RMK AO2 PK WND 19027/1037 SLP125 T02110172
KJMR,2026-04-13 10:55:00+00:00,2026-04-13 10:55:00+00:00,10.0,8.0,0.0,0.0,,10.0,1009.14422,MVFR,,"[{""cover"": ""OVC"", ""base_ft_agl"": 1100.0}]",METAR KJMR 131055Z AUTO 00000KT 10SM OVC011 10/08 A2980 RMK AO2
KJMS,2026-04-13 10:56:00+00:00,2026-04-13 10:56:00+00:00,4.4,3.3,20.0,6.0,,10.0,1010.160137,IFR,,"[{""cover"": ""OVC"", ""base_ft_agl"": 600.0}]",METAR KJMS 131056Z AUTO 02006KT 10SM OVC006 04/03 A2983 RMK AO2 SLP104 T00440033
KJNX,2026-04-13 10:55:00+00:00,2026-04-13 10:55:00+00:00,13.0,13.0,0.0,0.0,,3.0,1027.092087,MVFR,BR,,METAR KJNX 131055Z AUTO 00000KT 3SM BR CLR 13/13 A3033 RMK AO2
KJOT,2026-04-13 10:55:00+00:00,2026-04-13 10:55:00+00:00,18.5,17.1,230.0,3.0,,10.0,1012.1919710000001,MVFR,,"[{""cover"": ""OVC"", ""base_ft_agl"": 2500.0}]",METAR KJOT 131055Z AUTO 23003KT 10SM OVC025 19/17 A2989 RMK AO2 T01850171
KJPX,2026-04-13 10:55:00+00:00,2026-04-13 10:55:00+00:00,9.1,6.0,210.0,9.0,15.0,10.0,1022.68978,VFR,,"[{""cover"": ""OVC"", ""base_ft_agl"": 3400.0}]",METAR KJPX 131055Z AUTO 21009G15KT 10SM OVC034 09/06 A3020 RMK AO2 T00910060
KJQF,2026-04-13 10:55:00+00:00,2026-04-13 10:55:00+00:00,16.0,13.0,210.0,4.0,,10.0,1028.108004,VFR,,,METAR KJQF 131055Z 21004KT 10SM CLR 16/13 A3036
KJRB,2026-04-13 10:56:00+00:00,2026-04-13 10:56:00+00:00,11.7,,0.0,0.0,,10.0,1022.012502,MVFR,,"[{""cover"": ""OVC"", ""base_ft_agl"": 1900.0}]",METAR KJRB 131056Z AUTO 00000KT 10SM OVC019 12/ A3018 RMK AO2 SLP219 T0117
KJRO,2026-04-13 10:55:00+00:00,2026-04-13 10:55:00+00:00,24.0,11.0,210.0,17.0,22.0,10.0,1018.6261119999999,VFR,,"[{""cover"": ""OVC"", ""base_ft_agl"": 6500.0}]",METAR KJRO 131055Z AUTO 21017G22KT 10SM OVC065 24/11 A3008 RMK AO2
KJSL,2026-04-13 11:00:00+00:00,2026-04-13 11:00:00+00:00,,,110.0,14.0,,10.0,1020.996585,VFR,,,METAR KJSL 131100Z AUTO 11014KT 10SM CLR A3015 RMK A01
KJSO,2026-04-13 10:55:00+00:00,2026-04-13 10:55:00+00:00,19.3,19.3,160.0,13.0,,7.0,1017.948834,VFR,-RA,"[{""cover"": ""OVC"", ""base_ft_agl"": 9000.0}]",METAR KJSO 131055Z AUTO 16013KT 7SM -RA OVC090 19/19 A3006 RMK AO2 P0019 T01930193 $
KJST,2026-04-13 10:54:00+00:00,2026-04-13 10:54:00+00:00,18.9,6.1,240.0,15.0,25.0,10.0,1018.2874730000001,VFR,,,METAR KJST 131054Z AUTO 24015G25KT 10SM CLR 19/06 A3007 RMK AO2 SLP170 T01890061
KJSV,2026-04-13 10:55:00+00:00,2026-04-13 10:55:00+00:00,22.0,22.0,190.0,7.0,,10.0,1016.2556390000001,MVFR,,"[{""cover"": ""OVC"", ""base_ft_agl"": 2600.0}]",METAR KJSV 131055Z AUTO 19007KT 10SM OVC026 22/22 A3001 RMK AO2
KJSY,2026-04-13 10:55:00+00:00,2026-04-13 10:55:00+00:00,0.5,0.5,0.0,0.0,,3.0,1008.466942,MVFR,-SN,"[{""cover"": ""BKN"", ""base_ft_agl"": 1700.0}, {""cover"": ""BKN"", ""base_ft_agl"": 2500.0}, {""cover"": ""OVC"", ""base_ft_agl"": 3100.0}]",METAR KJSY 131055Z AUTO 00000KT 3SM -SN BKN017 BKN025 OVC031 01/01 A2978 RMK AO2 P0007 T00050005
KJTC,2026-04-13 10:55:00+00:00,2026-04-13 10:55:00+00:00,8.0,0.0,130.0,12.0,21.0,10.0,1019.30339,VFR,,,METAR KJTC 131055Z AUTO 13012G21KT 10SM CLR 08/00 A3010 RMK AO2
KJVL,2026-04-13 10:45:00+00:00,2026-04-13 10:45:00+00:00,17.0,16.0,240.0,10.0,,10.0,1009.821498,IFR,,"[{""cover"": ""BKN"", ""base_ft_agl"": 900.0}, {""cover"": ""OVC"", ""base_ft_agl"": 1400.0}]",METAR KJVL 131045Z 24010KT 10SM BKN009 OVC014 17/16 A2982
KJVW,2026-04-13 10:55:00+00:00,2026-04-13 10:55:00+00:00,20.0,20.0,240.0,4.0,,10.0,1022.3511410000001,MVFR,,"[{""cover"": ""OVC"", ""base_ft_agl"": 1500.0}]",METAR KJVW 131055Z AUTO 24004KT 10SM OVC015 20/20 A3019 RMK A01
KJVY,2026-04-13 10:55:00+00:00,2026-04-13 10:55:00+00:00,22.0,14.0,210.0,10.0,,10.0,1017.948834,VFR,,"[{""cover"": ""FEW"", ""base_ft_agl"": 7000.0}, {""cover"": ""FEW"", ""base_ft_agl"": 9000.0}]",METAR KJVY 131055Z AUTO 21010KT 10SM FEW070 FEW090 22/14 A3006 RMK AO2
KJWG,2026-04-13 10:55:00+00:00,2026-04-13 10:55:00+00:00,20.0,18.6,190.0,17.0,24.0,10.0,1012.8692490000001,MVFR,,"[{""cover"": ""BKN"", ""base_ft_agl"": 1300.0}, {""cover"": ""BKN"", ""base_ft_agl"": 2100.0}]",METAR KJWG 131055Z AUTO 19017G24KT 10SM BKN013 BKN021 20/19 A2991 RMK AO2 T02000186
KJWN,2026-04-13 10:55:00+00:00,2026-04-13 10:55:00+00:00,20.0,13.0,150.0,5.0,,10.0,1020.996585,VFR,,"[{""cover"": ""FEW"", ""base_ft_agl"": 2900.0}, {""cover"": ""SCT"", ""base_ft_agl"": 5000.0}, {""cover"": ""BKN"", ""base_ft_agl"": 8500.0}]",METAR KJWN 131055Z AUTO 15005KT 10SM FEW029 SCT050 BKN085 20/13 A3015 RMK AO2
KJWY,2026-04-13 10:55:00+00:00,2026-04-13 10:55:00+00:00,20.6,20.4,170.0,10.0,,10.0,1017.271556,IFR,,"[{""cover"": ""OVC"", ""base_ft_agl"": 600.0}]",METAR KJWY 131055Z AUTO 17010KT 10SM OVC006 21/20 A3004 RMK AO2 T02060204
KJXI,2026-04-13 10:55:00+00:00,2026-04-13 10:55:00+00:00,20.1,17.0,190.0,3.0,,10.0,1017.948834,MVFR,,"[{""cover"": ""SCT"", ""base_ft_agl"": 100.0}, {""cover"": ""BKN"", ""base_ft_agl"": 1900.0}, {""cover"": ""BKN"", ""base_ft_agl"": 2600.0}]",METAR KJXI 131055Z AUTO 19003KT 10SM SCT001 BKN019 BKN026 20/17 A3006 RMK AO2 T02010170
KJXN,2026-04-13 10:56:00+00:00,2026-04-13 10:56:00+00:00,16.7,14.4,220.0,11.0,20.0,10.0,1011.5146930000001,MVFR,,"[{""cover"": ""OVC"", ""base_ft_agl"": 1700.0}]",METAR KJXN 131056Z 22011G20KT 10SM OVC017 17/14 A2987 RMK AO2 SLP110 T01670144 $
KJYG,2026-04-13 10:55:00+00:00,2026-04-13 10:55:00+00:00,11.0,8.0,320.0,10.0,,10.0,1006.0964690000001,VFR,,,METAR KJYG 131055Z AUTO 32010KT 10SM CLR 11/08 A2971 RMK AO2
KJYL,2026-04-13 10:55:00+00:00,2026-04-13 10:55:00+00:00,8.1,8.1,0.0,0.0,,1.25,1027.769365,IFR,BR,,METAR KJYL 131055Z AUTO 00000KT 1 1/4SM BR 08/08 A3035 RMK AO2 T00810081
KJYM,2026-04-13 10:55:00+00:00,2026-04-13 10:55:00+00:00,17.0,15.0,240.0,10.0,14.0,10.0,1012.1919710000001,MVFR,-RA,"[{""cover"": ""OVC"", ""base_ft_agl"": 1700.0}]",METAR KJYM 131055Z AUTO 24010G14KT 10SM -RA OVC017 17/15 A2989 RMK AO2 P0001
KJYO,2026-04-13 10:55:00+00:00,2026-04-13 10:55:00+00:00,17.0,15.0,190.0,7.0,,10.0,1021.335224,VFR,,,METAR KJYO 131055Z AUTO 19007KT 10SM CLR 17/15 A3016 RMK AO2
KJYR,2026-04-13 10:55:00+00:00,2026-04-13 10:55:00+00:00,18.0,18.0,170.0,11.0,,10.0,1004.064635,VFR,,,METAR KJYR 131055Z AUTO 17011KT 10SM CLR 18/18 A2965 RMK AO2
KJZI,2026-04-13 10:55:00+00:00,2026-04-13 10:55:00+00:00,14.0,14.0,0.0,0.0,,10.0,1027.430726,VFR,,,METAR KJZI 131055Z AUTO 00000KT 10SM 14/14 A3034 RMK AO2
KK62,2026-04-13 10:55:00+00:00,2026-04-13 10:55:00+00:00,21.0,10.0,240.0,8.0,15.0,10.0,1018.964751,VFR,,"[{""cover"": ""SCT"", ""base_ft_agl"": 4500.0}, {""cover"": ""OVC"", ""base_ft_agl"": 5000.0}]",METAR KK62 131055Z AUTO 24008G15KT 10SM SCT045 OVC050 21/10 A3009 RMK AO2
KK70,2026-04-13 10:55:00+00:00,2026-04-13 10:55:00+00:00,23.0,17.0,60.0,12.0,19.0,10.0,1022.3511410000001,VFR,,"[{""cover"": ""SCT"", ""base_ft_agl"": 3300.0}, {""cover"": ""BKN"", ""base_ft_agl"": 4700.0}]",METAR KK70 131055Z AUTO 06012G19KT 10SM SCT033 BKN047 23/17 A3019 RMK AO2
KK82,2026-04-13 10:55:00+00:00,2026-04-13 10:55:00+00:00,14.9,7.4,190.0,12.0,,10.0,1004.7419130000001,VFR,,,METAR KK82 131055Z AUTO 19012KT 10SM CLR 15/07 A2967 RMK AO2 T01490074
KK83,2026-04-13 10:55:00+00:00,2026-04-13 10:55:00+00:00,19.5,19.5,200.0,14.0,,10.0,1007.7896640000001,VFR,,"[{""cover"": ""SCT"", ""base_ft_agl"": 1400.0}]",METAR KK83 131055Z AUTO 20014KT 10SM SCT014 20/20 A2976 RMK AO2 T01950195
KK88,2026-04-13 10:55:00+00:00,2026-04-13 10:55:00+00:00,21.0,21.0,190.0,13.0,22.0,10.0,1011.176054,MVFR,,"[{""cover"": ""OVC"", ""base_ft_agl"": 1700.0}]",METAR KK88 131055Z AUTO 19013G22KT 10SM OVC017 21/21 A2986 RMK AO2
KKLS,2026-04-13 10:56:00+00:00,2026-04-13 10:56:00+00:00,9.4,7.2,0.0,5.0,,10.0,1016.2556390000001,MVFR,,"[{""cover"": ""OVC"", ""base_ft_agl"": 1700.0}]",METAR KKLS 131056Z AUTO VRB05KT 10SM OVC017 09/07 A3001 RMK AO2 SLP165 T00940072
KKY8,2026-04-13 10:55:00+00:00,2026-04-13 10:55:00+00:00,22.0,13.0,190.0,8.0,,10.0,1018.6261119999999,VFR,,"[{""cover"": ""BKN"", ""base_ft_agl"": 5000.0}, {""cover"": ""OVC"", ""base_ft_agl"": 6000.0}]",METAR KKY8 131055Z AUTO 19008KT 10SM BKN050 OVC060 22/13 A3008 RMK A01
KL08,2026-04-13 10:55:00+00:00,2026-04-13 10:55:00+00:00,17.0,5.0,330.0,10.0,16.0,10.0,1014.223805,VFR,,"[{""cover"": ""SCT"", ""base_ft_agl"": 6000.0}, {""cover"": ""OVC"", ""base_ft_agl"": 7000.0}]",METAR KL08 131055Z AUTO 33010G16KT 10SM SCT060 OVC070 17/05 A2995 RMK AO2
KL18,2026-04-13 10:55:00+00:00,2026-04-13 10:55:00+00:00,12.0,12.0,0.0,0.0,,10.0,1016.594278,VFR,,"[{""cover"": ""SCT"", ""base_ft_agl"": 600.0}, {""cover"": ""SCT"", ""base_ft_agl"": 6000.0}, {""cover"": ""BKN"", ""base_ft_agl"": 7500.0}]",METAR KL18 131055Z AUTO 00000KT 10SM SCT006 SCT060 BKN075 12/12 A3002 RMK AO2
KL35,2026-04-13 10:55:00+00:00,2026-04-13 10:55:00+00:00,-1.0,-3.0,250.0,9.0,14.0,10.0,1015.917,VFR,,,METAR KL35 131055Z AUTO 25009G14KT 10SM CLR M01/M03 A3000 RMK AO2
KLAA,2026-04-13 10:53:00+00:00,2026-04-13 10:53:00+00:00,15.6,-6.1,260.0,12.0,21.0,10.0,1008.805581,VFR,,,METAR KLAA 131053Z AUTO 26012G21KT 10SM CLR 16/M06 A2979 RMK AO2 WSHFT 1038 SLP038 T01561061 $
KLAF,2026-04-13 10:54:00+00:00,2026-04-13 10:54:00+00:00,20.0,15.0,230.0,10.0,19.0,10.0,1014.223805,VFR,,"[{""cover"": ""BKN"", ""base_ft_agl"": 3400.0}, {""cover"": ""BKN"", ""base_ft_agl"": 4500.0}]",METAR KLAF 131054Z 23010G19KT 10SM BKN034 BKN045 20/15 A2995 RMK AO2 SLP137 T02000150
KLAL,2026-04-13 10:50:00+00:00,2026-04-13 10:50:00+00:00,15.0,14.0,80.0,6.0,,10.0,1025.060253,VFR,,,METAR KLAL 131050Z 08006KT 10SM SKC 15/14 A3027
KLAM,2026-04-13 10:55:00+00:00,2026-04-13 10:55:00+00:00,9.4,-4.5,200.0,7.0,,10.0,1018.964751,VFR,,,METAR KLAM 131055Z AUTO 20007KT 10SM CLR 09/M04 A3009 RMK AO2 T00941045 $
KLAN,2026-04-13 10:53:00+00:00,2026-04-13 10:53:00+00:00,16.1,15.0,250.0,11.0,,7.0,1010.498776,IFR,-RA,"[{""cover"": ""OVC"", ""base_ft_agl"": 900.0}]",METAR KLAN 131053Z 25011KT 7SM -RA OVC009 16/15 A2984 RMK AO2 PK WND 26026/0958 CIG 007V014 SLP099 P0000 T01610150 $
KLAR,2026-04-13 10:53:00+00:00,2026-04-13 10:53:00+00:00,2.8,-5.6,290.0,6.0,,10.0,1011.853332,VFR,,,METAR KLAR 131053Z AUTO 29006KT 10SM CLR 03/M06 A2988 RMK AO2 SLP053 T00281056 $
KLAS,2026-04-13 10:56:00+00:00,2026-04-13 10:56:00+00:00,13.3,0.6,200.0,10.0,16.0,10.0,1013.2078880000001,VFR,,"[{""cover"": ""FEW"", ""base_ft_agl"": 14000.0}, {""cover"": ""FEW"", ""base_ft_agl"": 18000.0}]",METAR KLAS 131056Z 20010G16KT 10SM FEW140 FEW180 13/01 A2992 RMK AO2 SLP117 T01330006
KLAW,2026-04-13 10:53:00+00:00,2026-04-13 10:53:00+00:00,19.4,17.8,150.0,6.0,,10.0,1014.223805,MVFR,,"[{""cover"": ""BKN"", ""base_ft_agl"": 1900.0}]",METAR KLAW 131053Z AUTO 15006KT 10SM BKN019 19/18 A2995 RMK AO2 SLP129 T01940178 $
KLAX,2026-04-13 10:53:00+00:00,2026-04-13 10:53:00+00:00,14.4,8.3,0.0,0.0,,10.0,1016.594278,VFR,,"[{""cover"": ""FEW"", ""base_ft_agl"": 1400.0}, {""cover"": ""BKN"", ""base_ft_agl"": 4500.0}, {""cover"": ""BKN"", ""base_ft_agl"": 7500.0}]",METAR KLAX 131053Z 00000KT 10SM FEW014 BKN045 BKN075 14/08 A3002 RMK AO2 SLP164 T01440083 $
KLBB,2026-04-13 10:53:00+00:00,2026-04-13 10:53:00+00:00,17.2,13.9,210.0,19.0,26.0,10.0,1015.578361,VFR,,"[{""cover"": ""FEW"", ""base_ft_agl"": 25000.0}]",METAR KLBB 131053Z 21019G26KT 10SM FEW250 17/14 A2999 RMK AO2 PK WND 21026/1053 SLP107 T01720139 $
KLBE,2026-04-13 10:47:00+00:00,2026-04-13 10:47:00+00:00,22.0,8.0,220.0,10.0,,10.0,1017.6101950000001,VFR,,"[{""cover"": ""BKN"", ""base_ft_agl"": 12000.0}]",METAR KLBE 131047Z 22010KT 10SM BKN120 22/08 A3005
KLBF,2026-04-13 10:53:00+00:00,2026-04-13 10:53:00+00:00,10.0,6.1,0.0,3.0,,10.0,1003.725996,VFR,,,METAR KLBF 131053Z AUTO VRB03KT 10SM CLR 10/06 A2964 RMK AO2 SLP017 T01000061
KLBL,2026-04-13 10:56:00+00:00,2026-04-13 10:56:00+00:00,11.1,3.9,210.0,11.0,,10.0,1009.482859,VFR,,,METAR KLBL 131056Z AUTO 21011KT 10SM CLR 11/04 A2981 RMK AO2 SLP067 T01110039 $
KLBO,2026-04-13 10:55:00+00:00,2026-04-13 10:55:00+00:00,20.0,17.0,0.0,0.0,,10.0,1015.578361,MVFR,,"[{""cover"": ""OVC"", ""base_ft_agl"": 2500.0}]",METAR KLBO 131055Z AUTO 00000KT 10SM OVC025 20/17 A2999 RMK AO2
KLBT,2026-04-13 10:56:00+00:00,2026-04-13 10:56:00+00:00,12.2,12.2,0.0,0.0,,0.25,1027.430726,LIFR,FG,"[{""cover"": ""OVX"", ""base_ft_agl"": 100.0}]",METAR KLBT 131056Z AUTO 00000KT M1/4SM FG VV001 12/12 A3034 RMK AO2 SLP272 T01220122
KLBX,2026-04-13 10:53:00+00:00,2026-04-13 10:53:00+00:00,23.3,21.1,170.0,13.0,,10.0,1019.30339,VFR,,"[{""cover"": ""SCT"", ""base_ft_agl"": 1500.0}, {""cover"": ""BKN"", ""base_ft_agl"": 4400.0}, {""cover"": ""OVC"", ""base_ft_agl"": 8000.0}]",METAR KLBX 131053Z AUTO 17013KT 10SM SCT015 BKN044 OVC080 23/21 A3010 RMK AO1 SLP191 T02330211
KLCG,2026-04-13 10:55:00+00:00,2026-04-13 10:55:00+00:00,12.9,12.2,150.0,4.0,,7.0,1004.7419130000001,VFR,,,METAR KLCG 131055Z AUTO 15004KT 7SM CLR 13/12 A2967 RMK AO2 T01290122
KLCH,2026-04-13 10:53:00+00:00,2026-04-13 10:53:00+00:00,20.6,19.4,170.0,5.0,,10.0,1020.319307,VFR,,,METAR KLCH 131053Z AUTO 17005KT 10SM CLR 21/19 A3013 RMK AO2 SLP210 T02060194
KLCI,2026-04-13 10:56:00+00:00,2026-04-13 10:56:00+00:00,4.4,3.9,0.0,0.0,,10.0,1018.964751,VFR,,,METAR KLCI 131056Z AUTO 00000KT 10SM CLR 04/04 A3009 RMK AO2 RAE02 SLP192 P0000 T00440039
KLCK,2026-04-13 10:55:00+00:00,2026-04-13 10:55:00+00:00,21.0,11.3,230.0,14.0,22.0,10.0,1017.271556,VFR,,"[{""cover"": ""SCT"", ""base_ft_agl"": 8000.0}, {""cover"": ""SCT"", ""base_ft_agl"": 10000.0}, {""cover"": ""BKN"", ""base_ft_agl"": 12000.0}]",METAR KLCK 131055Z AUTO 23014G22KT 10SM SCT080 SCT100 BKN120 21/11 A3004 RMK AO2 T02100113
KLCQ,2026-04-13 10:55:00+00:00,2026-04-13 10:55:00+00:00,12.0,12.0,0.0,0.0,,0.75,1026.4148089999999,LIFR,BR,"[{""cover"": ""BKN"", ""base_ft_agl"": 400.0}]",METAR KLCQ 131055Z AUTO 00000KT 3/4SM BR BKN004 12/12 A3031 RMK AO2
KLDM,2026-04-13 10:55:00+00:00,2026-04-13 10:55:00+00:00,12.0,12.0,220.0,13.0,,9.0,1007.112386,LIFR,,"[{""cover"": ""OVC"", ""base_ft_agl"": 200.0}]",METAR KLDM 131055Z AUTO 22013KT 9SM OVC002 12/12 A2974 RMK AO2
KLEB,2026-04-13 10:53:00+00:00,2026-04-13 10:53:00+00:00,6.7,3.9,0.0,0.0,,10.0,1017.6101950000001,VFR,,,METAR KLEB 131053Z AUTO 00000KT 10SM CLR 07/04 A3005 RMK AO2 SLP177 T00670039
KLEE,2026-04-13 10:53:00+00:00,2026-04-13 10:53:00+00:00,15.0,13.3,40.0,5.0,,10.0,1025.737531,VFR,,,METAR KLEE 131053Z 04005KT 10SM CLR 15/13 A3029 RMK AO2 SLP256 T01500133
KLEW,2026-04-13 10:56:00+00:00,2026-04-13 10:56:00+00:00,5.6,5.0,180.0,8.0,,10.0,1019.30339,IFR,-RA,"[{""cover"": ""OVC"", ""base_ft_agl"": 700.0}]",METAR KLEW 131056Z AUTO 18008KT 10SM -RA OVC007 06/05 A3010 RMK AO2 SLP201 P0002 T00560050
KLEX,2026-04-13 10:54:00+00:00,2026-04-13 10:54:00+00:00,21.1,10.6,220.0,13.0,,10.0,1020.319307,VFR,-RA,,METAR KLEX 131054Z AUTO 22013KT 10SM -RA CLR 21/11 A3013 RMK AO2 SLP193 P0000 T02110106 $
KLFK,2026-04-13 11:05:00+00:00,2026-04-13 11:05:00+00:00,21.1,19.4,350.0,4.0,,10.0,1020.996585,VFR,VCTS,"[{""cover"": ""FEW"", ""base_ft_agl"": 1400.0}, {""cover"": ""BKN"", ""base_ft_agl"": 4900.0}]",SPECI KLFK 131105Z AUTO 35004KT 10SM VCTS FEW014 BKN049 21/19 A3015 RMK AO2 LTG DSNT W-N RAE1055 P0000 T02110194
KLFT,2026-04-13 10:53:00+00:00,2026-04-13 10:53:00+00:00,20.6,19.4,160.0,6.0,,10.0,1020.657946,VFR,,,METAR KLFT 131053Z 16006KT 10SM CLR 21/19 A3014 RMK AO2 SLP207 T02060194
KLGA,2026-04-13 10:51:00+00:00,2026-04-13 10:51:00+00:00,10.6,8.3,0.0,0.0,,10.0,1021.335224,MVFR,,"[{""cover"": ""BKN"", ""base_ft_agl"": 2000.0}, {""cover"": ""BKN"", ""base_ft_agl"": 15000.0}, {""cover"": ""OVC"", ""base_ft_agl"": 25000.0}]",METAR KLGA 131051Z 00000KT 10SM BKN020 BKN150 OVC250 11/08 A3016 RMK AO2 SLP213 T01060083 $
KLGB,2026-04-13 10:53:00+00:00,2026-04-13 10:53:00+00:00,14.4,8.9,290.0,4.0,,10.0,1016.594278,VFR,,"[{""cover"": ""BKN"", ""base_ft_agl"": 4200.0}, {""cover"": ""OVC"", ""base_ft_agl"": 7000.0}]",METAR KLGB 131053Z AUTO 29004KT 10SM BKN042 OVC070 14/09 A3002 RMK AO2 SLP164 T01440089 $
KLGC,2026-04-13 10:55:00+00:00,2026-04-13 10:55:00+00:00,10.0,8.0,0.0,0.0,,10.0,1026.753448,VFR,,,METAR KLGC 131055Z AUTO 00000KT 10SM CLR 10/08 A3032 RMK AO2
KLGD,2026-04-13 10:56:00+00:00,2026-04-13 10:56:00+00:00,3.3,3.3,120.0,8.0,,9.0,1009.482859,MVFR,-RA,"[{""cover"": ""OVC"", ""base_ft_agl"": 2100.0}]",METAR KLGD 131056Z AUTO 12008KT 9SM -RA OVC021 03/03 A2981 RMK AO2 SLP108 P0002 T00330033 $
KLGF,2026-04-13 10:55:00+00:00,2026-04-13 10:55:00+00:00,18.1,8.6,0.0,0.0,,10.0,1013.885166,VFR,,,METAR KLGF 131055Z AUTO 00000KT 10SM CLR 18/09 A2994 RMK AO2 SLP137 T01810086 $
KLGU,2026-04-13 10:51:00+00:00,2026-04-13 10:51:00+00:00,2.8,1.1,0.0,0.0,,10.0,1014.901083,VFR,,"[{""cover"": ""BKN"", ""base_ft_agl"": 4100.0}, {""cover"": ""OVC"", ""base_ft_agl"": 4700.0}]",METAR KLGU 131051Z AUTO 00000KT 10SM BKN041 OVC047 03/01 A2997 RMK AO2 SLP133 T00280011
KLHB,2026-04-13 10:55:00+00:00,2026-04-13 10:55:00+00:00,22.0,22.0,140.0,6.0,,6.0,1018.2874730000001,MVFR,BR,"[{""cover"": ""BKN"", ""base_ft_agl"": 1300.0}, {""cover"": ""OVC"", ""base_ft_agl"": 2000.0}]",METAR KLHB 131055Z AUTO 14006KT 6SM BR BKN013 OVC020 22/22 A3007 RMK AO2
KLHM,2026-04-13 10:55:00+00:00,2026-04-13 10:55:00+00:00,8.0,8.0,90.0,6.0,,10.0,1017.948834,MVFR,,"[{""cover"": ""BKN"", ""base_ft_agl"": 1500.0}, {""cover"": ""BKN"", ""base_ft_agl"": 2000.0}, {""cover"": ""BKN"", ""base_ft_agl"": 11000.0}]",METAR KLHM 131055Z AUTO 09006KT 10SM BKN015 BKN020 BKN110 08/08 A3006 RMK AO1
KLHQ,2026-04-13 10:53:00+00:00,2026-04-13 10:53:00+00:00,20.6,11.1,230.0,13.0,27.0,10.0,1017.948834,VFR,,"[{""cover"": ""OVC"", ""base_ft_agl"": 10000.0}]",METAR KLHQ 131053Z AUTO 23013G27KT 10SM OVC100 21/11 A3006 RMK AO2 PK WND 24037/1029 RAB32E50 SLP171 P0000 T02060111
KLHW,2026-04-13 10:25:00+00:00,2026-04-13 10:25:00+00:00,14.0,13.0,0.0,0.0,,4.0,1026.753448,MVFR,BR,,SPECI KLHW 131025Z AUTO 00000KT 4SM BR CLR 14/13 A3032 RMK AO2 SLP270 $
KLHX,2026-04-13 10:53:00+00:00,2026-04-13 10:53:00+00:00,13.9,-7.2,260.0,13.0,,10.0,1009.821498,VFR,,,METAR KLHX 131053Z AUTO 26013KT 10SM CLR 14/M07 A2982 RMK AO2 SLP044 T01391072
KLHZ,2026-04-13 10:55:00+00:00,2026-04-13 10:55:00+00:00,16.0,15.0,220.0,5.0,,10.0,1027.092087,VFR,,,METAR KLHZ 131055Z AUTO 22005KT 10SM CLR 16/15 A3033 RMK AO2
KLIC,2026-04-13 10:55:00+00:00,2026-04-13 10:55:00+00:00,7.2,-8.9,310.0,8.0,,10.0,1010.498776,VFR,,,METAR KLIC 131055Z AUTO 31008KT 10SM CLR 07/M09 A2984 RMK AO2 SLP046 T00721089
KLIT,2026-04-13 10:53:00+00:00,2026-04-13 10:53:00+00:00,19.4,18.3,200.0,8.0,,8.0,1019.30339,VFR,,"[{""cover"": ""FEW"", ""base_ft_agl"": 1600.0}, {""cover"": ""SCT"", ""base_ft_agl"": 2900.0}, {""cover"": ""BKN"", ""base_ft_agl"": 3400.0}]",METAR KLIT 131053Z 20008KT 8SM FEW016 SCT029 BKN034 19/18 A3010 RMK AO2 SLP192 T01940183
KLJF,2026-04-13 10:55:00+00:00,2026-04-13 10:55:00+00:00,11.0,8.0,40.0,8.0,,10.0,1007.112386,VFR,,,METAR KLJF 131055Z AUTO 04008KT 10SM CLR 11/08 A2974 RMK AO2
KLKR,2026-04-13 10:50:00+00:00,2026-04-13 10:50:00+00:00,14.0,14.0,290.0,4.0,,10.0,1027.769365,VFR,,,METAR KLKR 131050Z AUTO 29004KT 10SM CLR 14/14 A3035 RMK AO2
KLKU,2026-04-13 10:55:00+00:00,2026-04-13 10:55:00+00:00,18.0,13.9,190.0,7.0,,10.0,1023.367058,VFR,,,METAR KLKU 131055Z AUTO 19007KT 160V220 10SM CLR 18/14 A3022 RMK AO2 T01800139
KLKV,2026-04-13 10:53:00+00:00,2026-04-13 10:53:00+00:00,1.7,-0.6,180.0,9.0,,10.0,1015.578361,MVFR,,"[{""cover"": ""BKN"", ""base_ft_agl"": 2200.0}, {""cover"": ""OVC"", ""base_ft_agl"": 2900.0}]",METAR KLKV 131053Z AUTO 18009KT 10SM BKN022 OVC029 02/M01 A2999 RMK AO2 SLP159 T00171006 FZRANO
KLLJ,2026-04-13 10:55:00+00:00,2026-04-13 10:55:00+00:00,1.1,-3.9,270.0,3.0,,10.0,1009.482859,VFR,,"[{""cover"": ""SCT"", ""base_ft_agl"": 8000.0}, {""cover"": ""BKN"", ""base_ft_agl"": 12000.0}]",METAR KLLJ 131055Z AUTO 27003KT 10SM SCT080 BKN120 01/M04 A2981 RMK AO2 SLP082 T00111039 $
KLLN,2026-04-13 10:55:00+00:00,2026-04-13 10:55:00+00:00,13.0,3.0,220.0,13.0,,10.0,1016.594278,VFR,,,METAR KLLN 131055Z AUTO 22013KT 10SM CLR 13/03 A3002 RMK AO2
KLLQ,2026-04-13 10:53:00+00:00,2026-04-13 10:53:00+00:00,21.1,17.2,200.0,7.0,,10.0,1020.319307,VFR,,"[{""cover"": ""SCT"", ""base_ft_agl"": 3900.0}, {""cover"": ""BKN"", ""base_ft_agl"": 11000.0}]",METAR KLLQ 131053Z AUTO 20007KT 10SM SCT039 BKN110 21/17 A3013 RMK AO2 SLP199 T02110172 $
KLLR,2026-04-13 10:55:00+00:00,2026-04-13 10:55:00+00:00,4.0,4.0,0.0,0.0,,10.0,1018.2874730000001,VFR,,,METAR KLLR 131055Z AUTO 00000KT 10SM CLR 04/04 A3007 RMK A01
KLMO,2026-04-13 10:55:00+00:00,2026-04-13 10:55:00+00:00,8.5,-7.5,330.0,4.0,,10.0,1009.821498,VFR,,,METAR KLMO 131055Z AUTO 33004KT 10SM CLR 09/M07 A2982 RMK AO2 T00851075
KLMT,2026-04-13 10:53:00+00:00,2026-04-13 10:53:00+00:00,2.8,1.1,260.0,4.0,,10.0,1015.578361,VFR,,"[{""cover"": ""OVC"", ""base_ft_agl"": 3900.0}]",METAR KLMT 131053Z AUTO 26004KT 10SM OVC039 03/01 A2999 RMK AO2 SLP156 T00280011 $
KLNA,2026-04-13 10:55:00+00:00,2026-04-13 10:55:00+00:00,,,80.0,8.0,,10.0,1024.382975,VFR,,"[{""cover"": ""BKN"", ""base_ft_agl"": 4300.0}]",METAR KLNA 131055Z AUTO 08008KT 10SM BKN043 A3025 RMK AO2
KLND,2026-04-13 10:53:00+00:00,2026-04-13 10:53:00+00:00,6.7,-2.8,230.0,7.0,,10.0,1008.128303,VFR,,"[{""cover"": ""FEW"", ""base_ft_agl"": 4400.0}, {""cover"": ""SCT"", ""base_ft_agl"": 7000.0}, {""cover"": ""SCT"", ""base_ft_agl"": 9500.0}]",METAR KLND 131053Z AUTO 23007KT 10SM FEW044 SCT070 SCT095 07/M03 A2977 RMK AO2 SLP040 T00671028
KLNK,2026-04-13 10:54:00+00:00,2026-04-13 10:54:00+00:00,18.3,17.2,180.0,11.0,,10.0,1004.7419130000001,VFR,,,METAR KLNK 131054Z 18011KT 10SM CLR 18/17 A2967 RMK AO2 SLP037 T01830172
KLNL,2026-04-13 10:55:00+00:00,2026-04-13 10:55:00+00:00,10.3,10.3,310.0,4.0,,3.0,1006.7737470000001,LIFR,BR,"[{""cover"": ""OVC"", ""base_ft_agl"": 400.0}]",METAR KLNL 131055Z AUTO 31004KT 3SM BR OVC004 10/10 A2973 RMK AO2 T01030103
KLNN,2026-04-13 10:55:00+00:00,2026-04-13 10:55:00+00:00,20.5,7.6,230.0,17.0,23.0,10.0,1012.1919710000001,VFR,,"[{""cover"": ""OVC"", ""base_ft_agl"": 5000.0}]",METAR KLNN 131055Z AUTO 23017G23KT 10SM OVC050 21/08 A2989 RMK AO1 T02050076
KLNP,2026-04-13 10:55:00+00:00,2026-04-13 10:55:00+00:00,17.0,5.0,220.0,12.0,16.0,10.0,1025.737531,VFR,,"[{""cover"": ""SCT"", ""base_ft_agl"": 9000.0}]",METAR KLNP 131055Z AUTO 22012G16KT 10SM SCT090 17/05 A3029 RMK AO2
KLNR,2026-04-13 10:56:00+00:00,2026-04-13 10:56:00+00:00,16.1,15.0,100.0,3.0,,10.0,1008.805581,MVFR,,"[{""cover"": ""OVC"", ""base_ft_agl"": 1700.0}]",METAR KLNR 131056Z AUTO 10003KT 10SM OVC017 16/15 A2979 RMK AO2 SLP081 T01610150
KLNS,2026-04-13 10:53:00+00:00,2026-04-13 10:53:00+00:00,10.0,9.4,90.0,4.0,,10.0,1020.319307,VFR,,,METAR KLNS 131053Z 09004KT 10SM CLR 10/09 A3013 RMK AO2 SLP201 T01000094
KLOL,2026-04-13 10:53:00+00:00,2026-04-13 10:53:00+00:00,1.1,-2.2,30.0,4.0,,10.0,1015.917,VFR,,,METAR KLOL 131053Z AUTO 03004KT 10SM CLR 01/M02 A3000 RMK AO2 SLP161 T00111022 $
KLOM,2026-04-13 10:50:00+00:00,2026-04-13 10:50:00+00:00,12.2,10.5,0.0,0.0,,10.0,1021.335224,MVFR,,"[{""cover"": ""OVC"", ""base_ft_agl"": 1300.0}]",METAR KLOM 131050Z AUTO 00000KT 10SM OVC013 12/10 A3016 RMK AO2 T01220105
KLOR,2026-04-13 09:55:00+00:00,2026-04-13 09:55:00+00:00,12.3,11.7,0.0,0.0,,10.0,1025.3988920000002,VFR,,,METAR KLOR 130955Z AUTO 00000KT 10SM CLR 12/12 A3028 RMK AO2 SLP236 T01230117 $
KLOT,2026-04-13 10:52:00+00:00,2026-04-13 10:52:00+00:00,18.0,17.0,230.0,10.0,,10.0,1012.1919710000001,MVFR,,"[{""cover"": ""SCT"", ""base_ft_agl"": 1300.0}, {""cover"": ""BKN"", ""base_ft_agl"": 2000.0}, {""cover"": ""OVC"", ""base_ft_agl"": 3800.0}]",METAR KLOT 131052Z 23010KT 10SM SCT013 BKN020 OVC038 18/17 A2989
KLOU,2026-04-13 10:53:00+00:00,2026-04-13 10:53:00+00:00,21.7,11.7,220.0,9.0,,10.0,1018.6261119999999,VFR,,"[{""cover"": ""FEW"", ""base_ft_agl"": 6500.0}]",METAR KLOU 131053Z 22009KT 10SM FEW065 22/12 A3008 RMK AO2 SLP181 T02170117
KLOZ,2026-04-13 10:53:00+00:00,2026-04-13 10:53:00+00:00,20.6,8.3,210.0,9.0,,10.0,1023.0284190000001,VFR,,"[{""cover"": ""BKN"", ""base_ft_agl"": 8000.0}, {""cover"": ""OVC"", ""base_ft_agl"": 10000.0}]",METAR KLOZ 131053Z AUTO 21009KT 10SM BKN080 OVC100 21/08 A3021 RMK AO2 RAB00E42 SLP219 P0000 T02060083 $
KLPC,2026-04-13 10:51:00+00:00,2026-04-13 10:51:00+00:00,6.7,,70.0,3.0,,10.0,1017.948834,VFR,,,METAR KLPC 131051Z AUTO 07003KT 10SM CLR 07/ A3006 RMK AO2 SLP178 T0067 PNO $
KLPR,2026-04-13 10:53:00+00:00,2026-04-13 10:53:00+00:00,19.4,12.2,250.0,19.0,29.0,10.0,1013.546527,VFR,,"[{""cover"": ""BKN"", ""base_ft_agl"": 4300.0}, {""cover"": ""BKN"", ""base_ft_agl"": 5000.0}]",METAR KLPR 131053Z AUTO 25019G29KT 10SM BKN043 BKN050 19/12 A2993 RMK AO2 PK WND 24048/1000 RAE52 SLP131 P0000 T01940122
KLQK,2026-04-13 10:55:00+00:00,2026-04-13 10:55:00+00:00,11.4,10.3,0.0,0.0,,10.0,1027.092087,VFR,,,METAR KLQK 131055Z AUTO 00000KT 10SM CLR 11/10 A3033 RMK AO2 T01140103
KLQR,2026-04-13 10:55:00+00:00,2026-04-13 10:55:00+00:00,18.0,15.0,210.0,15.0,20.0,10.0,1007.112386,VFR,,,METAR KLQR 131055Z AUTO 21015G20KT 10SM CLR 18/15 A2974 RMK AO2
KLRD,2026-04-13 10:56:00+00:00,2026-04-13 10:56:00+00:00,21.7,20.0,110.0,9.0,,9.0,1016.2556390000001,VFR,,,METAR KLRD 131056Z 11009KT 9SM CLR 22/20 A3001 RMK AO2 SLP158 T02170200 $
KLRF,2026-04-13 10:55:00+00:00,2026-04-13 10:55:00+00:00,20.0,18.5,180.0,4.0,,10.0,1018.964751,VFR,,"[{""cover"": ""FEW"", ""base_ft_agl"": 1800.0}, {""cover"": ""SCT"", ""base_ft_agl"": 3100.0}, {""cover"": ""SCT"", ""base_ft_agl"": 4100.0}, {""cover"": ""BKN"", ""base_ft_agl"": 8000.0}]",METAR KLRF 131055Z AUTO 18004KT 10SM FEW018 SCT031 SCT041 BKN080 OVC200 20/19 A3009 RMK AO2 SLP190 T02000185
KLRJ,2026-04-13 10:55:00+00:00,2026-04-13 10:55:00+00:00,15.0,15.0,0.0,5.0,,10.0,1005.080552,VFR,,"[{""cover"": ""FEW"", ""base_ft_agl"": 11000.0}]",METAR KLRJ 131055Z AUTO VRB05KT 10SM FEW110 15/15 A2968 RMK AO2
KLRO,2026-04-13 10:55:00+00:00,2026-04-13 10:55:00+00:00,13.0,13.0,0.0,0.0,,5.0,1027.430726,MVFR,BR,"[{""cover"": ""FEW"", ""base_ft_agl"": 3000.0}]",METAR KLRO 131055Z AUTO 00000KT 5SM BR FEW030 13/13 A3034 RMK AO2
KLRU,2026-04-13 10:55:00+00:00,2026-04-13 10:55:00+00:00,12.3,-0.7,0.0,0.0,,10.0,1019.30339,VFR,,,METAR KLRU 131055Z AUTO 00000KT 10SM CLR 12/M01 A3010 RMK AO2 T01231007
KLRY,2026-04-13 10:55:00+00:00,2026-04-13 10:55:00+00:00,21.0,17.0,200.0,10.0,16.0,10.0,1012.53061,VFR,,"[{""cover"": ""SCT"", ""base_ft_agl"": 2000.0}, {""cover"": ""BKN"", ""base_ft_agl"": 9500.0}]",METAR KLRY 131055Z AUTO 20010G16KT 10SM SCT020 BKN095 21/17 A2990 RMK AO2
KLSB,2026-04-13 10:55:00+00:00,2026-04-13 10:55:00+00:00,11.0,0.0,210.0,3.0,,10.0,1018.6261119999999,VFR,,,METAR KLSB 131055Z AUTO 21003KT 10SM CLR 11/00 A3008 RMK AO2
KLSE,2026-04-13 09:53:00+00:00,2026-04-13 09:53:00+00:00,15.6,13.9,230.0,3.0,,10.0,1007.112386,VFR,,,METAR KLSE 130953Z AUTO 23003KT 10SM CLR 16/14 A2974 RMK AO2 SLP065 T01560139
KLSF,2026-04-13 10:55:00+00:00,2026-04-13 10:55:00+00:00,9.6,9.0,0.0,0.0,,0.88,1025.3988920000002,LIFR,BR,,METAR KLSF 131055Z AUTO 00000KT 7/8SM R33/3500VP6000FT BR CLR 10/09 A3028 RMK AO2 VIS 7/8V2 1/4 SLP258 T00960090 $
KLUA,2026-04-13 10:55:00+00:00,2026-04-13 10:55:00+00:00,18.0,7.0,220.0,8.0,,10.0,1021.335224,VFR,,,METAR KLUA 131055Z AUTO 22008KT 10SM CLR 18/07 A3016 RMK AO2
KLUD,2026-04-13 10:55:00+00:00,2026-04-13 10:55:00+00:00,21.5,19.5,180.0,9.0,16.0,10.0,1016.2556390000001,MVFR,,"[{""cover"": ""BKN"", ""base_ft_agl"": 1600.0}, {""cover"": ""BKN"", ""base_ft_agl"": 2100.0}]",METAR KLUD 131055Z AUTO 18009G16KT 10SM BKN016 BKN021 22/20 A3001 RMK AO2 T02150195
KLUG,2026-04-13 11:00:00+00:00,2026-04-13 11:00:00+00:00,20.0,10.0,190.0,7.0,,10.0,1022.68978,VFR,,"[{""cover"": ""FEW"", ""base_ft_agl"": 2200.0}, {""cover"": ""BKN"", ""base_ft_agl"": 11000.0}]",METAR KLUG 131100Z AUTO 19007KT 10SM FEW022 BKN110 20/10 A3020 RMK A01
KLUK,2026-04-13 10:53:00+00:00,2026-04-13 10:53:00+00:00,20.0,12.2,210.0,10.0,,10.0,1017.6101950000001,VFR,,"[{""cover"": ""FEW"", ""base_ft_agl"": 5000.0}]",METAR KLUK 131053Z 21010KT 10SM FEW050 20/12 A3005 RMK AO2 RAE07 SLP173 P0000 T02000122
KLUL,2026-04-13 10:55:00+00:00,2026-04-13 10:55:00+00:00,16.3,15.7,170.0,3.0,,10.0,1023.367058,VFR,,,METAR KLUL 131055Z AUTO 17003KT 10SM CLR 16/16 A3022 RMK A02 T01630157
KLUM,2026-04-13 10:55:00+00:00,2026-04-13 10:55:00+00:00,10.3,10.3,250.0,3.0,,4.0,1007.4510250000001,MVFR,,"[{""cover"": ""SCT"", ""base_ft_agl"": 7500.0}]",METAR KLUM 131055Z AUTO 25003KT 4SM SCT075 10/10 A2975 RMK AO2 T01030103 PWINO
KLUV,2026-04-13 10:55:00+00:00,2026-04-13 10:55:00+00:00,17.0,15.0,200.0,9.0,,10.0,1017.6101950000001,VFR,,,METAR KLUV 131055Z AUTO 20009KT 10SM CLR 17/15 A3005 RMK AO2
KLUX,2026-04-13 10:55:00+00:00,2026-04-13 10:55:00+00:00,13.0,12.0,0.0,0.0,,10.0,1027.430726,VFR,,,METAR KLUX 131055Z AUTO 00000KT 10SM CLR 13/12 A3034 RMK AO2
KLVJ,2026-04-13 10:53:00+00:00,2026-04-13 10:53:00+00:00,22.8,20.6,150.0,6.0,,8.0,1019.642029,MVFR,,"[{""cover"": ""BKN"", ""base_ft_agl"": 1200.0}, {""cover"": ""OVC"", ""base_ft_agl"": 8000.0}]",METAR KLVJ 131053Z AUTO 15006KT 8SM BKN012 OVC080 23/21 A3011 RMK AO2 SLP195 T02280206
KLVK,2026-04-13 10:53:00+00:00,2026-04-13 10:53:00+00:00,10.0,8.9,0.0,0.0,,8.0,1017.271556,VFR,-RA,"[{""cover"": ""SCT"", ""base_ft_agl"": 3000.0}, {""cover"": ""OVC"", ""base_ft_agl"": 3400.0}]",METAR KLVK 131053Z AUTO 00000KT 8SM -RA SCT030 OVC034 10/09 A3004 RMK AO2 RAE04B24 SLP172 P0000 T01000089
KLVL,2026-04-13 10:55:00+00:00,2026-04-13 10:55:00+00:00,16.9,15.3,210.0,4.0,,10.0,1026.4148089999999,MVFR,,"[{""cover"": ""OVC"", ""base_ft_agl"": 1100.0}]",METAR KLVL 131055Z AUTO 21004KT 10SM OVC011 17/15 A3031 RMK AO1 T01690153
KLVM,2026-04-13 10:53:00+00:00,2026-04-13 10:53:00+00:00,6.7,-5.0,240.0,12.0,27.0,10.0,1007.112386,VFR,,,METAR KLVM 131053Z AUTO 24012G27KT 10SM CLR 07/M05 A2974 RMK AO2 PK WND 22030/1013 SLP061 T00671050 $
KLVN,2026-04-13 10:55:00+00:00,2026-04-13 10:55:00+00:00,11.0,11.0,0.0,0.0,,0.75,1006.7737470000001,LIFR,BR,"[{""cover"": ""OVX"", ""base_ft_agl"": 500.0}]",METAR KLVN 131055Z AUTO 00000KT 3/4SM BR VV005 11/11 A2973 RMK AO2
KLVS,2026-04-13 10:53:00+00:00,2026-04-13 10:53:00+00:00,9.4,-3.9,190.0,16.0,,10.0,1017.6101950000001,VFR,,,METAR KLVS 131053Z AUTO 19016KT 10SM CLR 09/M04 A3005 RMK AO2 SLP087 T00941039 PNO $
KLWA,2026-04-13 10:55:00+00:00,2026-04-13 10:55:00+00:00,16.0,14.0,240.0,13.0,21.0,10.0,1010.8374150000001,MVFR,-DZ,"[{""cover"": ""SCT"", ""base_ft_agl"": 500.0}, {""cover"": ""OVC"", ""base_ft_agl"": 1000.0}]",METAR KLWA 131055Z AUTO 24013G21KT 10SM -DZ SCT005 OVC010 16/14 A2985 RMK AO2
KLWB,2026-04-13 10:55:00+00:00,2026-04-13 10:55:00+00:00,16.0,7.0,200.0,4.0,,10.0,1024.382975,VFR,,,METAR KLWB 131055Z AUTO 20004KT 10SM CLR 16/07 A3025 RMK AO2
KLWC,2026-04-13 10:52:00+00:00,2026-04-13 10:52:00+00:00,20.6,18.3,190.0,16.0,25.0,10.0,1009.14422,MVFR,,"[{""cover"": ""BKN"", ""base_ft_agl"": 2100.0}]",METAR KLWC 131052Z AUTO 19016G25KT 10SM BKN021 21/18 A2980 RMK AO1 PK WND 19028/0958 SLP083 T02060183 $
KLWD,2026-04-13 10:53:00+00:00,2026-04-13 10:53:00+00:00,17.8,16.7,160.0,6.0,,10.0,1009.482859,MVFR,,"[{""cover"": ""OVC"", ""base_ft_agl"": 2200.0}]",METAR KLWD 131053Z AUTO 16006KT 10SM OVC022 18/17 A2981 RMK AO2 SLP089 T01780167 $
KLWM,2026-04-13 10:54:00+00:00,2026-04-13 10:54:00+00:00,8.9,3.9,200.0,8.0,,10.0,1019.980668,MVFR,,"[{""cover"": ""OVC"", ""base_ft_agl"": 2500.0}]",METAR KLWM 131054Z 20008KT 10SM OVC025 09/04 A3012 RMK AO2 SLP201 T00890039
KLWS,2026-04-13 10:56:00+00:00,2026-04-13 10:56:00+00:00,7.8,4.4,190.0,7.0,,10.0,1007.7896640000001,VFR,-RA,"[{""cover"": ""OVC"", ""base_ft_agl"": 5000.0}]",METAR KLWS 131056Z AUTO 19007KT 10SM -RA OVC050 08/04 A2976 RMK AO2 SLP079 P0005 T00780044
KLWV,2026-04-13 10:53:00+00:00,2026-04-13 10:53:00+00:00,21.7,14.4,210.0,13.0,,10.0,1016.9329170000001,VFR,,"[{""cover"": ""SCT"", ""base_ft_agl"": 4700.0}, {""cover"": ""OVC"", ""base_ft_agl"": 5500.0}]",METAR KLWV 131053Z AUTO 21013KT 10SM SCT047 OVC055 22/14 A3003 RMK AO2 SLP165 T02170144 TSNO $
KLXL,2026-04-13 10:55:00+00:00,2026-04-13 10:55:00+00:00,9.0,3.0,0.0,0.0,,10.0,1008.128303,MVFR,,"[{""cover"": ""OVC"", ""base_ft_agl"": 1100.0}]",METAR KLXL 131055Z AUTO 00000KT 10SM OVC011 09/03 A2977 RMK AO2
KLXN,2026-04-13 10:55:00+00:00,2026-04-13 10:55:00+00:00,11.5,8.6,160.0,6.0,,10.0,1003.387357,VFR,,,METAR KLXN 131055Z AUTO 16006KT 10SM CLR 12/09 A2963 RMK AO2 T01150086
KLXT,2026-04-13 10:53:00+00:00,2026-04-13 10:53:00+00:00,20.0,16.7,190.0,15.0,21.0,10.0,1010.8374150000001,MVFR,,"[{""cover"": ""FEW"", ""base_ft_agl"": 1800.0}, {""cover"": ""BKN"", ""base_ft_agl"": 2600.0}]",METAR KLXT 131053Z AUTO 19015G21KT 10SM FEW018 BKN026 20/17 A2985 RMK AO2 LTG DSNT SE AND S RAB26E35 SLP103 P0000 T02000167 $
KLXV,2026-04-13 10:53:00+00:00,2026-04-13 10:53:00+00:00,0.0,-13.9,230.0,6.0,,10.0,1017.948834,VFR,,,METAR KLXV 131053Z AUTO 23006KT 10SM CLR 00/M14 A3006 RMK AO2 SLP067 T00001139
KLXY,2026-04-13 10:55:00+00:00,2026-04-13 10:55:00+00:00,19.5,19.0,150.0,6.0,,10.0,1018.6261119999999,LIFR,,"[{""cover"": ""OVC"", ""base_ft_agl"": 400.0}]",METAR KLXY 131055Z AUTO 15006KT 10SM OVC004 20/19 A3008 RMK AO2 T01950190 TSNO
KLYH,2026-04-13 10:54:00+00:00,2026-04-13 10:54:00+00:00,16.7,11.1,190.0,7.0,,10.0,1024.382975,VFR,,,METAR KLYH 131054Z 19007KT 10SM CLR 17/11 A3025 RMK AO2 SLP237 T01670111
KLYO,2026-04-13 10:55:00+00:00,2026-04-13 10:55:00+00:00,18.8,17.3,190.0,14.0,,10.0,1007.7896640000001,VFR,,,METAR KLYO 131055Z AUTO 19014KT 10SM CLR 19/17 A2976 RMK AO2 T01880173
KLYV,2026-04-13 10:55:00+00:00,2026-04-13 10:55:00+00:00,8.0,5.0,330.0,6.0,,10.0,1006.7737470000001,VFR,,,METAR KLYV 131055Z AUTO 33006KT 10SM CLR 08/05 A2973 RMK AO2
KLZU,2026-04-13 10:45:00+00:00,2026-04-13 10:45:00+00:00,13.0,11.0,0.0,0.0,,10.0,1026.753448,VFR,,,METAR KLZU 131045Z 00000KT 10SM SKC 13/11 A3032
KLZZ,2026-04-13 10:55:00+00:00,2026-04-13 10:55:00+00:00,21.0,21.0,180.0,5.0,,10.0,1017.6101950000001,IFR,,"[{""cover"": ""BKN"", ""base_ft_agl"": 900.0}, {""cover"": ""OVC"", ""base_ft_agl"": 1200.0}]",METAR KLZZ 131055Z AUTO 18005KT 10SM BKN009 OVC012 21/21 A3005 RMK AO2
KM01,2026-04-13 10:55:00+00:00,2026-04-13 10:55:00+00:00,21.5,14.8,190.0,11.0,,10.0,1019.30339,VFR,,"[{""cover"": ""FEW"", ""base_ft_agl"": 11000.0}]",METAR KM01 131055Z AUTO 19011KT 10SM FEW110 21/15 A3010 RMK AO2 T02150148 $
KM02,2026-04-13 10:55:00+00:00,2026-04-13 10:55:00+00:00,20.0,13.0,210.0,8.0,,10.0,1020.996585,VFR,,"[{""cover"": ""FEW"", ""base_ft_agl"": 5000.0}, {""cover"": ""SCT"", ""base_ft_agl"": 9500.0}, {""cover"": ""BKN"", ""base_ft_agl"": 12000.0}]",METAR KM02 131055Z AUTO 21008KT 10SM FEW050 SCT095 BKN120 20/13 A3015 RMK A01
KM04,2026-04-13 10:50:00+00:00,2026-04-13 10:50:00+00:00,21.0,14.0,200.0,9.0,,10.0,1020.319307,VFR,,"[{""cover"": ""FEW"", ""base_ft_agl"": 5000.0}, {""cover"": ""OVC"", ""base_ft_agl"": 11000.0}]",METAR KM04 131050Z AUTO 20009KT 10SM FEW050 OVC110 21/14 A3013 RMK A01
KM08,2026-04-13 10:55:00+00:00,2026-04-13 10:55:00+00:00,20.0,14.0,160.0,5.0,,10.0,1020.996585,VFR,,"[{""cover"": ""SCT"", ""base_ft_agl"": 6500.0}, {""cover"": ""BKN"", ""base_ft_agl"": 7500.0}, {""cover"": ""OVC"", ""base_ft_agl"": 11000.0}]",METAR KM08 131055Z AUTO 16005KT 10SM SCT065 BKN075 OVC110 20/14 A3015 RMK A01
KM19,2026-04-13 10:56:00+00:00,2026-04-13 10:56:00+00:00,20.6,16.7,190.0,11.0,,10.0,1018.964751,MVFR,,"[{""cover"": ""OVC"", ""base_ft_agl"": 2400.0}]",METAR KM19 131056Z AUTO 19011KT 10SM OVC024 21/17 A3009 RMK AO2 SLP199 T02060167 $
KM21,2026-04-13 10:55:00+00:00,2026-04-13 10:55:00+00:00,21.7,13.5,210.0,9.0,,10.0,1019.642029,VFR,,,METAR KM21 131055Z AUTO 21009KT 10SM CLR 22/14 A3011 RMK AO2 T02170135
KM25,2026-04-13 10:55:00+00:00,2026-04-13 10:55:00+00:00,21.5,13.7,200.0,10.0,,10.0,1018.964751,VFR,,"[{""cover"": ""OVC"", ""base_ft_agl"": 16000.0}]",METAR KM25 131055Z AUTO 20010KT 10SM OVC160 21/14 A3009 RMK AO2 T02150137
KM30,2026-04-13 10:55:00+00:00,2026-04-13 10:55:00+00:00,21.1,12.2,0.0,0.0,,10.0,1018.964751,VFR,,"[{""cover"": ""OVC"", ""base_ft_agl"": 4100.0}]",METAR KM30 131055Z AUTO 00000KT 10SM OVC041 21/12 A3009 RMK AO2 T02110122
KM40,2026-04-13 10:55:00+00:00,2026-04-13 10:55:00+00:00,17.0,14.0,150.0,6.0,,10.0,1023.0284190000001,VFR,,"[{""cover"": ""FEW"", ""base_ft_agl"": 6000.0}, {""cover"": ""FEW"", ""base_ft_agl"": 8000.0}, {""cover"": ""BKN"", ""base_ft_agl"": 11000.0}]",METAR KM40 131055Z AUTO 15006KT 10SM FEW060 FEW080 BKN110 17/14 A3021 RMK AO2
KM54,2026-04-13 10:50:00+00:00,2026-04-13 10:50:00+00:00,21.0,12.0,180.0,9.0,,10.0,1021.335224,VFR,,"[{""cover"": ""FEW"", ""base_ft_agl"": 3200.0}, {""cover"": ""SCT"", ""base_ft_agl"": 3900.0}, {""cover"": ""BKN"", ""base_ft_agl"": 6000.0}]",METAR KM54 131050Z AUTO 18009KT 10SM FEW032 SCT039 BKN060 21/12 A3016 RMK A01
KM75,2026-04-13 10:55:00+00:00,2026-04-13 10:55:00+00:00,4.0,4.0,70.0,12.0,,4.0,1006.435108,MVFR,BR,"[{""cover"": ""FEW"", ""base_ft_agl"": 2700.0}, {""cover"": ""SCT"", ""base_ft_agl"": 3200.0}, {""cover"": ""BKN"", ""base_ft_agl"": 3700.0}]",METAR KM75 131055Z AUTO 07012KT 4SM BR FEW027 SCT032 BKN037 04/04 A2972 RMK A01 P0007
KM91,2026-04-13 10:55:00+00:00,2026-04-13 10:55:00+00:00,21.0,14.0,190.0,8.0,,10.0,1020.657946,VFR,,"[{""cover"": ""FEW"", ""base_ft_agl"": 2800.0}, {""cover"": ""SCT"", ""base_ft_agl"": 5000.0}, {""cover"": ""OVC"", ""base_ft_agl"": 7500.0}]",METAR KM91 131055Z AUTO 19008KT 10SM FEW028 SCT050 OVC075 21/14 A3014 RMK A01
KMAE,2026-04-13 10:53:00+00:00,2026-04-13 10:53:00+00:00,10.0,7.8,330.0,8.0,,10.0,1017.6101950000001,VFR,,"[{""cover"": ""OVC"", ""base_ft_agl"": 6500.0}]",METAR KMAE 131053Z AUTO 33008KT 10SM OVC065 10/08 A3005 RMK AO2 SLP174 T01000078
KMAF,2026-04-13 10:53:00+00:00,2026-04-13 10:53:00+00:00,19.4,17.2,210.0,10.0,,8.0,1017.6101950000001,VFR,,,METAR KMAF 131053Z AUTO 21010KT 8SM CLR 19/17 A3005 RMK AO2 SLP132 T01940172
KMAI,2026-04-13 10:53:00+00:00,2026-04-13 10:53:00+00:00,12.8,11.1,0.0,0.0,,10.0,1025.737531,VFR,,,METAR KMAI 131053Z AUTO 00000KT 10SM CLR 13/11 A3029 RMK AO2 SLP255 T01280111
KMAN,2026-04-13 10:55:00+00:00,2026-04-13 10:55:00+00:00,6.0,6.0,120.0,6.0,,6.0,1012.1919710000001,MVFR,BR,"[{""cover"": ""BKN"", ""base_ft_agl"": 3000.0}, {""cover"": ""OVC"", ""base_ft_agl"": 3800.0}]",METAR KMAN 131055Z AUTO 12006KT 6SM BR BKN030 OVC038 06/06 A2989 RMK A01
KMAO,2026-04-13 10:55:00+00:00,2026-04-13 10:55:00+00:00,12.0,12.0,0.0,0.0,,2.0,1028.108004,IFR,BR,"[{""cover"": ""SCT"", ""base_ft_agl"": 100.0}]",METAR KMAO 131055Z AUTO 00000KT 2SM BR SCT001 12/12 A3036 RMK AO2
KMAW,2026-04-13 10:55:00+00:00,2026-04-13 10:55:00+00:00,22.0,15.0,200.0,9.0,,10.0,1018.964751,VFR,,"[{""cover"": ""OVC"", ""base_ft_agl"": 3800.0}]",METAR KMAW 131055Z AUTO 20009KT 10SM OVC038 22/15 A3009 RMK AO1
KMBG,2026-04-13 10:52:00+00:00,2026-04-13 10:52:00+00:00,6.1,6.1,40.0,9.0,,4.0,1007.4510250000001,LIFR,BR,"[{""cover"": ""OVC"", ""base_ft_agl"": 300.0}]",METAR KMBG 131052Z AUTO 04009KT 4SM BR OVC003 06/06 A2975 RMK AO2 SLP072 T00610061 $
KMBL,2026-04-13 10:56:00+00:00,2026-04-13 10:56:00+00:00,14.4,13.9,230.0,6.0,,7.0,1006.7737470000001,IFR,,"[{""cover"": ""OVC"", ""base_ft_agl"": 800.0}]",METAR KMBL 131056Z AUTO 23006KT 7SM OVC008 14/14 A2973 RMK AO2 SLP066 T01440139 $
KMBO,2026-04-13 10:55:00+00:00,2026-04-13 10:55:00+00:00,19.0,18.0,240.0,6.0,,10.0,1022.012502,VFR,,"[{""cover"": ""FEW"", ""base_ft_agl"": 2200.0}, {""cover"": ""SCT"", ""base_ft_agl"": 12000.0}]",METAR KMBO 131055Z AUTO 24006KT 10SM FEW022 SCT120 19/18 A3018 RMK AO2
KMBS,2026-04-13 10:53:00+00:00,2026-04-13 10:53:00+00:00,15.6,14.4,240.0,11.0,,10.0,1007.7896640000001,MVFR,,"[{""cover"": ""OVC"", ""base_ft_agl"": 1100.0}]",METAR KMBS 131053Z 24011KT 10SM OVC011 16/14 A2976 RMK AO2 RAE27 SLP074 P0001 T01560144
KMBT,2026-04-13 10:55:00+00:00,2026-04-13 10:55:00+00:00,21.0,11.0,190.0,9.0,,10.0,1022.3511410000001,VFR,,"[{""cover"": ""BKN"", ""base_ft_agl"": 7500.0}, {""cover"": ""BKN"", ""base_ft_agl"": 11000.0}]",METAR KMBT 131055Z AUTO 19009KT 10SM BKN075 BKN110 21/11 A3019 RMK A01
KMBY,2026-04-13 10:55:00+00:00,2026-04-13 10:55:00+00:00,19.0,16.0,190.0,8.0,,10.0,1012.53061,MVFR,,"[{""cover"": ""BKN"", ""base_ft_agl"": 2700.0}]",METAR KMBY 131055Z AUTO 19008KT 10SM BKN027 19/16 A2990 RMK AO2 LTG DSNT W
KMCC,2026-04-13 10:55:00+00:00,2026-04-13 10:55:00+00:00,11.0,10.0,0.0,0.0,,7.0,1018.2874730000001,IFR,-RA,"[{""cover"": ""BKN"", ""base_ft_agl"": 700.0}, {""cover"": ""OVC"", ""base_ft_agl"": 1100.0}]",METAR KMCC 131055Z AUTO 00000KT 7SM -RA BKN007 OVC011 11/10 A3007 RMK AO2
KMCD,2026-04-13 10:55:00+00:00,2026-04-13 10:55:00+00:00,7.0,7.0,270.0,19.0,27.0,0.25,1003.387357,LIFR,-RA FG,"[{""cover"": ""OVX"", ""base_ft_agl"": 0.0}]",METAR KMCD 131055Z AUTO 27019G27KT M1/4SM -RA FG VV000 07/07 A2963 RMK AO2 PK WND 25029/13 PRESRR
KMCE,2026-04-13 10:53:00+00:00,2026-04-13 10:53:00+00:00,8.3,6.7,0.0,0.0,,10.0,1016.9329170000001,VFR,,,METAR KMCE 131053Z AUTO 00000KT 10SM CLR 08/07 A3003 RMK AO2 SLP170 T00830067
KMCF,2026-04-13 10:55:00+00:00,2026-04-13 10:55:00+00:00,17.8,14.5,90.0,6.0,,10.0,1024.721614,VFR,,,METAR KMCF 131055Z AUTO 09006KT 10SM CLR 18/15 A3026 RMK AO2 SLP250 T01780145
KMCI,2026-04-13 10:53:00+00:00,2026-04-13 10:53:00+00:00,20.6,17.8,190.0,15.0,,10.0,1009.482859,MVFR,,"[{""cover"": ""BKN"", ""base_ft_agl"": 2200.0}, {""cover"": ""OVC"", ""base_ft_agl"": 2700.0}]",METAR KMCI 131053Z 19015KT 10SM BKN022 OVC027 21/18 A2981 RMK AO2 PK WND 20026/1029 SLP087 T02060178
KMCK,2026-04-13 10:53:00+00:00,2026-04-13 10:53:00+00:00,9.4,-0.6,230.0,6.0,,10.0,1003.387357,VFR,,,METAR KMCK 131053Z AUTO 23006KT 10SM CLR 09/M01 A2963 RMK AO2 SLP015 T00941006
KMCN,2026-04-13 10:53:00+00:00,2026-04-13 10:53:00+00:00,12.2,11.7,110.0,4.0,,10.0,1026.753448,VFR,,,METAR KMCN 131053Z AUTO 11004KT 10SM CLR 12/12 A3032 RMK AO2 SLP264 T01220117
KMCO,2026-04-13 10:53:00+00:00,2026-04-13 10:53:00+00:00,16.7,13.9,80.0,4.0,,10.0,1025.737531,VFR,,"[{""cover"": ""FEW"", ""base_ft_agl"": 3500.0}]",METAR KMCO 131053Z 08004KT 10SM FEW035 17/14 A3029 RMK AO2 SLP256 T01670139
KMCW,2026-04-13 10:56:00+00:00,2026-04-13 10:56:00+00:00,13.3,13.3,210.0,8.0,,3.0,1007.112386,MVFR,BR,"[{""cover"": ""SCT"", ""base_ft_agl"": 300.0}]",SPECI KMCW 131056Z AUTO 21008KT 3SM BR SCT003 13/13 A2974 RMK AO2 T01330133
KMDD,2026-04-13 10:55:00+00:00,2026-04-13 10:55:00+00:00,19.7,16.9,210.0,8.0,,10.0,1017.948834,VFR,,"[{""cover"": ""SCT"", ""base_ft_agl"": 1700.0}]",METAR KMDD 131055Z AUTO 21008KT 10SM SCT017 20/17 A3006 RMK AO2 T01970169
KMDH,2026-04-13 10:52:00+00:00,2026-04-13 10:52:00+00:00,21.1,16.7,200.0,10.0,,10.0,1017.271556,VFR,,"[{""cover"": ""OVC"", ""base_ft_agl"": 3500.0}]",METAR KMDH 131052Z AUTO 20010KT 10SM OVC035 21/17 A3004 RMK AO2 SLP168 T02110167
KMDQ,2026-04-13 10:55:00+00:00,2026-04-13 10:55:00+00:00,17.2,10.2,170.0,5.0,,10.0,1024.721614,VFR,,"[{""cover"": ""SCT"", ""base_ft_agl"": 12000.0}]",METAR KMDQ 131055Z AUTO 17005KT 10SM SCT120 17/10 A3026 RMK A02 T01720102
KMDS,2026-04-13 10:55:00+00:00,2026-04-13 10:55:00+00:00,10.0,9.0,50.0,8.0,13.0,10.0,1006.7737470000001,VFR,,"[{""cover"": ""FEW"", ""base_ft_agl"": 3200.0}, {""cover"": ""SCT"", ""base_ft_agl"": 7500.0}, {""cover"": ""OVC"", ""base_ft_agl"": 11000.0}]",METAR KMDS 131055Z AUTO 05008G13KT 10SM FEW032 SCT075 OVC110 10/09 A2973 RMK AO2 TSNO
KMDT,2026-04-13 10:56:00+00:00,2026-04-13 10:56:00+00:00,11.1,8.3,0.0,0.0,,10.0,1019.980668,VFR,,"[{""cover"": ""SCT"", ""base_ft_agl"": 14000.0}, {""cover"": ""OVC"", ""base_ft_agl"": 17000.0}]",METAR KMDT 131056Z 00000KT 10SM SCT140 OVC170 11/08 A3012 RMK AO2 SLP200 T01110083
KMDW,2026-04-13 10:53:00+00:00,2026-04-13 10:53:00+00:00,18.3,16.1,250.0,11.0,19.0,10.0,1011.5146930000001,MVFR,,"[{""cover"": ""OVC"", ""base_ft_agl"": 1300.0}]",METAR KMDW 131053Z 25011G19KT 10SM OVC013 18/16 A2987 RMK AO2 SLP108 T01830161
KMDZ,2026-04-13 10:55:00+00:00,2026-04-13 10:55:00+00:00,12.9,12.4,250.0,3.0,,2.5,1006.7737470000001,IFR,,,METAR KMDZ 131055Z AUTO 25003KT 2 1/2SM CLR 13/12 A2973 RMK AO2 T01290124 PWINO
KMEB,2026-04-13 11:04:00+00:00,2026-04-13 11:04:00+00:00,12.8,12.2,0.0,0.0,,0.25,1027.769365,LIFR,FG,,SPECI KMEB 131104Z AUTO 00000KT 1/4SM FG CLR 13/12 A3035 RMK AO2 T01280122
KMEI,2026-04-13 10:58:00+00:00,2026-04-13 10:58:00+00:00,13.9,13.3,0.0,0.0,,10.0,1023.367058,VFR,,,METAR KMEI 131058Z 00000KT 10SM CLR 14/13 A3022 RMK AO2 SLP229 T01390133
KMEM,2026-04-13 10:54:00+00:00,2026-04-13 10:54:00+00:00,20.6,14.4,190.0,10.0,,10.0,1019.980668,VFR,,"[{""cover"": ""BKN"", ""base_ft_agl"": 10000.0}, {""cover"": ""OVC"", ""base_ft_agl"": 14000.0}]",METAR KMEM 131054Z 19010KT 10SM BKN100 OVC140 21/14 A3012 RMK AO2 SLP197 T02060144 $
KMEV,2026-04-13 10:25:00+00:00,2026-04-13 10:25:00+00:00,0.0,0.0,120.0,4.0,,8.0,1016.594278,VFR,,"[{""cover"": ""OVC"", ""base_ft_agl"": 6000.0}]",METAR KMEV 131025Z AUTO 12004KT 8SM OVC060 00/00 A3002 RMK AO2
KMEZ,2026-04-13 10:55:00+00:00,2026-04-13 10:55:00+00:00,19.8,17.8,240.0,5.0,,10.0,1018.2874730000001,MVFR,,"[{""cover"": ""BKN"", ""base_ft_agl"": 1400.0}, {""cover"": ""OVC"", ""base_ft_agl"": 2200.0}]",METAR KMEZ 131055Z AUTO 24005KT 10SM BKN014 OVC022 20/18 A3007 RMK AO2 CIG 012V017 OVC V BKN T01980178
KMFD,2026-04-13 10:52:00+00:00,2026-04-13 10:52:00+00:00,17.8,12.2,210.0,17.0,31.0,10.0,1014.901083,VFR,,"[{""cover"": ""BKN"", ""base_ft_agl"": 4200.0}, {""cover"": ""OVC"", ""base_ft_agl"": 10000.0}]",METAR KMFD 131052Z 21017G31KT 10SM BKN042 OVC100 18/12 A2997 RMK AO2 PK WND 23037/0954 RAE10 SLP142 P0000 T01780122 $
KMFE,2026-04-13 11:00:00+00:00,2026-04-13 11:00:00+00:00,23.9,21.1,150.0,8.0,,10.0,1016.2556390000001,MVFR,,"[{""cover"": ""OVC"", ""base_ft_agl"": 2500.0}]",SPECI KMFE 131100Z 15008KT 10SM OVC025 24/21 A3001 RMK AO2 T02390211 $
KMFI,2026-04-13 10:54:00+00:00,2026-04-13 10:54:00+00:00,13.3,12.8,270.0,5.0,,10.0,1007.112386,VFR,,,METAR KMFI 131054Z AUTO 27005KT 10SM CLR 13/13 A2974 RMK AO2 SLP069 T01330128
KMFR,2026-04-13 10:53:00+00:00,2026-04-13 10:53:00+00:00,8.3,5.6,270.0,4.0,,10.0,1017.271556,VFR,,"[{""cover"": ""FEW"", ""base_ft_agl"": 3800.0}, {""cover"": ""OVC"", ""base_ft_agl"": 5000.0}]",METAR KMFR 131053Z AUTO 27004KT 10SM FEW038 OVC050 08/06 A3004 RMK AO2 SLP172 T00830056 $
KMGC,2026-04-13 10:35:00+00:00,2026-04-13 10:35:00+00:00,17.0,15.0,230.0,11.0,,10.0,1012.1919710000001,MVFR,,"[{""cover"": ""OVC"", ""base_ft_agl"": 1900.0}]",METAR KMGC 131035Z AUTO 23011KT 10SM OVC019 17/15 A2989 RMK AO2
KMGG,2026-04-13 10:55:00+00:00,2026-04-13 10:55:00+00:00,9.9,8.7,360.0,9.0,,10.0,1008.128303,VFR,,,METAR KMGG 131055Z AUTO 36009KT 10SM CLR 10/09 A2977 RMK AO2 T00990087
KMGJ,2026-04-13 10:54:00+00:00,2026-04-13 10:54:00+00:00,8.3,3.3,,,,10.0,1020.319307,MVFR,,"[{""cover"": ""OVC"", ""base_ft_agl"": 1600.0}]",METAR KMGJ 131054Z AUTO 10SM OVC016 08/03 A3013 RMK AO2 SLP204 T00830033
KMGM,2026-04-13 10:53:00+00:00,2026-04-13 10:53:00+00:00,12.2,11.1,80.0,3.0,,10.0,1025.3988920000002,VFR,,,METAR KMGM 131053Z AUTO 08003KT 10SM CLR 12/11 A3028 RMK AO2 SLP252 T01220111
KMGN,2026-04-13 10:55:00+00:00,2026-04-13 10:55:00+00:00,13.3,12.9,270.0,8.0,18.0,10.0,1003.387357,MVFR,,"[{""cover"": ""SCT"", ""base_ft_agl"": 500.0}, {""cover"": ""OVC"", ""base_ft_agl"": 1100.0}]",METAR KMGN 131055Z AUTO 27008G18KT 10SM SCT005 OVC011 13/12 A2963 RMK AO2 T01330129
KMGR,2026-04-13 10:55:00+00:00,2026-04-13 10:55:00+00:00,12.4,12.3,0.0,0.0,,9.0,1026.753448,VFR,,,METAR KMGR 131055Z AUTO 00000KT 9SM CLR 12/12 A3032 RMK AO2 T01240123
KMGW,2026-04-13 10:53:00+00:00,2026-04-13 10:53:00+00:00,22.2,6.1,200.0,8.0,23.0,10.0,1019.30339,VFR,,,METAR KMGW 131053Z 20008G23KT 10SM CLR 22/06 A3010 RMK AO2 SLP181 T02220061 $
KMGY,2026-04-13 10:53:00+00:00,2026-04-13 10:53:00+00:00,20.0,11.7,210.0,9.0,18.0,10.0,1016.9329170000001,VFR,,"[{""cover"": ""SCT"", ""base_ft_agl"": 4900.0}, {""cover"": ""SCT"", ""base_ft_agl"": 7500.0}]",METAR KMGY 131053Z AUTO 21009G18KT 10SM SCT049 SCT075 20/12 A3003 RMK AO2 SLP163 T02000117
KMHE,2026-04-13 10:53:00+00:00,2026-04-13 10:53:00+00:00,11.1,8.3,20.0,9.0,,10.0,1006.0964690000001,VFR,,"[{""cover"": ""FEW"", ""base_ft_agl"": 7000.0}, {""cover"": ""SCT"", ""base_ft_agl"": 9000.0}, {""cover"": ""BKN"", ""base_ft_agl"": 11000.0}]",METAR KMHE 131053Z AUTO 02009KT 10SM FEW070 SCT090 BKN110 11/08 A2971 RMK AO2 PRESFR SLP055 T01110083
KMHK,2026-04-13 10:52:00+00:00,2026-04-13 10:52:00+00:00,20.6,17.8,200.0,14.0,25.0,10.0,1006.7737470000001,VFR,,,METAR KMHK 131052Z 20014G25KT 10SM CLR 21/18 A2973 RMK AO2 PK WND 20027/1036 SLP058 T02060178 $
KMHL,2026-04-13 10:55:00+00:00,2026-04-13 10:55:00+00:00,20.0,17.0,170.0,6.0,,10.0,1012.53061,MVFR,,"[{""cover"": ""OVC"", ""base_ft_agl"": 2400.0}]",METAR KMHL 131055Z AUTO 17006KT 10SM OVC024 20/17 A2990 RMK AO2 P0020 LTG DSNT NE AND E
KMHP,2026-04-13 10:55:00+00:00,2026-04-13 10:55:00+00:00,11.4,10.9,0.0,0.0,,3.5,1027.430726,MVFR,BR,"[{""cover"": ""SCT"", ""base_ft_agl"": 100.0}]",METAR KMHP 131055Z AUTO 00000KT 3 1/2SM BR SCT001 11/11 A3034 RMK AO2 T01140109
KMHR,2026-04-13 10:55:00+00:00,2026-04-13 10:55:00+00:00,10.0,10.0,130.0,3.0,,10.0,1017.6101950000001,MVFR,,"[{""cover"": ""FEW"", ""base_ft_agl"": 2100.0}, {""cover"": ""BKN"", ""base_ft_agl"": 2600.0}, {""cover"": ""OVC"", ""base_ft_agl"": 7000.0}]",METAR KMHR 131055Z AUTO 13003KT 10SM FEW021 BKN026 OVC070 10/10 A3005 RMK AO2
KMHS,2026-04-13 10:56:00+00:00,2026-04-13 10:56:00+00:00,2.2,1.7,0.0,0.0,,10.0,1016.9329170000001,LIFR,,"[{""cover"": ""OVC"", ""base_ft_agl"": 300.0}]",METAR KMHS 131056Z AUTO 00000KT 10SM OVC003 02/02 A3003 RMK AO2 SLP194 T00220017 $
KMHT,2026-04-13 10:53:00+00:00,2026-04-13 10:53:00+00:00,8.3,3.3,180.0,10.0,,10.0,1018.6261119999999,MVFR,,"[{""cover"": ""BKN"", ""base_ft_agl"": 2600.0}, {""cover"": ""OVC"", ""base_ft_agl"": 12000.0}]",METAR KMHT 131053Z 18010KT 10SM BKN026 OVC120 08/03 A3008 RMK AO2 SLP202 T00830033
KMHV,2026-04-13 10:55:00+00:00,2026-04-13 10:55:00+00:00,7.7,2.2,260.0,6.0,,10.0,1015.239722,VFR,,"[{""cover"": ""OVC"", ""base_ft_agl"": 5500.0}]",METAR KMHV 131055Z AUTO 26006KT 10SM OVC055 08/02 A2998 RMK AO2 T00770022 $
KMIA,2026-04-13 10:53:00+00:00,2026-04-13 10:53:00+00:00,22.8,15.0,60.0,9.0,,10.0,1023.367058,VFR,,"[{""cover"": ""FEW"", ""base_ft_agl"": 3500.0}, {""cover"": ""SCT"", ""base_ft_agl"": 4800.0}]",METAR KMIA 131053Z 06009KT 10SM FEW035 SCT048 23/15 A3022 RMK SLP233 T02280150
KMIB,2026-04-13 09:55:00+00:00,2026-04-13 09:55:00+00:00,1.7,0.7,0.0,0.0,,4.0,1009.482859,IFR,BR,"[{""cover"": ""OVC"", ""base_ft_agl"": 600.0}]",METAR KMIB 130955Z 00000KT 4SM BR OVC006 02/01 A2981 RMK CIG 003 RWY30 SLP109 T00170007 $
KMIC,2026-04-13 10:53:00+00:00,2026-04-13 10:53:00+00:00,9.4,8.3,10.0,7.0,,10.0,1006.7737470000001,VFR,,,METAR KMIC 131053Z 01007KT 10SM CLR 09/08 A2973 RMK AO2 SLP066 T00940083
KMIE,2026-04-13 10:53:00+00:00,2026-04-13 10:53:00+00:00,18.9,11.7,,,,10.0,1015.239722,VFR,,,METAR KMIE 131053Z 10SM CLR 19/12 A2998 RMK AO2 SLP142 T01890117
KMIO,2026-04-13 10:55:00+00:00,2026-04-13 10:55:00+00:00,22.0,21.0,190.0,18.0,24.0,10.0,1013.2078880000001,MVFR,,"[{""cover"": ""BKN"", ""base_ft_agl"": 2200.0}, {""cover"": ""OVC"", ""base_ft_agl"": 2700.0}]",METAR KMIO 131055Z AUTO 19018G24KT 10SM BKN022 OVC027 22/21 A2992 RMK A01
KMIV,2026-04-13 10:54:00+00:00,2026-04-13 10:54:00+00:00,14.4,12.2,,,,,1022.012502,,,,METAR KMIV 131054Z AUTO 14/12 A3018 RMK AO2 SLP218 T01440122 PWINO $
KMIW,2026-04-13 10:53:00+00:00,2026-04-13 10:53:00+00:00,16.1,15.0,190.0,6.0,,10.0,1008.466942,VFR,,,METAR KMIW 131053Z AUTO 19006KT 10SM CLR 16/15 A2978 RMK AO2 SLP083 T01610150
KMJD,2026-04-13 10:55:00+00:00,2026-04-13 10:55:00+00:00,15.0,15.0,0.0,0.0,,2.0,1022.012502,IFR,BR,,METAR KMJD 131055Z AUTO 00000KT 2SM BR CLR 15/15 A3018 RMK AO2 VIS 3/4V5
KMJQ,2026-04-13 10:55:00+00:00,2026-04-13 10:55:00+00:00,13.0,10.0,220.0,5.0,,10.0,1006.7737470000001,VFR,,,METAR KMJQ 131055Z AUTO 22005KT 10SM CLR 13/10 A2973 RMK AO2
KMJX,2026-04-13 10:56:00+00:00,2026-04-13 10:56:00+00:00,13.3,11.7,200.0,8.0,,10.0,1022.012502,VFR,,,METAR KMJX 131056Z AUTO 20008KT 10SM CLR 13/12 A3018 RMK AO2 SLP223 T01330117 $
KMKC,2026-04-13 10:54:00+00:00,2026-04-13 10:54:00+00:00,21.1,17.8,180.0,11.0,,10.0,1009.821498,MVFR,,"[{""cover"": ""BKN"", ""base_ft_agl"": 2700.0}]",METAR KMKC 131054Z 18011KT 10SM BKN027 21/18 A2982 RMK AO2 PK WND 19027/1011 SLP091 T02110178
KMKE,2026-04-13 10:52:00+00:00,2026-04-13 10:52:00+00:00,17.2,15.0,240.0,8.0,,10.0,1009.14422,MVFR,,"[{""cover"": ""OVC"", ""base_ft_agl"": 2600.0}]",METAR KMKE 131052Z 24008KT 10SM OVC026 17/15 A2980 RMK AO2 SLP089 T01720150 $
KMKG,2026-04-13 10:55:00+00:00,2026-04-13 10:55:00+00:00,12.2,11.7,220.0,14.0,22.0,2.0,1009.14422,LIFR,,"[{""cover"": ""BKN"", ""base_ft_agl"": 300.0}, {""cover"": ""OVC"", ""base_ft_agl"": 3200.0}]",METAR KMKG 131055Z 22014G22KT 2SM BKN003 OVC032 12/12 A2980 RMK AO2 SFC VIS 7 SLP092 T01220117 $
KMKJ,2026-04-13 10:55:00+00:00,2026-04-13 10:55:00+00:00,10.7,5.1,0.0,0.0,,10.0,1026.4148089999999,VFR,,,METAR KMKJ 131055Z AUTO 00000KT 10SM CLR 11/05 A3031 RMK AO2 T01070051
KMKL,2026-04-13 10:53:00+00:00,2026-04-13 10:53:00+00:00,20.6,15.0,190.0,7.0,,10.0,1020.996585,VFR,-RA,"[{""cover"": ""FEW"", ""base_ft_agl"": 7500.0}, {""cover"": ""BKN"", ""base_ft_agl"": 11000.0}]",METAR KMKL 131053Z AUTO 19007KT 10SM -RA FEW075 BKN110 21/15 A3015 RMK AO1 RAB42 SLP206 P0000 T02060150
KMKN,2026-04-13 10:55:00+00:00,2026-04-13 10:55:00+00:00,21.3,20.2,170.0,9.0,,10.0,1016.9329170000001,MVFR,,"[{""cover"": ""BKN"", ""base_ft_agl"": 1400.0}, {""cover"": ""BKN"", ""base_ft_agl"": 1900.0}, {""cover"": ""OVC"", ""base_ft_agl"": 2400.0}]",METAR KMKN 131055Z AUTO 17009KT 10SM BKN014 BKN019 OVC024 21/20 A3003 RMK AO2 T02130202
KMKO,2026-04-13 10:53:00+00:00,2026-04-13 10:53:00+00:00,22.2,17.2,190.0,17.0,28.0,10.0,1015.917,MVFR,,"[{""cover"": ""OVC"", ""base_ft_agl"": 2100.0}]",METAR KMKO 131053Z AUTO 19017G28KT 10SM OVC021 22/17 A3000 RMK AO2 PK WND 18034/1037 SLP151 T02220172
KMKQ,2026-04-13 10:55:00+00:00,2026-04-13 10:55:00+00:00,24.0,18.0,110.0,14.0,,10.0,1022.3511410000001,VFR,,"[{""cover"": ""FEW"", ""base_ft_agl"": 4900.0}]",METAR KMKQ 131055Z AUTO 11014KT 10SM FEW049 24/18 A3019 RMK A01
KMKS,2026-04-13 10:55:00+00:00,2026-04-13 10:55:00+00:00,12.0,12.0,0.0,0.0,,1.0,1027.430726,LIFR,BR,"[{""cover"": ""OVC"", ""base_ft_agl"": 200.0}]",METAR KMKS 131055Z AUTO 00000KT 1SM BR OVC002 12/12 A3034 RMK AO2
KMKT,2026-04-13 10:56:00+00:00,2026-04-13 10:56:00+00:00,11.7,11.1,0.0,0.0,,0.5,1006.7737470000001,LIFR,-RA FG,,METAR KMKT 131056Z AUTO 00000KT 1/2SM -RA FG CLR 12/11 A2973 RMK AO2 RAB50 SLP066 P0000 T01170111
KMKV,2026-04-13 10:55:00+00:00,2026-04-13 10:55:00+00:00,21.1,19.7,170.0,4.0,,10.0,1021.335224,MVFR,,"[{""cover"": ""BKN"", ""base_ft_agl"": 1200.0}, {""cover"": ""OVC"", ""base_ft_agl"": 20000.0}]",METAR KMKV 131055Z AUTO 17004KT 10SM BKN012 OVC200 21/20 A3016 RMK AO2 CIG 011V015 T02110197 $
KMKY,2026-04-13 10:56:00+00:00,2026-04-13 10:56:00+00:00,17.2,14.4,30.0,6.0,,10.0,1024.044336,VFR,,,METAR KMKY 131056Z AUTO 03006KT 10SM CLR 17/14 A3024 RMK AO2 SLP241 T01720144 PNO $
KMLB,2026-04-13 10:53:00+00:00,2026-04-13 10:53:00+00:00,21.1,13.3,80.0,10.0,,10.0,1024.721614,VFR,,,METAR KMLB 131053Z 08010KT 10SM CLR 21/13 A3026 RMK AO2 SLP245 T02110133
KMLC,2026-04-13 10:53:00+00:00,2026-04-13 10:53:00+00:00,20.6,17.8,200.0,8.0,18.0,10.0,1015.917,MVFR,,"[{""cover"": ""OVC"", ""base_ft_agl"": 1500.0}]",METAR KMLC 131053Z AUTO 20008G18KT 170V240 10SM OVC015 21/18 A3000 RMK AO2 SLP153 T02060178
KMLE,2026-04-13 10:55:00+00:00,2026-04-13 10:55:00+00:00,16.8,15.8,130.0,7.0,,10.0,1005.75783,VFR,,,METAR KMLE 131055Z AUTO 13007KT 10SM CLR 17/16 A2970 RMK AO2 T01680158
KMLF,2026-04-13 10:52:00+00:00,2026-04-13 10:52:00+00:00,3.9,-0.6,60.0,3.0,,10.0,1014.562444,VFR,,"[{""cover"": ""BKN"", ""base_ft_agl"": 6500.0}, {""cover"": ""OVC"", ""base_ft_agl"": 9000.0}]",METAR KMLF 131052Z AUTO 06003KT 10SM BKN065 OVC090 04/M01 A2996 RMK AO2 SLP115 T00391006
KMLI,2026-04-13 10:52:00+00:00,2026-04-13 10:52:00+00:00,17.2,16.1,210.0,9.0,,10.0,1010.498776,MVFR,,"[{""cover"": ""BKN"", ""base_ft_agl"": 1800.0}]",METAR KMLI 131052Z COR 21009KT 10SM BKN018 17/16 A2984 RMK AO2 SLP104 T01720161 $
KMLJ,2026-04-13 10:55:00+00:00,2026-04-13 10:55:00+00:00,14.0,14.0,0.0,0.0,,10.0,1026.753448,VFR,,,METAR KMLJ 131055Z AUTO 00000KT 10SM CLR 14/14 A3032 RMK AO2
KMLP,2026-04-13 10:53:00+00:00,2026-04-13 10:53:00+00:00,-1.1,-1.7,0.0,4.0,,0.5,1006.0964690000001,LIFR,SN FZFG,"[{""cover"": ""OVX"", ""base_ft_agl"": 200.0}]",METAR KMLP 131053Z AUTO VRB04KT 1/2SM SN FZFG VV002 M01/M02 A2971 RMK AO2 SLP024 P0014 T10111017 $
KMLS,2026-04-13 10:53:00+00:00,2026-04-13 10:53:00+00:00,5.0,3.9,30.0,4.0,,10.0,1006.435108,IFR,,"[{""cover"": ""OVC"", ""base_ft_agl"": 500.0}]",METAR KMLS 131053Z AUTO 03004KT 10SM OVC005 05/04 A2972 RMK AO2 SLP061 T00500039
KMLT,2026-04-13 10:53:00+00:00,2026-04-13 10:53:00+00:00,2.8,2.2,0.0,4.0,,5.0,1017.6101950000001,IFR,-RA BR,"[{""cover"": ""OVC"", ""base_ft_agl"": 800.0}]",METAR KMLT 131053Z AUTO VRB04KT 5SM -RA BR OVC008 03/02 A3005 RMK AO2 UPB0954E0957B15E20 CIG 005V010 SLP184 P0006 T00280022
KMLU,2026-04-13 10:53:00+00:00,2026-04-13 10:53:00+00:00,21.1,17.8,180.0,3.0,,10.0,1021.335224,VFR,,"[{""cover"": ""BKN"", ""base_ft_agl"": 3700.0}]",METAR KMLU 131053Z 18003KT 10SM BKN037 21/18 A3016 RMK AO2 SLP212 T02110178
KMMH,2026-04-13 10:55:00+00:00,2026-04-13 10:55:00+00:00,-5.0,-7.0,0.0,0.0,,10.0,1015.239722,VFR,,,METAR KMMH 131055Z AUTO 00000KT 10SM CLR M05/M07 A2998 RMK AO2
KMMI,2026-04-13 10:55:00+00:00,2026-04-13 10:55:00+00:00,16.0,7.0,0.0,0.0,,10.0,1025.737531,VFR,,,METAR KMMI 131055Z AUTO 00000KT 10SM CLR 16/07 A3029 RMK A01
KMMK,2026-04-13 10:53:00+00:00,2026-04-13 10:53:00+00:00,10.0,5.0,170.0,6.0,,10.0,1021.335224,MVFR,,"[{""cover"": ""OVC"", ""base_ft_agl"": 2200.0}]",METAR KMMK 131053Z AUTO 17006KT 10SM OVC022 10/05 A3016 RMK AO2 SLP215 T01000050
KMML,2026-04-13 10:56:00+00:00,2026-04-13 10:56:00+00:00,8.9,8.9,350.0,12.0,,0.75,1007.4510250000001,LIFR,-RA BR,"[{""cover"": ""OVC"", ""base_ft_agl"": 200.0}]",METAR KMML 131056Z AUTO 35012KT 3/4SM -RA BR OVC002 09/09 A2975 RMK AO2 RAB22 SLP073 P0000 T00890089
KMMT,2026-04-13 10:55:00+00:00,2026-04-13 10:55:00+00:00,10.9,9.6,0.0,0.0,,4.0,1026.4148089999999,MVFR,BR,,METAR KMMT 131055Z AUTO 00000KT 4SM BR CLR 11/10 A3031 RMK AO2 SLP265 T01090096 $
KMMU,2026-04-13 10:45:00+00:00,2026-04-13 10:45:00+00:00,8.0,6.0,0.0,0.0,,10.0,1021.6738630000001,MVFR,,"[{""cover"": ""OVC"", ""base_ft_agl"": 1600.0}]",METAR KMMU 131045Z 00000KT 10SM OVC016 08/06 A3017
KMMV,2026-04-13 10:53:00+00:00,2026-04-13 10:53:00+00:00,8.9,7.2,230.0,7.0,,10.0,1016.2556390000001,VFR,,"[{""cover"": ""OVC"", ""base_ft_agl"": 5500.0}]",METAR KMMV 131053Z AUTO 23007KT 10SM OVC055 09/07 A3001 RMK AO2 SLP161 T00890072 $
KMNE,2026-04-13 10:55:00+00:00,2026-04-13 10:55:00+00:00,20.0,17.0,170.0,4.0,,10.0,1020.319307,MVFR,,"[{""cover"": ""OVC"", ""base_ft_agl"": 1500.0}]",METAR KMNE 131055Z AUTO 17004KT 10SM OVC015 20/17 A3013 RMK AO2
KMNH,2026-04-13 10:55:00+00:00,2026-04-13 10:55:00+00:00,8.0,-10.0,250.0,11.0,,10.0,1013.546527,VFR,,,METAR KMNH 131055Z AUTO 25011KT 10SM CLR 08/M10 A2993 RMK AO2
KMNI,2026-04-13 10:55:00+00:00,2026-04-13 10:55:00+00:00,11.0,11.0,0.0,0.0,,10.0,1027.769365,VFR,,"[{""cover"": ""SCT"", ""base_ft_agl"": 200.0}]",METAR KMNI 131055Z AUTO 00000KT 10SM SCT002 11/11 A3035 RMK AO2
KMNM,2026-04-13 10:57:00+00:00,2026-04-13 10:57:00+00:00,15.0,15.0,250.0,4.0,,10.0,1005.080552,VFR,,,METAR KMNM 131057Z AUTO 25004KT 10SM CLR 15/15 A2968 RMK AO2 SLP051 T01500150 PNO $
KMNN,2026-04-13 10:53:00+00:00,2026-04-13 10:53:00+00:00,19.4,11.7,240.0,14.0,27.0,10.0,1015.239722,VFR,,"[{""cover"": ""FEW"", ""base_ft_agl"": 6000.0}, {""cover"": ""SCT"", ""base_ft_agl"": 12000.0}]",METAR KMNN 131053Z AUTO 24014G27KT 10SM FEW060 SCT120 19/12 A2998 RMK AO2 PK WND 23028/1004 SLP148 T01940117 $
KMNV,2026-04-13 10:55:00+00:00,2026-04-13 10:55:00+00:00,16.0,8.0,230.0,5.0,,10.0,1025.060253,VFR,,"[{""cover"": ""FEW"", ""base_ft_agl"": 3900.0}, {""cover"": ""BKN"", ""base_ft_agl"": 11000.0}]",METAR KMNV 131055Z AUTO 23005KT 10SM FEW039 BKN110 16/08 A3027 RMK A01
KMNZ,2026-04-13 10:55:00+00:00,2026-04-13 10:55:00+00:00,21.0,21.0,180.0,12.0,17.0,10.0,1016.9329170000001,MVFR,,"[{""cover"": ""BKN"", ""base_ft_agl"": 1300.0}, {""cover"": ""BKN"", ""base_ft_agl"": 1900.0}, {""cover"": ""OVC"", ""base_ft_agl"": 2900.0}]",METAR KMNZ 131055Z AUTO 18012G17KT 10SM BKN013 BKN019 OVC029 21/21 A3003 RMK AO2
KMOB,2026-04-13 10:56:00+00:00,2026-04-13 10:56:00+00:00,15.6,14.4,130.0,5.0,,10.0,1024.044336,VFR,,"[{""cover"": ""FEW"", ""base_ft_agl"": 2900.0}, {""cover"": ""BKN"", ""base_ft_agl"": 25000.0}]",METAR KMOB 131056Z 13005KT 10SM FEW029 BKN250 16/14 A3024 RMK AO2 SLP237 T01560144
KMOD,2026-04-13 10:53:00+00:00,2026-04-13 10:53:00+00:00,10.6,8.3,0.0,0.0,,10.0,1017.271556,VFR,,"[{""cover"": ""OVC"", ""base_ft_agl"": 6500.0}]",METAR KMOD 131053Z AUTO 00000KT 10SM OVC065 11/08 A3004 RMK AO2 SLP173 T01060083
KMOP,2026-04-13 10:55:00+00:00,2026-04-13 10:55:00+00:00,15.5,14.5,240.0,11.0,17.0,10.0,1007.4510250000001,MVFR,,"[{""cover"": ""OVC"", ""base_ft_agl"": 1100.0}]",METAR KMOP 131055Z AUTO 24011G17KT 10SM OVC011 16/15 A2975 RMK AO2 T01550145
KMOR,2026-04-13 10:50:00+00:00,2026-04-13 10:50:00+00:00,14.0,8.0,0.0,0.0,,10.0,1025.060253,VFR,,,METAR KMOR 131050Z AUTO 00000KT 10SM 14/08 A3027 RMK A01
KMOT,2026-04-13 10:54:00+00:00,2026-04-13 10:54:00+00:00,1.1,0.6,360.0,3.0,,2.5,1010.160137,LIFR,BR,"[{""cover"": ""OVC"", ""base_ft_agl"": 300.0}]",METAR KMOT 131054Z AUTO 36003KT 2 1/2SM BR OVC003 01/01 A2983 RMK AO2 SLP112 T00110006
KMPO,2026-04-13 10:53:00+00:00,2026-04-13 10:53:00+00:00,10.0,8.9,220.0,14.0,22.0,2.5,1019.642029,LIFR,BR,"[{""cover"": ""OVC"", ""base_ft_agl"": 200.0}]",METAR KMPO 131053Z AUTO 22014G22KT 2 1/2SM BR OVC002 10/09 A3011 RMK AO2 SLP199 T01000089
KMPR,2026-04-13 10:55:00+00:00,2026-04-13 10:55:00+00:00,19.0,18.0,180.0,15.0,20.0,10.0,1007.7896640000001,MVFR,,"[{""cover"": ""OVC"", ""base_ft_agl"": 1200.0}]",METAR KMPR 131055Z AUTO 18015G20KT 10SM OVC012 19/18 A2976 RMK AO2 T01900180
KMPV,2026-04-13 10:51:00+00:00,2026-04-13 10:51:00+00:00,5.0,2.2,0.0,0.0,,10.0,1016.2556390000001,VFR,,"[{""cover"": ""OVC"", ""base_ft_agl"": 11000.0}]",METAR KMPV 131051Z AUTO 00000KT 10SM OVC110 05/02 A3001 RMK AO2 SLP171 T00500022
KMPZ,2026-04-13 10:55:00+00:00,2026-04-13 10:55:00+00:00,16.0,15.0,210.0,7.0,,10.0,1011.176054,VFR,,"[{""cover"": ""SCT"", ""base_ft_agl"": 1600.0}]",METAR KMPZ 131055Z AUTO 21007KT 10SM SCT016 16/15 A2986 RMK AO2
KMQB,2026-04-13 10:55:00+00:00,2026-04-13 10:55:00+00:00,18.0,17.0,230.0,11.0,,10.0,1012.53061,VFR,,,METAR KMQB 131055Z AUTO 23011KT 10SM CLR 18/17 A2990 RMK AO2 T01800170
KMQI,2026-04-13 10:55:00+00:00,2026-04-13 10:55:00+00:00,15.7,14.6,220.0,6.0,,10.0,1027.769365,VFR,,,METAR KMQI 131055Z AUTO 22006KT 10SM CLR 16/15 A3035 RMK AO2 T01570146
KMQJ,2026-04-13 10:55:00+00:00,2026-04-13 10:55:00+00:00,19.8,13.5,220.0,10.0,,9.0,1015.917,VFR,,"[{""cover"": ""FEW"", ""base_ft_agl"": 3900.0}]",METAR KMQJ 131055Z AUTO 22010KT 9SM FEW039 20/14 A3000 RMK AO2 T01980135
KMQS,2026-04-13 10:55:00+00:00,2026-04-13 10:55:00+00:00,9.9,9.9,0.0,0.0,,8.0,1020.657946,IFR,,"[{""cover"": ""BKN"", ""base_ft_agl"": 900.0}, {""cover"": ""BKN"", ""base_ft_agl"": 16000.0}, {""cover"": ""OVC"", ""base_ft_agl"": 19000.0}]",METAR KMQS 131055Z AUTO 00000KT 8SM BKN009 BKN160 OVC190 10/10 A3014 RMK AO2 T00990099
KMQY,2026-04-13 10:56:00+00:00,2026-04-13 10:56:00+00:00,20.0,12.2,170.0,4.0,,10.0,1023.0284190000001,VFR,,"[{""cover"": ""FEW"", ""base_ft_agl"": 7000.0}, {""cover"": ""BKN"", ""base_ft_agl"": 11000.0}]",METAR KMQY 131056Z AUTO 17004KT 10SM FEW070 BKN110 20/12 A3021 RMK AO2 SLP232 T02000122
KMRB,2026-04-13 10:53:00+00:00,2026-04-13 10:53:00+00:00,13.3,8.9,0.0,0.0,,10.0,1019.30339,VFR,,,METAR KMRB 131053Z 00000KT 10SM CLR 13/09 A3010 RMK AO2 SLP190 T01330089 PNO $
KMRC,2026-04-13 10:50:00+00:00,2026-04-13 10:50:00+00:00,20.0,10.0,200.0,8.0,,9.0,1022.012502,VFR,,"[{""cover"": ""SCT"", ""base_ft_agl"": 1900.0}, {""cover"": ""BKN"", ""base_ft_agl"": 6000.0}, {""cover"": ""BKN"", ""base_ft_agl"": 10000.0}]",METAR KMRC 131050Z AUTO 20008KT 9SM SCT019 BKN060 BKN100 20/10 A3018 RMK A01
KMRF,2026-04-13 11:01:00+00:00,2026-04-13 11:01:00+00:00,9.4,6.7,0.0,0.0,,10.0,1022.3511410000001,VFR,,,METAR KMRF 131101Z AUTO 00000KT 10SM CLR 09/07 A3019 RMK AO2 SLP175 T00940067 $
KMRH,2026-04-13 10:58:00+00:00,2026-04-13 10:58:00+00:00,16.7,15.6,170.0,4.0,,10.0,1027.769365,VFR,,,METAR KMRH 131058Z AUTO 17004KT 10SM CLR 17/16 A3035 RMK AO2 SLP277 T01670156 $
KMRN,2026-04-13 10:07:00+00:00,2026-04-13 10:07:00+00:00,18.0,10.0,0.0,0.0,,10.0,1027.092087,VFR,,,METAR KMRN 131007Z AUTO 00000KT 10SM CLR 18/10 A3033 RMK AO2
KMRT,2026-04-13 10:55:00+00:00,2026-04-13 10:55:00+00:00,21.0,12.0,240.0,19.0,24.0,10.0,1015.917,VFR,,,METAR KMRT 131055Z AUTO 24019G24KT 10SM 21/12 A3000 RMK AO2
KMRY,2026-04-13 10:54:00+00:00,2026-04-13 10:54:00+00:00,9.4,8.3,0.0,0.0,,10.0,1017.948834,VFR,,"[{""cover"": ""FEW"", ""base_ft_agl"": 2400.0}, {""cover"": ""BKN"", ""base_ft_agl"": 3700.0}]",METAR KMRY 131054Z AUTO 00000KT 10SM FEW024 BKN037 09/08 A3006 RMK AO2 SLP193 T00940083
KMSL,2026-04-13 10:53:00+00:00,2026-04-13 10:53:00+00:00,18.9,10.6,180.0,5.0,,10.0,1023.0284190000001,VFR,,"[{""cover"": ""BKN"", ""base_ft_agl"": 11000.0}]",METAR KMSL 131053Z AUTO 18005KT 10SM BKN110 19/11 A3021 RMK AO2 SLP226 T01890106 $
KMSN,2026-04-13 10:53:00+00:00,2026-04-13 10:53:00+00:00,15.6,14.4,230.0,6.0,,10.0,1008.805581,MVFR,,"[{""cover"": ""BKN"", ""base_ft_agl"": 2100.0}]",METAR KMSN 131053Z 23006KT 10SM BKN021 16/14 A2979 RMK AO2 SLP087 T01560144
KMSO,2026-04-13 10:53:00+00:00,2026-04-13 10:53:00+00:00,5.0,2.2,0.0,0.0,,10.0,1006.7737470000001,VFR,,,METAR KMSO 131053Z AUTO 00000KT 10SM CLR 05/02 A2973 RMK AO2 SLP072 T00500022 $
KMSP,2026-04-13 10:53:00+00:00,2026-04-13 10:53:00+00:00,11.7,8.9,50.0,3.0,,10.0,1007.112386,VFR,,,METAR KMSP 131053Z 05003KT 10SM CLR 12/09 A2974 RMK AO2 SLP067 T01170089
KMSS,2026-04-13 10:53:00+00:00,2026-04-13 10:53:00+00:00,6.1,5.6,0.0,0.0,,6.0,1009.14422,VFR,BR,,METAR KMSS 131053Z AUTO 00000KT 6SM BR CLR 06/06 A2980 RMK AO2 SLP095 T00610056
KMSV,2026-04-13 10:56:00+00:00,2026-04-13 10:56:00+00:00,5.6,2.8,90.0,3.0,,10.0,1019.642029,VFR,,"[{""cover"": ""SCT"", ""base_ft_agl"": 9000.0}, {""cover"": ""OVC"", ""base_ft_agl"": 12000.0}]",METAR KMSV 131056Z AUTO 09003KT 10SM SCT090 OVC120 06/03 A3011 RMK AO2 SLP201 T00560028 PNO $
KMSY,2026-04-13 10:53:00+00:00,2026-04-13 10:53:00+00:00,20.0,18.3,150.0,3.0,,10.0,1022.012502,VFR,,"[{""cover"": ""SCT"", ""base_ft_agl"": 2200.0}, {""cover"": ""BKN"", ""base_ft_agl"": 25000.0}]",METAR KMSY 131053Z 15003KT 10SM SCT022 BKN250 20/18 A3018 RMK AO2 SLP224 T02000183
KMTC,2026-04-13 10:56:00+00:00,2026-04-13 10:56:00+00:00,17.5,14.6,230.0,13.0,,10.0,1007.7896640000001,MVFR,,"[{""cover"": ""BKN"", ""base_ft_agl"": 2200.0}, {""cover"": ""OVC"", ""base_ft_agl"": 2800.0}]",METAR KMTC 131056Z 23013KT 10SM BKN022 OVC028 18/15 A2976 RMK AO2A RAE31 SLP079 P0000 T01750146
KMTH,2026-04-13 10:53:00+00:00,2026-04-13 10:53:00+00:00,22.8,13.9,70.0,10.0,,10.0,1022.012502,VFR,,"[{""cover"": ""FEW"", ""base_ft_agl"": 4300.0}, {""cover"": ""SCT"", ""base_ft_agl"": 6000.0}]",METAR KMTH 131053Z AUTO 07010KT 10SM FEW043 SCT060 23/14 A3018 RMK AO2 SLP218 T02280139
KMTJ,2026-04-13 10:53:00+00:00,2026-04-13 10:53:00+00:00,10.6,-7.8,190.0,10.0,15.0,10.0,1016.594278,VFR,,,METAR KMTJ 131053Z AUTO 19010G15KT 10SM CLR 11/M08 A3002 RMK AO2 SLP107 T01061078
KMTN,2026-04-13 10:45:00+00:00,2026-04-13 10:45:00+00:00,15.0,13.0,190.0,5.0,,10.0,1022.012502,VFR,,,METAR KMTN 131045Z 19005KT 10SM CLR 15/13 A3018
KMTO,2026-04-13 10:53:00+00:00,2026-04-13 10:53:00+00:00,20.0,15.6,200.0,8.0,,10.0,1015.239722,VFR,,"[{""cover"": ""FEW"", ""base_ft_agl"": 4600.0}, {""cover"": ""SCT"", ""base_ft_agl"": 5500.0}]",METAR KMTO 131053Z AUTO 20008KT 10SM FEW046 SCT055 20/16 A2998 RMK AO2 SLP148 T02000156 $
KMTP,2026-04-13 10:54:00+00:00,2026-04-13 10:54:00+00:00,8.9,6.1,190.0,9.0,19.0,,1023.0284190000001,,,,METAR KMTP 131054Z AUTO 19009G19KT 09/06 A3021 RMK AO1 SLP229 T00890061
KMTV,2026-04-13 10:55:00+00:00,2026-04-13 10:55:00+00:00,13.6,8.6,210.0,3.0,,10.0,1026.4148089999999,VFR,,,METAR KMTV 131055Z AUTO 21003KT 10SM CLR 14/09 A3031 RMK AO2 T01360086
KMTW,2026-04-13 10:56:00+00:00,2026-04-13 10:56:00+00:00,17.2,15.6,250.0,13.0,,10.0,1006.435108,VFR,,"[{""cover"": ""SCT"", ""base_ft_agl"": 3600.0}]",METAR KMTW 131056Z AUTO 25013KT 10SM SCT036 17/16 A2972 RMK AO2 SLP062 T01720156 $
KMUI,2026-04-13 09:55:00+00:00,2026-04-13 09:55:00+00:00,11.5,9.9,0.0,0.0,,7.0,1019.642029,MVFR,,"[{""cover"": ""BKN"", ""base_ft_agl"": 1900.0}, {""cover"": ""OVC"", ""base_ft_agl"": 18000.0}]",METAR KMUI 130955Z 00000KT 7SM BKN019 OVC180 12/10 A3011 RMK AO2A CIG 019V180 BKN V SCT SLP199 T01150099
KMUT,2026-04-13 10:55:00+00:00,2026-04-13 10:55:00+00:00,16.0,16.0,160.0,5.0,,10.0,1010.8374150000001,MVFR,,"[{""cover"": ""OVC"", ""base_ft_agl"": 1700.0}]",METAR KMUT 131055Z AUTO 16005KT 10SM OVC017 16/16 A2985 RMK A01
KMVE,2026-04-13 10:55:00+00:00,2026-04-13 10:55:00+00:00,9.0,9.0,340.0,9.0,,1.25,1007.7896640000001,LIFR,BR,"[{""cover"": ""OVC"", ""base_ft_agl"": 100.0}]",METAR KMVE 131055Z AUTO 34009KT 1 1/4SM BR OVC001 09/09 A2976 RMK AO2
KMVH,2026-04-13 10:55:00+00:00,2026-04-13 10:55:00+00:00,4.0,3.0,330.0,4.0,,10.0,1005.75783,VFR,,,METAR KMVH 131055Z AUTO 33004KT 10SM CLR 04/03 A2970 RMK AO2
KMVN,2026-04-13 10:56:00+00:00,2026-04-13 10:56:00+00:00,21.7,16.7,220.0,12.0,,10.0,1017.271556,VFR,,"[{""cover"": ""OVC"", ""base_ft_agl"": 3300.0}]",METAR KMVN 131056Z AUTO 22012KT 10SM OVC033 22/17 A3004 RMK AO2 SLP173 T02170167 $
KMVY,2026-04-13 10:53:00+00:00,2026-04-13 10:53:00+00:00,9.4,6.1,190.0,13.0,,10.0,1023.7056970000001,MVFR,,"[{""cover"": ""BKN"", ""base_ft_agl"": 2800.0}, {""cover"": ""OVC"", ""base_ft_agl"": 4500.0}]",METAR KMVY 131053Z 19013KT 10SM BKN028 OVC045 09/06 A3023 RMK AO2 SLP238 T00940061
KMWA,2026-04-13 10:55:00+00:00,2026-04-13 10:55:00+00:00,20.7,15.2,200.0,8.0,,10.0,1017.948834,VFR,,"[{""cover"": ""SCT"", ""base_ft_agl"": 3400.0}, {""cover"": ""OVC"", ""base_ft_agl"": 3900.0}]",METAR KMWA 131055Z AUTO 20008KT 10SM SCT034 OVC039 21/15 A3006 RMK AO2 T02070152
KMWC,2026-04-13 10:55:00+00:00,2026-04-13 10:55:00+00:00,16.0,15.0,220.0,11.0,15.0,10.0,1009.14422,MVFR,,"[{""cover"": ""SCT"", ""base_ft_agl"": 1800.0}, {""cover"": ""OVC"", ""base_ft_agl"": 2700.0}]",METAR KMWC 131055Z AUTO 22011G15KT 10SM SCT018 OVC027 16/15 A2980 RMK AO2
KMWH,2026-04-13 10:52:00+00:00,2026-04-13 10:52:00+00:00,11.7,2.8,300.0,11.0,,9.0,1006.435108,VFR,,"[{""cover"": ""OVC"", ""base_ft_agl"": 7000.0}]",METAR KMWH 131052Z AUTO 30011KT 9SM OVC070 12/03 A2972 RMK AO2 SLP061 T01170028
KMWK,2026-04-13 10:55:00+00:00,2026-04-13 10:55:00+00:00,15.0,10.0,0.0,0.0,,10.0,1026.753448,VFR,,,METAR KMWK 131055Z AUTO 00000KT 10SM CLR 15/10 A3032 RMK AO2
KMWL,2026-04-13 10:53:00+00:00,2026-04-13 10:53:00+00:00,21.7,19.4,170.0,9.0,,10.0,1015.578361,MVFR,,"[{""cover"": ""BKN"", ""base_ft_agl"": 2100.0}, {""cover"": ""OVC"", ""base_ft_agl"": 2800.0}]",METAR KMWL 131053Z AUTO 17009KT 10SM BKN021 OVC028 22/19 A2999 RMK AO2 SLP143 T02170194 $
KMWM,2026-04-13 10:55:00+00:00,2026-04-13 10:55:00+00:00,12.0,10.0,320.0,10.0,,10.0,1006.7737470000001,VFR,,,METAR KMWM 131055Z AUTO 32010KT 10SM CLR 12/10 A2973 RMK AO2
KMWN,2026-04-13 10:55:00+00:00,2026-04-13 10:55:00+00:00,2.0,2.0,260.0,54.0,62.0,,,LIFR,-RA FG,"[{""cover"": ""OVX"", ""base_ft_agl"": 0.0}]",METAR KMWN 131055Z 26054G62KT 0SM -RA FG VV000 02/02 RMK
KMWO,2026-04-13 10:55:00+00:00,2026-04-13 10:55:00+00:00,20.0,13.0,200.0,9.0,,10.0,1017.6101950000001,VFR,,"[{""cover"": ""SCT"", ""base_ft_agl"": 4600.0}, {""cover"": ""SCT"", ""base_ft_agl"": 5000.0}, {""cover"": ""BKN"", ""base_ft_agl"": 7500.0}]",METAR KMWO 131055Z AUTO 20009KT 10SM SCT046 SCT050 BKN075 20/13 A3005 RMK AO2
KMWS,2026-04-13 10:20:00+00:00,2026-04-13 10:20:00+00:00,1.0,1.0,260.0,5.0,,,,,,,METAR KMWS 131020Z 26005KT 01/01 
KMWT,2026-04-13 10:53:00+00:00,2026-04-13 10:53:00+00:00,20.6,17.2,,,,10.0,1017.948834,VFR,,"[{""cover"": ""FEW"", ""base_ft_agl"": 2200.0}, {""cover"": ""OVC"", ""base_ft_agl"": 3100.0}]",METAR KMWT 131053Z AUTO 10SM FEW022 OVC031 21/17 A3006 RMK AO2 SLP170 T02060172 $
KMXF,2026-04-13 09:55:00+00:00,2026-04-13 09:55:00+00:00,14.0,12.7,0.0,0.0,,10.0,1024.044336,VFR,,,METAR KMXF 130955Z AUTO 00000KT 10SM CLR 14/13 A3024 RMK AO2 SLP242 T01400127
KMXO,2026-04-13 10:55:00+00:00,2026-04-13 10:55:00+00:00,17.0,17.0,220.0,6.0,11.0,10.0,1009.14422,IFR,,"[{""cover"": ""OVC"", ""base_ft_agl"": 600.0}]",METAR KMXO 131055Z AUTO 22006G11KT 10SM OVC006 17/17 A2980 RMK AO2
KMYF,2026-04-13 10:53:00+00:00,2026-04-13 10:53:00+00:00,15.0,11.1,20.0,5.0,,10.0,1016.2556390000001,VFR,,"[{""cover"": ""SCT"", ""base_ft_agl"": 2800.0}, {""cover"": ""BKN"", ""base_ft_agl"": 3500.0}]",METAR KMYF 131053Z AUTO 02005KT 10SM SCT028 BKN035 15/11 A3001 RMK AO2 SLP161 T01500111
KMYJ,2026-04-13 10:55:00+00:00,2026-04-13 10:55:00+00:00,17.0,16.0,200.0,10.0,,10.0,1013.546527,VFR,,"[{""cover"": ""SCT"", ""base_ft_agl"": 2800.0}]",METAR KMYJ 131055Z AUTO 20010KT 10SM SCT028 17/16 A2993 RMK AO2
KMYL,2026-04-13 10:57:00+00:00,2026-04-13 10:57:00+00:00,0.6,0.0,150.0,7.0,,1.5,1008.805581,IFR,-SN BR,"[{""cover"": ""FEW"", ""base_ft_agl"": 500.0}, {""cover"": ""OVC"", ""base_ft_agl"": 1400.0}]",SPECI KMYL 131057Z AUTO 15007KT 1 1/2SM -SN BR FEW005 OVC014 01/00 A2979 RMK AO2 P0000 T00060000
KMYP,2026-04-13 10:55:00+00:00,2026-04-13 10:55:00+00:00,-3.0,-11.0,300.0,26.0,,10.0,1023.367058,VFR,,,METAR KMYP 131055Z AUTO 30026KT 10SM CLR M03/M11 A3022 RMK AO2
KMYR,2026-04-13 10:53:00+00:00,2026-04-13 10:53:00+00:00,16.1,16.1,0.0,0.0,,10.0,1028.108004,VFR,,,METAR KMYR 131053Z 00000KT 10SM CLR 16/16 A3036 RMK AO2 SLP279 T01610161 $
KMYZ,2026-04-13 10:55:00+00:00,2026-04-13 10:55:00+00:00,20.0,18.0,180.0,10.0,,10.0,1006.435108,MVFR,,"[{""cover"": ""OVC"", ""base_ft_agl"": 1700.0}]",METAR KMYZ 131055Z AUTO 18010KT 10SM OVC017 20/18 A2972 RMK AO2
KMZH,2026-04-13 10:55:00+00:00,2026-04-13 10:55:00+00:00,9.0,6.0,350.0,5.0,,10.0,1008.128303,MVFR,,"[{""cover"": ""OVC"", ""base_ft_agl"": 1300.0}]",METAR KMZH 131055Z AUTO 35005KT 10SM OVC013 09/06 A2977 RMK AO2
KMZJ,2026-04-13 10:55:00+00:00,2026-04-13 10:55:00+00:00,18.0,4.0,0.0,0.0,,10.0,1015.917,VFR,,"[{""cover"": ""SCT"", ""base_ft_agl"": 1600.0}, {""cover"": ""SCT"", ""base_ft_agl"": 3800.0}]",METAR KMZJ 131055Z AUTO 00000KT 10SM SCT016 SCT038 18/04 A3000 RMK AO2
KMZZ,2026-04-13 10:55:00+00:00,2026-04-13 10:55:00+00:00,18.1,11.3,220.0,13.0,,10.0,1014.901083,VFR,,"[{""cover"": ""BKN"", ""base_ft_agl"": 4400.0}, {""cover"": ""BKN"", ""base_ft_agl"": 4900.0}]",METAR KMZZ 131055Z AUTO 22013KT 10SM BKN044 BKN049 18/11 A2997 RMK AO2 T01810113
KN03,2026-04-13 10:55:00+00:00,2026-04-13 10:55:00+00:00,12.0,6.0,0.0,0.0,,10.0,1015.578361,VFR,,"[{""cover"": ""SCT"", ""base_ft_agl"": 7000.0}, {""cover"": ""BKN"", ""base_ft_agl"": 9500.0}, {""cover"": ""OVC"", ""base_ft_agl"": 11000.0}]",METAR KN03 131055Z AUTO 00000KT 10SM SCT070 BKN095 OVC110 12/06 A2999 RMK AO2
KN24,2026-04-13 10:55:00+00:00,2026-04-13 10:55:00+00:00,3.9,-5.9,180.0,4.0,,10.0,1019.642029,VFR,,,METAR KN24 131055Z AUTO 18004KT 10SM CLR 04/M06 A3011 RMK AO2 T00391059
KN38,2026-04-13 10:55:00+00:00,2026-04-13 10:55:00+00:00,10.0,6.0,190.0,11.0,,10.0,1016.2556390000001,VFR,,,METAR KN38 131055Z AUTO 19011KT 10SM CLR 10/06 A3001 RMK AO2
KN60,2026-04-13 10:54:00+00:00,2026-04-13 10:54:00+00:00,2.2,1.7,90.0,3.0,,,1009.482859,,,,METAR KN60 131054Z AUTO 09003KT 02/02 A2981 RMK AO1 SLP100 T00220017
KN79,2026-04-13 10:55:00+00:00,2026-04-13 10:55:00+00:00,12.7,10.9,180.0,4.0,,9.0,1018.964751,VFR,,"[{""cover"": ""BKN"", ""base_ft_agl"": 15000.0}]",METAR KN79 131055Z AUTO 18004KT 9SM BKN150 13/11 A3009 RMK AO2 T01270109
KNAK,2026-04-13 10:54:00+00:00,2026-04-13 10:54:00+00:00,17.2,14.4,180.0,6.0,,10.0,1021.6738630000001,VFR,,,METAR KNAK 131054Z AUTO 18006KT 10SM CLR 17/14 A3017 RMK AO2 SLP218 T01720144 $
KNBC,2026-04-13 10:56:00+00:00,2026-04-13 10:56:00+00:00,14.4,13.3,0.0,0.0,,0.5,1027.430726,LIFR,FG,"[{""cover"": ""SCT"", ""base_ft_agl"": 25000.0}]",METAR KNBC 131056Z 00000KT 1/2SM FG SCT250 14/13 A3034 RMK AO2 SLP273 CONTRAILS VIS N 1/2SM T01440133
KNBG,2026-04-13 10:55:00+00:00,2026-04-13 10:55:00+00:00,19.4,18.3,150.0,5.0,,7.0,1022.3511410000001,VFR,,"[{""cover"": ""BKN"", ""base_ft_agl"": 25000.0}]",METAR KNBG 131055Z 15005KT 7SM BKN250 19/18 A3019 RMK AO2 SLP221 T01940183 $
KNBT,2026-04-13 10:51:00+00:00,2026-04-13 10:51:00+00:00,15.0,14.4,210.0,5.0,,10.0,1027.769365,VFR,,,METAR KNBT 131051Z AUTO 21005KT 10SM CLR 15/14 A3035 RMK AO2 SLP280 T01500144
KNCA,2026-04-13 10:56:00+00:00,2026-04-13 10:56:00+00:00,13.3,13.3,0.0,0.0,,10.0,1027.430726,VFR,,,METAR KNCA 131056Z AUTO 00000KT 10SM 13/13 A3034 RMK AO2 SLP278 T01330133 $
KNDZ,2026-04-13 10:56:00+00:00,2026-04-13 10:56:00+00:00,14.4,14.4,110.0,4.0,,0.5,1025.060253,LIFR,FG,"[{""cover"": ""OVX"", ""base_ft_agl"": 200.0}]",METAR KNDZ 131056Z 11004KT 1/2SM FG VV002 14/14 A3027 RMK AO2 SLP237 T01440144 $
KNEN,2026-04-13 10:28:00+00:00,2026-04-13 10:28:00+00:00,9.4,8.9,0.0,0.0,,10.0,1026.4148089999999,LIFR,,"[{""cover"": ""BKN"", ""base_ft_agl"": 300.0}]",SPECI KNEN 131028Z AUTO 00000KT 10SM BKN003 09/09 A3031 RMK AO2 T00940089 $ 
KNEW,2026-04-13 10:53:00+00:00,2026-04-13 10:53:00+00:00,20.0,18.3,140.0,4.0,,10.0,1022.68978,VFR,,,METAR KNEW 131053Z AUTO 14004KT 10SM CLR 20/18 A3020 RMK AO1 SLP219 T02000183
KNFE,2026-04-13 10:58:00+00:00,2026-04-13 10:58:00+00:00,16.1,13.9,0.0,5.0,,10.0,1026.4148089999999,VFR,,,METAR KNFE 131058Z AUTO VRB05KT 10SM CLR 16/14 A3031 RMK AO2 SLP266 T01610139 TSNO $
KNFG,2026-04-13 10:52:00+00:00,2026-04-13 10:52:00+00:00,11.1,10.6,20.0,4.0,,10.0,1016.594278,VFR,,"[{""cover"": ""FEW"", ""base_ft_agl"": 7500.0}]",METAR KNFG 131052Z AUTO 02004KT 10SM FEW075 11/11 A3002 RMK AO2 SLP164 T01110106
KNFL,2026-04-13 10:57:00+00:00,2026-04-13 10:57:00+00:00,3.3,0.0,0.0,0.0,,10.0,1015.578361,VFR,,"[{""cover"": ""BKN"", ""base_ft_agl"": 9000.0}]",METAR KNFL 131057Z AUTO 00000KT 10SM BKN090 03/00 A2999 RMK AO2 SLP127 T00330000 PNO $
KNFW,2026-04-13 10:52:00+00:00,2026-04-13 10:52:00+00:00,21.7,19.4,180.0,11.0,,10.0,1016.2556390000001,MVFR,,"[{""cover"": ""OVC"", ""base_ft_agl"": 1300.0}]",METAR KNFW 131052Z AUTO 18011KT 10SM OVC013 22/19 A3001 RMK AO2 SLP146 T02170194 $
KNGP,2026-04-13 10:56:00+00:00,2026-04-13 10:56:00+00:00,23.9,22.2,150.0,15.0,,8.0,1017.271556,MVFR,,"[{""cover"": ""SCT"", ""base_ft_agl"": 1200.0}, {""cover"": ""BKN"", ""base_ft_agl"": 2200.0}, {""cover"": ""BKN"", ""base_ft_agl"": 20000.0}]",METAR KNGP 131056Z 15015KT 8SM SCT012 BKN022 BKN200 24/22 A3004 RMK AO2 SLP173 T02390222
KNGU,2026-04-13 10:59:00+00:00,2026-04-13 10:59:00+00:00,16.1,13.9,200.0,9.0,,10.0,1026.07617,VFR,,,METAR KNGU 131059Z 20009KT 10SM CLR 16/14 A3030 RMK AO2 SLP261 T01610139 $
KNHK,2026-04-13 10:52:00+00:00,2026-04-13 10:52:00+00:00,16.7,14.4,200.0,13.0,21.0,10.0,1023.0284190000001,VFR,,"[{""cover"": ""FEW"", ""base_ft_agl"": 15000.0}, {""cover"": ""SCT"", ""base_ft_agl"": 25000.0}]",METAR KNHK 131052Z 20013G21KT 10SM FEW150 SCT250 17/14 A3021 RMK AO2 SLP228 T01670144 $
KNID,2026-04-13 10:56:00+00:00,2026-04-13 10:56:00+00:00,9.4,0.6,200.0,9.0,,10.0,1013.546527,VFR,,,METAR KNID 131056Z AUTO 20009KT 10SM CLR 09/01 A2993 RMK AO2 SLP131 T00940006
KNIP,2026-04-13 10:53:00+00:00,2026-04-13 10:53:00+00:00,17.2,16.1,0.0,0.0,,10.0,1026.4148089999999,VFR,,"[{""cover"": ""FEW"", ""base_ft_agl"": 3000.0}, {""cover"": ""BKN"", ""base_ft_agl"": 25000.0}]",METAR KNIP 131053Z 00000KT 10SM FEW030 BKN250 17/16 A3031 RMK AO2 SLP259 T01720161
KNJK,2026-04-13 10:56:00+00:00,2026-04-13 10:56:00+00:00,18.9,10.0,300.0,5.0,,10.0,1014.223805,VFR,,"[{""cover"": ""OVC"", ""base_ft_agl"": 6000.0}]",METAR KNJK 131056Z AUTO 30005KT 10SM OVC060 19/10 A2995 RMK AO2 RAE00 SLP157 P0000 T01890100 $
KNJM,2026-04-13 10:51:00+00:00,2026-04-13 10:51:00+00:00,17.2,15.6,200.0,5.0,,6.0,1027.769365,VFR,BR,,METAR KNJM 131051Z AUTO 20005KT 6SM BR CLR 17/16 A3035 RMK AO2 SLP281 T01720156 $
KNJW,2026-04-13 10:57:00+00:00,2026-04-13 10:57:00+00:00,16.1,15.0,160.0,5.0,,10.0,1023.7056970000001,VFR,,"[{""cover"": ""SCT"", ""base_ft_agl"": 12000.0}]",METAR KNJW 131057Z AUTO 16005KT 10SM SCT120 16/15 A3023 RMK AO2 SLP149 T01610150
KNKT,2026-04-13 10:58:00+00:00,2026-04-13 10:58:00+00:00,11.1,11.1,190.0,3.0,,1.75,1028.108004,IFR,BR,,SPECI KNKT 131058Z 19003KT 1 3/4SM BR CLR 11/11 A3036 RMK AO2 T01110111 
KNKX,2026-04-13 10:55:00+00:00,2026-04-13 10:55:00+00:00,13.9,11.1,340.0,5.0,,10.0,1016.2556390000001,VFR,,"[{""cover"": ""BKN"", ""base_ft_agl"": 4200.0}, {""cover"": ""OVC"", ""base_ft_agl"": 5500.0}]",METAR KNKX 131055Z AUTO 34005KT 10SM BKN042 OVC055 14/11 A3001 RMK AO2 SLP157 T01390111 $
KNLC,2026-04-13 09:56:00+00:00,2026-04-13 09:56:00+00:00,8.3,6.7,310.0,4.0,,10.0,1016.9329170000001,VFR,,,METAR KNLC 130956Z AUTO 31004KT 10SM CLR 08/07 A3003 RMK AO2 SLP170 T00830067 $
KNMM,2026-04-13 10:56:00+00:00,2026-04-13 10:56:00+00:00,15.0,13.9,0.0,0.0,,10.0,1023.367058,VFR,,"[{""cover"": ""FEW"", ""base_ft_agl"": 12000.0}, {""cover"": ""BKN"", ""base_ft_agl"": 25000.0}]",METAR KNMM 131056Z 00000KT 10SM FEW120 BKN250 15/14 A3022 RMK AO2 SLP240 T01500139 $
KNMT,2026-04-13 10:56:00+00:00,2026-04-13 10:56:00+00:00,21.7,20.6,290.0,3.0,,8.0,1015.239722,MVFR,,"[{""cover"": ""BKN"", ""base_ft_agl"": 1000.0}]",METAR KNMT 131056Z AUTO 29003KT 8SM BKN010 22/21 A2998 RMK AO2 SLP105 T02170206 $ 
KNOG,2026-04-13 09:56:00+00:00,2026-04-13 09:56:00+00:00,22.2,21.7,120.0,9.0,,7.0,1016.9329170000001,IFR,,"[{""cover"": ""BKN"", ""base_ft_agl"": 800.0}, {""cover"": ""OVC"", ""base_ft_agl"": 1500.0}]",METAR KNOG 130956Z AUTO 12009KT 7SM BKN008 OVC015 22/22 A3003 RMK AO2 SLP149 T02220217 PNO $
KNOW,2026-04-13 10:55:00+00:00,2026-04-13 10:55:00+00:00,8.6,8.0,280.0,11.0,17.0,10.0,1013.2078880000001,VFR,,"[{""cover"": ""OVC"", ""base_ft_agl"": 4000.0}]",METAR KNOW 131055Z AUTO 28011G17KT 10SM OVC040 09/08 A2992 RMK AO2 T00860080
KNOZ,2026-04-13 10:59:00+00:00,2026-04-13 10:59:00+00:00,16.1,8.3,360.0,6.0,,,1014.223805,,,,METAR KNOZ 131059Z AUTO 36006KT CLR 16/08 A2995 RMK AO2 SLP091 T01610083 TSNO $
KNPA,2026-04-13 10:56:00+00:00,2026-04-13 10:56:00+00:00,15.0,14.4,0.0,0.0,,8.0,1024.721614,VFR,,"[{""cover"": ""BKN"", ""base_ft_agl"": 25000.0}]",METAR KNPA 131056Z 00000KT 8SM BKN250 15/14 A3026 RMK AO2 SLP247 T01500144 $
KNQA,2026-04-13 10:55:00+00:00,2026-04-13 10:55:00+00:00,21.0,14.0,180.0,7.0,12.0,10.0,1019.642029,VFR,,"[{""cover"": ""BKN"", ""base_ft_agl"": 10000.0}]",METAR KNQA 131055Z AUTO 18007G12KT 150V210 10SM BKN100 21/14 A3011 RMK A01
KNQI,2026-04-13 10:56:00+00:00,2026-04-13 10:56:00+00:00,22.8,22.2,130.0,10.0,,9.0,1016.9329170000001,MVFR,,"[{""cover"": ""SCT"", ""base_ft_agl"": 800.0}, {""cover"": ""SCT"", ""base_ft_agl"": 2400.0}, {""cover"": ""OVC"", ""base_ft_agl"": 2800.0}]",METAR KNQI 131056Z AUTO 13010KT 9SM SCT008 SCT024 OVC028 23/22 A3003 RMK AO2 SLP167 T02280222 TSNO $
KNQX,2026-04-13 10:53:00+00:00,2026-04-13 10:53:00+00:00,21.7,15.6,60.0,10.0,,10.0,1022.012502,VFR,,"[{""cover"": ""FEW"", ""base_ft_agl"": 2500.0}, {""cover"": ""SCT"", ""base_ft_agl"": 4000.0}]",METAR KNQX 131053Z 06010KT 10SM FEW025 SCT040 22/16 A3018 RMK AO2 SLP219 T02170156 $
KNRB,2026-04-13 10:52:00+00:00,2026-04-13 10:52:00+00:00,18.3,16.7,140.0,3.0,,10.0,1026.07617,VFR,,"[{""cover"": ""FEW"", ""base_ft_agl"": 3000.0}, {""cover"": ""SCT"", ""base_ft_agl"": 10000.0}, {""cover"": ""BKN"", ""base_ft_agl"": 25000.0}]",METAR KNRB 131052Z 14003KT 10SM FEW030 SCT100 BKN250 18/17 A3030 RMK AO2 SLP261 T01830167
KNRN,2026-04-13 10:55:00+00:00,2026-04-13 10:55:00+00:00,11.0,-1.0,180.0,9.0,,10.0,1004.064635,VFR,,,METAR KNRN 131055Z AUTO 18009KT 10SM CLR 11/M01 A2965 RMK AO2
KNSE,2026-04-13 10:56:00+00:00,2026-04-13 10:56:00+00:00,12.8,12.8,0.0,0.0,,0.5,1025.060253,LIFR,FG,"[{""cover"": ""OVX"", ""base_ft_agl"": 200.0}]",METAR KNSE 131056Z 00000KT 1/2SM FG VV002 13/13 A3027 RMK AO2 SLP236 T01280128 $
KNSI,2026-04-13 10:53:00+00:00,2026-04-13 10:53:00+00:00,10.0,7.2,290.0,8.0,,,1016.594278,,,,METAR KNSI 131053Z AUTO 29008KT CLR 10/07 A3002 RMK AO2 SLP163 T01000072 PNO $
KNTD,2026-04-13 10:55:00+00:00,2026-04-13 10:55:00+00:00,8.9,8.3,0.0,0.0,,10.0,1016.594278,VFR,,"[{""cover"": ""FEW"", ""base_ft_agl"": 7500.0}]",METAR KNTD 131055Z AUTO 00000KT 10SM FEW075 09/08 A3002 RMK AO2 SLP167 T00890083 PWINO $
KNTU,2026-04-13 10:56:00+00:00,2026-04-13 10:56:00+00:00,16.7,13.9,210.0,13.0,,10.0,1025.737531,VFR,,"[{""cover"": ""BKN"", ""base_ft_agl"": 25000.0}]",METAR KNTU 131056Z 21013KT 10SM BKN250 17/14 A3029 RMK AO2 SLP260 T01670139
KNUI,2026-04-13 10:53:00+00:00,2026-04-13 10:53:00+00:00,16.1,14.4,210.0,8.0,,10.0,1023.367058,VFR,,,METAR KNUI 131053Z AUTO 21008KT 10SM CLR 16/14 A3022 RMK AO2 SLP233 T01610144
KNUQ,2026-04-13 10:55:00+00:00,2026-04-13 10:55:00+00:00,11.0,9.0,160.0,4.0,,3.0,1017.6101950000001,MVFR,BR,"[{""cover"": ""FEW"", ""base_ft_agl"": 1400.0}, {""cover"": ""BKN"", ""base_ft_agl"": 2400.0}, {""cover"": ""OVC"", ""base_ft_agl"": 4000.0}]",METAR KNUQ 131055Z AUTO 16004KT 3SM BR FEW014 BKN024 OVC040 11/09 A3005 RMK AO2
KNUW,2026-04-13 10:53:00+00:00,2026-04-13 10:53:00+00:00,9.4,6.7,260.0,13.0,,10.0,1012.53061,MVFR,-RA,"[{""cover"": ""BKN"", ""base_ft_agl"": 1800.0}, {""cover"": ""BKN"", ""base_ft_agl"": 3500.0}, {""cover"": ""OVC"", ""base_ft_agl"": 6500.0}]",METAR KNUW 131053Z 26013KT 10SM -RA BKN018 BKN035 OVC065 09/07 A2990 RMK AO2 RAB50 SLP130 P0000 T00940067 $
KNXP,2026-04-13 10:54:00+00:00,2026-04-13 10:54:00+00:00,8.3,0.0,160.0,3.0,,10.0,1016.594278,VFR,,,METAR KNXP 131054Z AUTO 16003KT 10SM CLR 08/00 A3002 RMK AO2 SLP143 T00830000 $
KNY0,2026-04-13 10:55:00+00:00,2026-04-13 10:55:00+00:00,4.7,1.0,40.0,5.0,,10.0,1016.594278,VFR,,"[{""cover"": ""SCT"", ""base_ft_agl"": 12000.0}]",METAR KNY0 131055Z AUTO 04005KT 10SM SCT120 05/01 A3002 RMK AO2 T00470010
KNYC,2026-04-13 10:51:00+00:00,2026-04-13 10:51:00+00:00,10.6,7.8,20.0,3.0,,10.0,1022.012502,MVFR,,"[{""cover"": ""OVC"", ""base_ft_agl"": 1800.0}]",METAR KNYC 131051Z AUTO 02003KT 10SM OVC018 11/08 A3018 RMK AO2 SLP213 T01060078 $
KNYG,2026-04-13 10:56:00+00:00,2026-04-13 10:56:00+00:00,17.8,15.0,190.0,12.0,,7.0,1022.3511410000001,VFR,,,METAR KNYG 131056Z AUTO 19012KT 7SM CLR 18/15 A3019 RMK AO2 SLP225 T01780150
KNYL,2026-04-13 10:57:00+00:00,2026-04-13 10:57:00+00:00,17.8,9.4,350.0,4.0,,10.0,1013.885166,VFR,,,METAR KNYL 131057Z AUTO 35004KT 10SM CLR 18/09 A2994 RMK AO2 SLP136 T01780094
KNZY,2026-04-13 10:52:00+00:00,2026-04-13 10:52:00+00:00,16.1,10.6,300.0,5.0,,10.0,1016.2556390000001,VFR,,"[{""cover"": ""FEW"", ""base_ft_agl"": 2600.0}, {""cover"": ""SCT"", ""base_ft_agl"": 3400.0}, {""cover"": ""BKN"", ""base_ft_agl"": 8000.0}]",METAR KNZY 131052Z AUTO 30005KT 10SM FEW026 SCT034 BKN080 16/11 A3001 RMK AO2 SLP162 T01610106
KO05,2026-04-13 10:55:00+00:00,2026-04-13 10:55:00+00:00,0.0,-1.0,0.0,0.0,,10.0,1016.9329170000001,IFR,,"[{""cover"": ""OVC"", ""base_ft_agl"": 600.0}]",METAR KO05 131055Z AUTO 00000KT 10SM OVC006 M00/M01 A3003 RMK A01
KO22,2026-04-13 10:55:00+00:00,2026-04-13 10:55:00+00:00,4.0,4.0,0.0,0.0,,10.0,1017.271556,VFR,,,METAR KO22 131055Z AUTO 00000KT 10SM CLR 04/04 A3004 RMK A01
KO26,2026-04-13 10:55:00+00:00,2026-04-13 10:55:00+00:00,4.0,-6.0,340.0,5.0,,10.0,1015.239722,VFR,,,METAR KO26 131055Z AUTO 34005KT 10SM CLR 04/M06 A2998 RMK A01
KO32,2026-04-13 10:55:00+00:00,2026-04-13 10:55:00+00:00,9.2,9.2,330.0,5.0,,9.0,1015.917,VFR,,"[{""cover"": ""FEW"", ""base_ft_agl"": 8500.0}]",METAR KO32 131055Z AUTO 33005KT 9SM FEW085 09/09 A3000 RMK AO2 T00920092 $
KO54,2026-04-13 10:55:00+00:00,2026-04-13 10:55:00+00:00,6.0,6.0,0.0,0.0,,10.0,1017.948834,MVFR,,"[{""cover"": ""SCT"", ""base_ft_agl"": 400.0}, {""cover"": ""BKN"", ""base_ft_agl"": 1900.0}, {""cover"": ""OVC"", ""base_ft_agl"": 3100.0}]",METAR KO54 131055Z AUTO 00000KT 10SM SCT004 BKN019 OVC031 06/06 A3006 RMK A01
KO69,2026-04-13 10:55:00+00:00,2026-04-13 10:55:00+00:00,6.0,6.0,,,,10.0,1018.2874730000001,VFR,,"[{""cover"": ""FEW"", ""base_ft_agl"": 300.0}, {""cover"": ""FEW"", ""base_ft_agl"": 1900.0}, {""cover"": ""BKN"", ""base_ft_agl"": 10000.0}]",METAR KO69 131055Z AUTO 10SM FEW003 FEW019 BKN100 06/06 A3007 RMK A01
KO86,2026-04-13 10:55:00+00:00,2026-04-13 10:55:00+00:00,5.0,4.0,280.0,4.0,,10.0,1017.948834,MVFR,,"[{""cover"": ""OVC"", ""base_ft_agl"": 1100.0}]",METAR KO86 131055Z AUTO 28004KT 10SM OVC011 05/04 A3006 RMK A01
KOAJ,2026-04-13 10:56:00+00:00,2026-04-13 10:56:00+00:00,14.4,14.4,0.0,0.0,,0.25,1028.108004,LIFR,FG,"[{""cover"": ""OVX"", ""base_ft_agl"": 300.0}]",METAR KOAJ 131056Z 00000KT 1/4SM FG VV003 14/14 A3036 RMK AO2 SLP281 T01440144 $
KOAK,2026-04-13 10:53:00+00:00,2026-04-13 10:53:00+00:00,10.0,9.4,30.0,3.0,,10.0,1017.948834,VFR,,"[{""cover"": ""SCT"", ""base_ft_agl"": 2000.0}, {""cover"": ""BKN"", ""base_ft_agl"": 5000.0}]",METAR KOAK 131053Z 03003KT 10SM SCT020 BKN050 10/09 A3006 RMK AO2 RAB05E16 SLP178 P0000 T01000094 $
KOAR,2026-04-13 10:55:00+00:00,2026-04-13 10:55:00+00:00,8.0,7.0,260.0,4.0,,10.0,1017.948834,VFR,-RA,"[{""cover"": ""SCT"", ""base_ft_agl"": 2100.0}, {""cover"": ""SCT"", ""base_ft_agl"": 2800.0}, {""cover"": ""BKN"", ""base_ft_agl"": 4200.0}]",METAR KOAR 131055Z AUTO 26004KT 10SM -RA SCT021 SCT028 BKN042 08/07 A3006 RMK AO2 P0001
KOBE,2026-04-13 10:55:00+00:00,2026-04-13 10:55:00+00:00,15.0,15.0,0.0,0.0,,10.0,1024.382975,VFR,,"[{""cover"": ""OVC"", ""base_ft_agl"": 4000.0}]",METAR KOBE 131055Z AUTO 00000KT 10SM OVC040 15/15 A3025 RMK AO2
KOCF,2026-04-13 10:51:00+00:00,2026-04-13 10:51:00+00:00,13.9,13.9,0.0,0.0,,10.0,1026.07617,VFR,,,METAR KOCF 131051Z 00000KT 10SM CLR 14/14 A3030 RMK AO2 SLP260 T01390139
KOCH,2026-04-13 10:56:00+00:00,2026-04-13 10:56:00+00:00,20.0,20.0,0.0,3.0,,,1020.996585,,-RA,"[{""cover"": ""BKN"", ""base_ft_agl"": 500.0}, {""cover"": ""OVC"", ""base_ft_agl"": 1700.0}]",METAR KOCH 131056Z AUTO VRB03KT -RA BKN005 OVC017 20/20 A3015 RMK AO2 LTG DSNT SW-NW TSB26E41 SLP212 T02000200 RVRNO $
KOCQ,2026-04-13 10:55:00+00:00,2026-04-13 10:55:00+00:00,14.6,14.5,240.0,6.0,,10.0,1005.080552,VFR,,,METAR KOCQ 131055Z AUTO 24006KT 10SM CLR 15/15 A2968 RMK AO1 T01460145
KOCW,2026-04-13 10:50:00+00:00,2026-04-13 10:50:00+00:00,15.6,14.1,190.0,3.0,,10.0,1027.769365,VFR,,,METAR KOCW 131050Z AUTO 19003KT 10SM CLR 16/14 A3035 RMK AO2 T01560141
KODO,2026-04-13 10:53:00+00:00,2026-04-13 10:53:00+00:00,19.4,17.2,200.0,15.0,,9.0,1017.948834,VFR,,,METAR KODO 131053Z AUTO 20015KT 9SM CLR 19/17 A3006 RMK AO2 SLP134 T01940172 $
KODX,2026-04-13 11:04:00+00:00,2026-04-13 11:04:00+00:00,11.7,10.6,310.0,12.0,22.0,9.0,1004.403274,VFR,,"[{""cover"": ""FEW"", ""base_ft_agl"": 700.0}]",SPECI KODX 131104Z AUTO 31012G22KT 9SM FEW007 12/11 A2966 RMK AO2 T01170106 $
KOEB,2026-04-13 10:55:00+00:00,2026-04-13 10:55:00+00:00,17.0,16.0,240.0,14.0,19.0,10.0,1011.853332,MVFR,-RA,"[{""cover"": ""OVC"", ""base_ft_agl"": 1400.0}]",METAR KOEB 131055Z AUTO 24014G19KT 10SM -RA OVC014 17/16 A2988 RMK AO2
KOEL,2026-04-13 10:55:00+00:00,2026-04-13 10:55:00+00:00,11.2,-5.8,280.0,13.0,,10.0,1006.435108,VFR,,,METAR KOEL 131055Z AUTO 28013KT 10SM CLR 11/M06 A2972 RMK AO1 T01121058
KOEO,2026-04-13 10:55:00+00:00,2026-04-13 10:55:00+00:00,9.0,8.8,0.0,0.0,,10.0,1009.14422,VFR,,,METAR KOEO 131055Z AUTO 00000KT 10SM CLR 09/09 A2980 RMK AO2 T00900088
KOFK,2026-04-13 10:56:00+00:00,2026-04-13 10:56:00+00:00,11.7,11.7,100.0,5.0,,8.0,1004.064635,VFR,,,METAR KOFK 131056Z AUTO 10005KT 8SM CLR 12/12 A2965 RMK AO2 SLP030 T01170117 $
KOFP,2026-04-13 10:54:00+00:00,2026-04-13 10:54:00+00:00,16.7,15.0,200.0,9.0,,8.0,1024.721614,VFR,,,METAR KOFP 131054Z AUTO 20009KT 8SM CLR 17/15 A3026 RMK AO2 SLP244 T01670150
KOGA,2026-04-13 10:55:00+00:00,2026-04-13 10:55:00+00:00,10.9,-1.0,240.0,3.0,,10.0,1004.7419130000001,VFR,,,METAR KOGA 131055Z AUTO 24003KT 10SM CLR 11/M01 A2967 RMK AO2 T01091010
KOGB,2026-04-13 11:04:00+00:00,2026-04-13 11:04:00+00:00,12.2,12.2,0.0,0.0,,0.25,1027.769365,LIFR,FG,"[{""cover"": ""OVX"", ""base_ft_agl"": 200.0}]",SPECI KOGB 131104Z AUTO 00000KT 1/4SM FG VV002 12/12 A3035 RMK AO2 T01220122
KOGD,2026-04-13 10:53:00+00:00,2026-04-13 10:53:00+00:00,2.8,1.1,150.0,5.0,,10.0,1015.239722,VFR,,,METAR KOGD 131053Z AUTO 15005KT 10SM CLR 03/01 A2998 RMK AO2 SLP136 T00280011
KOGS,2026-04-13 10:55:00+00:00,2026-04-13 10:55:00+00:00,14.0,8.0,200.0,7.0,,10.0,1008.805581,VFR,,"[{""cover"": ""SCT"", ""base_ft_agl"": 7000.0}, {""cover"": ""SCT"", ""base_ft_agl"": 8000.0}, {""cover"": ""BKN"", ""base_ft_agl"": 9000.0}]",METAR KOGS 131055Z AUTO 20007KT 10SM SCT070 SCT080 BKN090 14/08 A2979 RMK AO2
KOIC,2026-04-13 10:55:00+00:00,2026-04-13 10:55:00+00:00,12.0,7.0,180.0,9.0,,10.0,1016.594278,VFR,,"[{""cover"": ""SCT"", ""base_ft_agl"": 9000.0}]",METAR KOIC 131055Z AUTO 18009KT 10SM SCT090 12/07 A3002 RMK AO2
KOIN,2026-04-13 10:55:00+00:00,2026-04-13 10:55:00+00:00,9.0,-3.0,230.0,9.0,,10.0,1004.064635,VFR,,,METAR KOIN 131055Z AUTO 23009KT 10SM CLR 09/M03 A2965 RMK AO2
KOJA,2026-04-13 10:50:00+00:00,2026-04-13 10:50:00+00:00,20.3,18.2,190.0,17.0,25.0,10.0,1012.53061,MVFR,,"[{""cover"": ""OVC"", ""base_ft_agl"": 1200.0}]",METAR KOJA 131050Z AUTO 19017G25KT 10SM OVC012 20/18 A2990 RMK AO2 T02030182
KOJC,2026-04-13 10:53:00+00:00,2026-04-13 10:53:00+00:00,20.6,17.8,190.0,14.0,23.0,10.0,1010.498776,MVFR,,"[{""cover"": ""BKN"", ""base_ft_agl"": 2100.0}]",METAR KOJC 131053Z AUTO 19014G23KT 10SM BKN021 21/18 A2984 RMK AO2 PK WND 19027/0955 SLP093 T02060178
KOKB,2026-04-13 10:52:00+00:00,2026-04-13 10:52:00+00:00,11.1,10.6,0.0,0.0,,10.0,1016.2556390000001,VFR,,"[{""cover"": ""FEW"", ""base_ft_agl"": 7500.0}]",METAR KOKB 131052Z AUTO 00000KT 10SM FEW075 11/11 A3001 RMK AO2 SLP163 T01110106
KOKC,2026-04-13 10:52:00+00:00,2026-04-13 10:52:00+00:00,20.0,17.8,180.0,13.0,,10.0,1013.885166,MVFR,,"[{""cover"": ""FEW"", ""base_ft_agl"": 1500.0}, {""cover"": ""OVC"", ""base_ft_agl"": 1800.0}]",METAR KOKC 131052Z 18013KT 10SM FEW015 OVC018 20/18 A2994 RMK AO2 SLP123 T02000178
KOKK,2026-04-13 10:56:00+00:00,2026-04-13 10:56:00+00:00,19.4,13.9,230.0,16.0,,10.0,1014.901083,VFR,,"[{""cover"": ""BKN"", ""base_ft_agl"": 3900.0}, {""cover"": ""BKN"", ""base_ft_agl"": 6500.0}]",METAR KOKK 131056Z AUTO 23016KT 10SM BKN039 BKN065 19/14 A2997 RMK AO2 SLP143 T01940139 $
KOKM,2026-04-13 10:55:00+00:00,2026-04-13 10:55:00+00:00,21.7,18.2,190.0,12.0,15.0,10.0,1014.562444,MVFR,,"[{""cover"": ""OVC"", ""base_ft_agl"": 2100.0}]",METAR KOKM 131055Z AUTO 19012G15KT 10SM OVC021 22/18 A2996 RMK AO2 T02170182
KOKV,2026-04-13 10:55:00+00:00,2026-04-13 10:55:00+00:00,18.0,11.0,210.0,7.0,,10.0,1019.980668,VFR,,,METAR KOKV 131055Z AUTO 21007KT 10SM CLR 18/11 A3012 RMK AO2
KOLE,2026-04-13 10:55:00+00:00,2026-04-13 10:55:00+00:00,15.0,6.0,220.0,4.0,,10.0,1013.885166,VFR,,"[{""cover"": ""BKN"", ""base_ft_agl"": 12000.0}]",METAR KOLE 131055Z AUTO 22004KT 10SM BKN120 15/06 A2994 RMK AO2
KOLF,2026-04-13 10:53:00+00:00,2026-04-13 10:53:00+00:00,2.8,-0.6,70.0,13.0,,10.0,1007.7896640000001,VFR,,"[{""cover"": ""OVC"", ""base_ft_agl"": 8500.0}]",METAR KOLF 131053Z AUTO 07013KT 10SM OVC085 03/M01 A2976 RMK AO2 SLP085 T00281006
KOLG,2026-04-13 10:55:00+00:00,2026-04-13 10:55:00+00:00,,,0.0,0.0,,10.0,1007.7896640000001,MVFR,,"[{""cover"": ""OVC"", ""base_ft_agl"": 1300.0}]",METAR KOLG 131055Z AUTO 00000KT 10SM OVC013 A2976 RMK AO1
KOLM,2026-04-13 10:54:00+00:00,2026-04-13 10:54:00+00:00,8.3,5.6,210.0,7.0,,10.0,1014.223805,VFR,,"[{""cover"": ""BKN"", ""base_ft_agl"": 4400.0}]",METAR KOLM 131054Z AUTO 21007KT 10SM BKN044 08/06 A2995 RMK AO2 SLP143 T00830056 $
KOLS,2026-04-13 10:54:00+00:00,2026-04-13 10:54:00+00:00,15.6,3.3,180.0,8.0,,10.0,1018.2874730000001,VFR,,,METAR KOLS 131054Z AUTO 18008KT 10SM CLR 16/03 A3007 RMK AO2 SLP134 T01560033
KOLU,2026-04-13 10:56:00+00:00,2026-04-13 10:56:00+00:00,16.7,15.6,0.0,0.0,,10.0,1004.7419130000001,VFR,,"[{""cover"": ""FEW"", ""base_ft_agl"": 1200.0}]",METAR KOLU 131056Z AUTO 00000KT 10SM FEW012 17/16 A2967 RMK AO2 SLP038 T01670156
KOLV,2026-04-13 10:55:00+00:00,2026-04-13 10:55:00+00:00,20.0,15.0,190.0,6.0,,10.0,1020.657946,VFR,,"[{""cover"": ""FEW"", ""base_ft_agl"": 3900.0}, {""cover"": ""SCT"", ""base_ft_agl"": 5000.0}, {""cover"": ""BKN"", ""base_ft_agl"": 10000.0}]",METAR KOLV 131055Z AUTO 19006KT 10SM FEW039 SCT050 BKN100 20/15 A3014 RMK A01
KOLY,2026-04-13 10:50:00+00:00,2026-04-13 10:50:00+00:00,21.8,15.3,200.0,7.0,,10.0,1016.9329170000001,VFR,,"[{""cover"": ""OVC"", ""base_ft_agl"": 3900.0}]",METAR KOLY 131050Z AUTO 20007KT 10SM OVC039 22/15 A3003 RMK AO2 T02180153
KOLZ,2026-04-13 10:55:00+00:00,2026-04-13 10:55:00+00:00,15.0,15.0,200.0,6.0,,1.0,1009.14422,LIFR,BR,"[{""cover"": ""OVC"", ""base_ft_agl"": 200.0}]",METAR KOLZ 131055Z AUTO 20006KT 1SM BR OVC002 15/15 A2980 RMK A01
KOMA,2026-04-13 10:52:00+00:00,2026-04-13 10:52:00+00:00,18.3,16.7,160.0,12.0,,10.0,1005.75783,MVFR,,"[{""cover"": ""OVC"", ""base_ft_agl"": 1800.0}]",METAR KOMA 131052Z 16012KT 10SM OVC018 18/17 A2970 RMK AO2 SLP048 T01830167
KOMH,2026-04-13 10:55:00+00:00,2026-04-13 10:55:00+00:00,18.0,13.0,190.0,7.0,,10.0,1022.68978,VFR,,,METAR KOMH 131055Z AUTO 19007KT 10SM CLR 18/13 A3020 RMK AO2
KOMK,2026-04-13 10:53:00+00:00,2026-04-13 10:53:00+00:00,10.0,8.3,340.0,7.0,,10.0,1006.0964690000001,VFR,,"[{""cover"": ""BKN"", ""base_ft_agl"": 9000.0}, {""cover"": ""OVC"", ""base_ft_agl"": 12000.0}]",METAR KOMK 131053Z AUTO 34007KT 10SM BKN090 OVC120 10/08 A2971 RMK AO2 SLP060 T01000083
KOMN,2026-04-13 10:50:00+00:00,2026-04-13 10:50:00+00:00,15.0,15.0,0.0,0.0,,10.0,1025.3988920000002,VFR,,"[{""cover"": ""SCT"", ""base_ft_agl"": 3000.0}]",METAR KOMN 131050Z 00000KT 10SM SCT030 15/15 A3028 RMK FIRST
KONA,2026-04-13 11:02:00+00:00,2026-04-13 11:02:00+00:00,,,0.0,0.0,,1.25,,IFR,BR,"[{""cover"": ""OVX"", ""base_ft_agl"": 700.0}]",METAR KONA 131102Z AUTO 00000KT 1 1/4SM BR VV007 RMK AO2
KONL,2026-04-13 10:55:00+00:00,2026-04-13 10:55:00+00:00,14.1,3.5,30.0,11.0,,10.0,1005.080552,VFR,,,METAR KONL 131055Z AUTO 03011KT 10SM CLR 14/04 A2968 RMK AO2 T01410035
KONM,2026-04-13 10:55:00+00:00,2026-04-13 10:55:00+00:00,16.5,-2.1,210.0,12.0,,10.0,1017.6101950000001,VFR,,,METAR KONM 131055Z AUTO 21012KT 10SM CLR 17/M02 A3005 RMK AO2 T01651021
KONO,2026-04-13 10:53:00+00:00,2026-04-13 10:53:00+00:00,6.7,5.0,210.0,8.0,,8.0,1011.5146930000001,VFR,-RA,"[{""cover"": ""OVC"", ""base_ft_agl"": 3200.0}]",METAR KONO 131053Z AUTO 21008KT 8SM -RA OVC032 07/05 A2987 RMK AO2 SLP122 P0005 T00670050
KONP,2026-04-13 10:55:00+00:00,2026-04-13 10:55:00+00:00,8.0,6.0,310.0,7.0,,10.0,1018.964751,MVFR,,"[{""cover"": ""SCT"", ""base_ft_agl"": 1700.0}, {""cover"": ""OVC"", ""base_ft_agl"": 2600.0}]",METAR KONP 131055Z AUTO 31007KT 10SM SCT017 OVC026 08/06 A3009 RMK AO2
KONT,2026-04-13 10:53:00+00:00,2026-04-13 10:53:00+00:00,11.1,7.8,0.0,0.0,,10.0,1016.594278,VFR,,"[{""cover"": ""FEW"", ""base_ft_agl"": 4000.0}, {""cover"": ""BKN"", ""base_ft_agl"": 6500.0}]",METAR KONT 131053Z 00000KT 10SM FEW040 BKN065 11/08 A3002 RMK AO2 SLP161 T01110078 $
KONX,2026-04-13 10:55:00+00:00,2026-04-13 10:55:00+00:00,16.3,14.2,190.0,6.0,,10.0,1026.753448,VFR,,,METAR KONX 131055Z AUTO 19006KT 10SM CLR 16/14 A3032 RMK AO2 T01630142
KOOA,2026-04-13 10:55:00+00:00,2026-04-13 10:55:00+00:00,19.5,17.7,230.0,12.0,,10.0,1010.160137,VFR,,,METAR KOOA 131055Z AUTO 23012KT 10SM CLR 20/18 A2983 RMK AO2 T01950177
KOPF,2026-04-13 10:53:00+00:00,2026-04-13 10:53:00+00:00,21.7,14.4,80.0,11.0,,10.0,1023.7056970000001,VFR,,,METAR KOPF 131053Z 08011KT 10SM CLR 22/14 A3023 RMK AO2 SLP237 T02170144 $
KOPL,2026-04-13 10:55:00+00:00,2026-04-13 10:55:00+00:00,20.0,18.7,160.0,5.0,,10.0,1020.996585,IFR,,"[{""cover"": ""BKN"", ""base_ft_agl"": 900.0}]",METAR KOPL 131055Z AUTO 16005KT 10SM BKN009 20/19 A3015 RMK AO2 T02000187
KOPN,2026-04-13 10:55:00+00:00,2026-04-13 10:55:00+00:00,12.0,11.0,0.0,0.0,,10.0,1027.430726,VFR,,,METAR KOPN 131055Z AUTO 00000KT 10SM CLR 12/11 A3034 RMK AO2
KOQN,2026-04-13 10:55:00+00:00,2026-04-13 10:55:00+00:00,12.0,11.0,200.0,4.0,,10.0,1021.335224,VFR,,"[{""cover"": ""SCT"", ""base_ft_agl"": 1200.0}]",METAR KOQN 131055Z AUTO 20004KT 10SM SCT012 12/11 A3016 RMK AO2
KOQT,2026-04-13 10:53:00+00:00,2026-04-13 10:53:00+00:00,16.7,8.3,0.0,0.0,,10.0,1025.060253,VFR,,,METAR KOQT 131053Z AUTO 00000KT 10SM CLR 17/08 A3027 RMK AO2 SLP237 T01670083 $
KOQU,2026-04-13 10:55:00+00:00,2026-04-13 10:55:00+00:00,10.0,6.0,200.0,15.0,19.0,10.0,1022.012502,MVFR,,"[{""cover"": ""OVC"", ""base_ft_agl"": 3000.0}]",METAR KOQU 131055Z AUTO 20015G19KT 10SM OVC030 10/06 A3018 RMK AO2
KORB,2026-04-13 10:55:00+00:00,2026-04-13 10:55:00+00:00,4.2,4.2,310.0,4.0,,10.0,1007.7896640000001,LIFR,,"[{""cover"": ""OVC"", ""base_ft_agl"": 200.0}]",METAR KORB 131055Z AUTO 31004KT 10SM OVC002 04/04 A2976 RMK AO2 CIG 002V004 T00420042
KORD,2026-04-13 10:51:00+00:00,2026-04-13 10:51:00+00:00,18.3,16.1,220.0,13.0,20.0,10.0,1010.8374150000001,MVFR,,"[{""cover"": ""SCT"", ""base_ft_agl"": 1100.0}, {""cover"": ""BKN"", ""base_ft_agl"": 1500.0}, {""cover"": ""OVC"", ""base_ft_agl"": 3200.0}]",METAR KORD 131051Z 22013G20KT 10SM SCT011 BKN015 OVC032 18/16 A2985 RMK AO2 SLP105 T01830161 $
KORE,2026-04-13 10:52:00+00:00,2026-04-13 10:52:00+00:00,8.3,2.8,180.0,5.0,,10.0,1019.980668,MVFR,,"[{""cover"": ""OVC"", ""base_ft_agl"": 2200.0}]",METAR KORE 131052Z AUTO 18005KT 10SM OVC022 08/03 A3012 RMK AO2 SLP204 T00830028
KORF,2026-04-13 10:51:00+00:00,2026-04-13 10:51:00+00:00,16.7,13.9,210.0,14.0,,10.0,1025.737531,VFR,,,METAR KORF 131051Z 21014KT 10SM CLR 17/14 A3029 RMK AO2 SLP257 T01670139
KORG,2026-04-13 10:55:00+00:00,2026-04-13 10:55:00+00:00,21.6,20.0,170.0,5.0,,10.0,1020.657946,VFR,,"[{""cover"": ""SCT"", ""base_ft_agl"": 1300.0}]",METAR KORG 131055Z AUTO 17005KT 10SM SCT013 22/20 A3014 RMK AO2 T02160200 PWINO
KORH,2026-04-13 10:54:00+00:00,2026-04-13 10:54:00+00:00,8.3,4.4,220.0,15.0,,10.0,1019.642029,MVFR,,"[{""cover"": ""OVC"", ""base_ft_agl"": 1600.0}]",METAR KORH 131054Z 22015KT 10SM OVC016 08/04 A3011 RMK AO2 PK WND 24028/1009 SLP202 T00830044 $
KORK,2026-04-13 10:55:00+00:00,2026-04-13 10:55:00+00:00,19.0,19.0,210.0,9.0,,9.0,1019.30339,VFR,,"[{""cover"": ""SCT"", ""base_ft_agl"": 1100.0}, {""cover"": ""SCT"", ""base_ft_agl"": 2400.0}, {""cover"": ""OVC"", ""base_ft_agl"": 3300.0}]",METAR KORK 131055Z AUTO 21009KT 9SM SCT011 SCT024 OVC033 19/19 A3010 RMK AO2
KORL,2026-04-13 10:53:00+00:00,2026-04-13 10:53:00+00:00,16.7,14.4,60.0,3.0,,10.0,1025.3988920000002,VFR,,,METAR KORL 131053Z 06003KT 10SM CLR 17/14 A3028 RMK AO2 SLP256 T01670144
KORS,2026-04-13 10:55:00+00:00,2026-04-13 10:55:00+00:00,11.0,6.0,180.0,9.0,,10.0,1011.853332,VFR,,"[{""cover"": ""BKN"", ""base_ft_agl"": 3900.0}, {""cover"": ""OVC"", ""base_ft_agl"": 5500.0}]",METAR KORS 131055Z AUTO 18009KT 10SM BKN039 OVC055 11/06 A2988 RMK AO2
KOSA,2026-04-13 10:55:00+00:00,2026-04-13 10:55:00+00:00,18.0,17.4,120.0,6.0,,7.0,1017.948834,VFR,,,METAR KOSA 131055Z AUTO 12006KT 7SM CLR 18/17 A3006 RMK AO2 T01800174
KOSC,2026-04-13 10:55:00+00:00,2026-04-13 10:55:00+00:00,15.0,14.0,230.0,12.0,,10.0,1004.403274,MVFR,,"[{""cover"": ""SCT"", ""base_ft_agl"": 1000.0}, {""cover"": ""OVC"", ""base_ft_agl"": 1400.0}]",METAR KOSC 131055Z AUTO 23012KT 10SM SCT010 OVC014 15/14 A2966 RMK AO2 P0001
KOSH,2026-04-13 10:53:00+00:00,2026-04-13 10:53:00+00:00,16.1,14.4,230.0,5.0,,10.0,1007.112386,VFR,,"[{""cover"": ""SCT"", ""base_ft_agl"": 2700.0}]",METAR KOSH 131053Z AUTO 23005KT 10SM SCT027 16/14 A2974 RMK AO2 SLP064 T01610144
KOSU,2026-04-13 10:53:00+00:00,2026-04-13 10:53:00+00:00,21.1,10.6,220.0,17.0,25.0,10.0,1016.594278,VFR,,"[{""cover"": ""BKN"", ""base_ft_agl"": 5000.0}, {""cover"": ""OVC"", ""base_ft_agl"": 7000.0}]",METAR KOSU 131053Z 22017G25KT 10SM BKN050 OVC070 21/11 A3002 RMK AO2 PK WND 23026/1016 RAE0958 SLP158 P0000 T02110106
KOTG,2026-04-13 10:56:00+00:00,2026-04-13 10:56:00+00:00,12.8,7.8,220.0,4.0,,10.0,1006.7737470000001,VFR,,,METAR KOTG 131056Z AUTO 22004KT 10SM CLR 13/08 A2973 RMK AO2 SLP063 T01280078
KOTM,2026-04-13 10:53:00+00:00,2026-04-13 10:53:00+00:00,18.9,17.2,210.0,11.0,,10.0,1009.821498,MVFR,,"[{""cover"": ""OVC"", ""base_ft_agl"": 1400.0}]",METAR KOTM 131053Z AUTO 21011KT 10SM OVC014 19/17 A2982 RMK AO2 SLP095 T01890172
KOUN,2026-04-13 10:55:00+00:00,2026-04-13 10:55:00+00:00,20.3,17.9,170.0,15.0,,10.0,1013.546527,MVFR,,"[{""cover"": ""OVC"", ""base_ft_agl"": 1600.0}]",METAR KOUN 131055Z AUTO 17015KT 10SM OVC016 20/18 A2993 RMK AO2 T02030179
KOVE,2026-04-13 11:03:00+00:00,2026-04-13 11:03:00+00:00,9.4,7.8,30.0,5.0,,10.0,1018.6261119999999,MVFR,,"[{""cover"": ""FEW"", ""base_ft_agl"": 2400.0}, {""cover"": ""BKN"", ""base_ft_agl"": 3000.0}, {""cover"": ""OVC"", ""base_ft_agl"": 4400.0}]",SPECI KOVE 131103Z AUTO 03005KT 10SM FEW024 BKN030 OVC044 09/08 A3008 RMK AO2 T00940078 $
KOVL,2026-04-13 10:55:00+00:00,2026-04-13 10:55:00+00:00,7.0,5.0,310.0,5.0,,5.0,1007.112386,MVFR,BR,,METAR KOVL 131055Z AUTO 31005KT 5SM BR CLR 07/05 A2974 RMK AO2
KOVS,2026-04-13 10:53:00+00:00,2026-04-13 10:53:00+00:00,16.7,15.6,220.0,4.0,,10.0,1008.805581,MVFR,,"[{""cover"": ""BKN"", ""base_ft_agl"": 1500.0}]",METAR KOVS 131053Z AUTO 22004KT 10SM BKN015 17/16 A2979 RMK AO2 SLP088 T01670156
KOWA,2026-04-13 10:55:00+00:00,2026-04-13 10:55:00+00:00,11.1,11.1,140.0,6.0,,7.0,1006.435108,VFR,,,METAR KOWA 131055Z AUTO 14006KT 7SM CLR 11/11 A2972 RMK AO2 T01110111
KOWB,2026-04-13 10:56:00+00:00,2026-04-13 10:56:00+00:00,22.2,12.8,210.0,9.0,,10.0,1018.964751,VFR,,"[{""cover"": ""OVC"", ""base_ft_agl"": 6500.0}]",METAR KOWB 131056Z 21009KT 10SM OVC065 22/13 A3009 RMK AO2 SLP186 T02220128
KOWD,2026-04-13 10:53:00+00:00,2026-04-13 10:53:00+00:00,10.0,5.0,200.0,13.0,23.0,10.0,1020.996585,MVFR,,"[{""cover"": ""OVC"", ""base_ft_agl"": 3000.0}]",METAR KOWD 131053Z 20013G23KT 10SM OVC030 10/05 A3015 RMK AO2 SLP208 T01000050 $
KOWI,2026-04-13 10:55:00+00:00,2026-04-13 10:55:00+00:00,20.0,20.0,190.0,17.0,,,1009.482859,,,"[{""cover"": ""BKN"", ""base_ft_agl"": 1800.0}, {""cover"": ""BKN"", ""base_ft_agl"": 2400.0}, {""cover"": ""BKN"", ""base_ft_agl"": 2900.0}]",METAR KOWI 131055Z AUTO 19017KT BKN018 BKN024 BKN029 20/20 A2981 RMK AO2 PWINO
KOWX,2026-04-13 10:55:00+00:00,2026-04-13 10:55:00+00:00,19.0,14.0,230.0,15.0,25.0,10.0,1014.223805,VFR,,"[{""cover"": ""FEW"", ""base_ft_agl"": 3800.0}, {""cover"": ""SCT"", ""base_ft_agl"": 7000.0}, {""cover"": ""SCT"", ""base_ft_agl"": 7500.0}]",METAR KOWX 131055Z AUTO 23015G25KT 10SM FEW038 SCT070 SCT075 19/14 A2995 RMK AO2 PK WND 24026/21
KOXC,2026-04-13 10:56:00+00:00,2026-04-13 10:56:00+00:00,8.9,6.1,0.0,6.0,,10.0,1021.6738630000001,MVFR,,"[{""cover"": ""OVC"", ""base_ft_agl"": 1100.0}]",METAR KOXC 131056Z VRB06KT 10SM OVC011 09/06 A3017 RMK AO2 SLP229 T00890061 $
KOXD,2026-04-13 10:45:00+00:00,2026-04-13 10:45:00+00:00,19.0,13.0,210.0,8.0,,10.0,,VFR,,"[{""cover"": ""BKN"", ""base_ft_agl"": 4100.0}, {""cover"": ""BKN"", ""base_ft_agl"": 4700.0}, {""cover"": ""BKN"", ""base_ft_agl"": 6000.0}]",METAR KOXD 131045Z AUTO 21008KT 10SM BKN041 BKN047 BKN060 19/13 RMK AO2
KOXI,2026-04-13 10:55:00+00:00,2026-04-13 10:55:00+00:00,19.0,17.0,230.0,12.0,,10.0,1012.53061,MVFR,,"[{""cover"": ""OVC"", ""base_ft_agl"": 2600.0}]",METAR KOXI 131055Z AUTO 23012KT 10SM OVC026 19/17 A2990 RMK AO2
KOXR,2026-04-13 10:51:00+00:00,2026-04-13 10:51:00+00:00,10.6,8.3,0.0,0.0,,10.0,1016.2556390000001,VFR,,"[{""cover"": ""FEW"", ""base_ft_agl"": 7000.0}]",METAR KOXR 131051Z AUTO 00000KT 10SM FEW070 11/08 A3001 RMK AO2 SLP163 T01060083
KOXV,2026-04-13 10:55:00+00:00,2026-04-13 10:55:00+00:00,19.0,18.0,210.0,12.0,18.0,10.0,1009.14422,MVFR,,"[{""cover"": ""BKN"", ""base_ft_agl"": 1300.0}, {""cover"": ""OVC"", ""base_ft_agl"": 1700.0}]",METAR KOXV 131055Z AUTO 21012G18KT 10SM BKN013 OVC017 19/18 A2980 RMK AO2
KOYE,2026-04-13 11:00:00+00:00,2026-04-13 11:00:00+00:00,23.0,18.0,80.0,19.0,,6.0,1021.335224,VFR,HZ,,METAR KOYE 131100Z AUTO 08019KT 6SM HZ CLR 23/18 A3016 RMK A01
KOZA,2026-04-13 10:55:00+00:00,2026-04-13 10:55:00+00:00,21.0,19.0,190.0,10.0,,7.0,1018.2874730000001,MVFR,,"[{""cover"": ""SCT"", ""base_ft_agl"": 1100.0}, {""cover"": ""OVC"", ""base_ft_agl"": 2200.0}]",METAR KOZA 131055Z AUTO 19010KT 7SM SCT011 OVC022 21/19 A3007 RMK AO2
KOZR,2026-04-13 10:55:00+00:00,2026-04-13 10:55:00+00:00,13.8,12.0,0.0,0.0,,10.0,1025.3988920000002,VFR,,,METAR KOZR 131055Z AUTO 00000KT 10SM CLR 14/12 A3028 RMK AO2 SLP254 T01380120 $
KOZS,2026-04-13 10:55:00+00:00,2026-04-13 10:55:00+00:00,20.0,16.0,200.0,8.0,,10.0,1014.562444,MVFR,,"[{""cover"": ""OVC"", ""base_ft_agl"": 2700.0}]",METAR KOZS 131055Z AUTO 20008KT 10SM OVC027 20/16 A2996 RMK AO2
KOZW,2026-04-13 10:55:00+00:00,2026-04-13 10:55:00+00:00,16.0,14.0,250.0,13.0,,5.0,1010.498776,MVFR,BR,"[{""cover"": ""OVC"", ""base_ft_agl"": 1000.0}]",METAR KOZW 131055Z AUTO 25013KT 5SM BR OVC010 16/14 A2984 RMK AO2
KP08,2026-04-13 10:55:00+00:00,2026-04-13 10:55:00+00:00,19.0,3.0,0.0,0.0,,9.0,1014.901083,VFR,,,METAR KP08 131055Z AUTO 00000KT 9SM CLR 19/03 A2997 RMK AO2
KP28,2026-04-13 10:56:00+00:00,2026-04-13 10:56:00+00:00,21.1,18.3,180.0,10.0,,,1008.805581,,,,METAR KP28 131056Z AUTO 18010KT 21/18 A2979 RMK AO1 SLP069 T02110183 $
KP33,2026-04-13 10:55:00+00:00,2026-04-13 10:55:00+00:00,14.0,4.0,220.0,5.0,,10.0,1018.2874730000001,VFR,,,METAR KP33 131055Z AUTO 22005KT 10SM CLR 14/04 A3007 RMK AO2
KP52,2026-04-13 10:55:00+00:00,2026-04-13 10:55:00+00:00,10.0,1.0,190.0,4.0,,10.0,1016.2556390000001,VFR,,,METAR KP52 131055Z AUTO 19004KT 10SM CLR 10/01 A3001 RMK AO2
KP53,2026-04-13 10:56:00+00:00,2026-04-13 10:56:00+00:00,4.4,4.4,340.0,7.0,,,1005.4191910000001,,,,METAR KP53 131056Z AUTO 34007KT 04/04 A2969 RMK AO1 SLP057 T00440044 $
KP58,2026-04-13 10:55:00+00:00,2026-04-13 10:55:00+00:00,15.6,13.9,230.0,12.0,24.0,,1005.4191910000001,,,,METAR KP58 131055Z AUTO 23012G24KT 16/14 A2969 RMK AO1 PK WND 22027/1038 SLP053 P0001 T01560139
KP59,2026-04-13 10:51:00+00:00,2026-04-13 10:51:00+00:00,3.9,3.3,350.0,13.0,,,1005.080552,,,,METAR KP59 131051Z AUTO 35013KT 04/03 A2968 RMK AO1 SLP055 T00390033
KP60,2026-04-13 10:56:00+00:00,2026-04-13 10:56:00+00:00,-2.2,-5.6,270.0,7.0,,,1012.1919710000001,,,,METAR KP60 131056Z AUTO 27007KT 230V320 M02/M06 A2989 RMK AO1 SLP111 P0002 T10221056
KP68,2026-04-13 10:53:00+00:00,2026-04-13 10:53:00+00:00,-4.4,-5.6,150.0,3.0,,,1015.239722,,,,METAR KP68 131053Z AUTO 15003KT M04/M06 A2998 RMK AO1 SLP153 T10441056
KPAE,2026-04-13 10:53:00+00:00,2026-04-13 10:53:00+00:00,8.3,7.8,100.0,5.0,,2.5,1013.546527,IFR,-RA BR,"[{""cover"": ""SCT"", ""base_ft_agl"": 500.0}, {""cover"": ""OVC"", ""base_ft_agl"": 1100.0}]",METAR KPAE 131053Z AUTO 10005KT 2 1/2SM -RA BR SCT005 OVC011 08/08 A2993 RMK AO2 RAE13B23 SLP135 P0008 T00830078
KPAH,2026-04-13 10:53:00+00:00,2026-04-13 10:53:00+00:00,21.1,13.3,200.0,6.0,,10.0,1018.6261119999999,VFR,,"[{""cover"": ""SCT"", ""base_ft_agl"": 3800.0}, {""cover"": ""BKN"", ""base_ft_agl"": 7500.0}]",METAR KPAH 131053Z 20006KT 10SM SCT038 BKN075 21/13 A3008 RMK AO2 SLP181 T02110133 $
KPAM,2026-04-13 10:55:00+00:00,2026-04-13 10:55:00+00:00,15.7,13.7,110.0,5.0,,10.0,1024.721614,VFR,,,METAR KPAM 131055Z AUTO 11005KT 10SM CLR 16/14 A3026 RMK AO2 SLP250 T01570137
KPAN,2026-04-13 10:55:00+00:00,2026-04-13 10:55:00+00:00,8.0,3.0,130.0,3.0,,10.0,1018.2874730000001,VFR,,,METAR KPAN 131055Z AUTO 13003KT 10SM CLR 08/03 A3007 RMK AO2
KPBF,2026-04-13 10:53:00+00:00,2026-04-13 10:53:00+00:00,18.9,16.7,180.0,5.0,,10.0,1019.980668,VFR,,,METAR KPBF 131053Z AUTO 18005KT 10SM CLR 19/17 A3012 RMK AO2 SLP196 T01890167
KPBG,2026-04-13 10:53:00+00:00,2026-04-13 10:53:00+00:00,8.3,3.9,170.0,9.0,,10.0,1011.176054,VFR,,"[{""cover"": ""BKN"", ""base_ft_agl"": 8000.0}, {""cover"": ""OVC"", ""base_ft_agl"": 10000.0}]",METAR KPBG 131053Z AUTO 17009KT 10SM BKN080 OVC100 08/04 A2986 RMK AO2 SLP113 T00830039
KPBH,2026-04-13 10:55:00+00:00,2026-04-13 10:55:00+00:00,11.3,10.1,330.0,4.0,,10.0,1006.7737470000001,IFR,,"[{""cover"": ""OVC"", ""base_ft_agl"": 900.0}]",METAR KPBH 131055Z AUTO 33004KT 10SM OVC009 11/10 A2973 RMK AO2 T01130101
KPBI,2026-04-13 10:53:00+00:00,2026-04-13 10:53:00+00:00,22.8,13.3,90.0,14.0,27.0,10.0,1024.382975,VFR,,"[{""cover"": ""SCT"", ""base_ft_agl"": 3900.0}, {""cover"": ""BKN"", ""base_ft_agl"": 4800.0}]",METAR KPBI 131053Z 09014G27KT 10SM SCT039 BKN048 23/13 A3025 RMK AO2 PK WND 09027/1049 SLP243 T02280133 $
KPBX,2026-04-13 10:55:00+00:00,2026-04-13 10:55:00+00:00,21.6,5.1,210.0,7.0,,10.0,1022.68978,VFR,,"[{""cover"": ""OVC"", ""base_ft_agl"": 10000.0}]",METAR KPBX 131055Z AUTO 21007KT 060V290 10SM OVC100 22/05 A3020 RMK AO2 T02160051
KPCM,2026-04-13 10:55:00+00:00,2026-04-13 10:55:00+00:00,15.2,14.3,70.0,5.0,,9.0,1025.060253,VFR,,,METAR KPCM 131055Z AUTO 07005KT 9SM CLR 15/14 A3027 RMK AO2 T01520143
KPCZ,2026-04-13 10:55:00+00:00,2026-04-13 10:55:00+00:00,16.4,14.4,230.0,5.0,,10.0,1007.7896640000001,VFR,,"[{""cover"": ""SCT"", ""base_ft_agl"": 2300.0}]",METAR KPCZ 131055Z AUTO 23005KT 10SM SCT023 16/14 A2976 RMK AO2 T01640144
KPDC,2026-04-13 10:55:00+00:00,2026-04-13 10:55:00+00:00,17.5,16.0,0.0,0.0,,10.0,1008.805581,MVFR,,"[{""cover"": ""OVC"", ""base_ft_agl"": 1300.0}]",METAR KPDC 131055Z AUTO 00000KT 10SM OVC013 18/16 A2979 RMK AO2 T01750160
KPDK,2026-04-13 10:53:00+00:00,2026-04-13 10:53:00+00:00,15.0,9.4,0.0,0.0,,10.0,1026.753448,VFR,,,METAR KPDK 131053Z 00000KT 10SM CLR 15/09 A3032 RMK AO2 SLP253 T01500094 $
KPDT,2026-04-13 10:53:00+00:00,2026-04-13 10:53:00+00:00,8.9,5.6,260.0,23.0,34.0,10.0,1008.805581,VFR,,"[{""cover"": ""BKN"", ""base_ft_agl"": 6000.0}, {""cover"": ""OVC"", ""base_ft_agl"": 10000.0}]",METAR KPDT 131053Z AUTO 26023G34KT 10SM BKN060 OVC100 09/06 A2979 RMK AO2 PK WND 26034/0954 SLP082 T00890056 PNO
KPDX,2026-04-13 10:53:00+00:00,2026-04-13 10:53:00+00:00,9.4,7.8,320.0,5.0,,3.0,1016.2556390000001,MVFR,RA BR,"[{""cover"": ""FEW"", ""base_ft_agl"": 900.0}, {""cover"": ""BKN"", ""base_ft_agl"": 1200.0}, {""cover"": ""OVC"", ""base_ft_agl"": 2800.0}]",METAR KPDX 131053Z 32005KT 3SM RA BR FEW009 BKN012 OVC028 09/08 A3001 RMK AO2 RAE08B26 SLP160 P0002 T00940078 $
KPEA,2026-04-13 10:55:00+00:00,2026-04-13 10:55:00+00:00,18.6,17.4,200.0,10.0,,10.0,1009.821498,MVFR,,"[{""cover"": ""OVC"", ""base_ft_agl"": 1000.0}]",METAR KPEA 131055Z AUTO 20010KT 10SM OVC010 19/17 A2982 RMK AO2 T01860174
KPEO,2026-04-13 10:53:00+00:00,2026-04-13 10:53:00+00:00,13.9,6.7,210.0,11.0,,10.0,1013.546527,VFR,,,METAR KPEO 131053Z AUTO 21011KT 10SM CLR 14/07 A2993 RMK AO2 SLP131 T01390067
KPEQ,2026-04-13 10:55:00+00:00,2026-04-13 10:55:00+00:00,15.2,4.7,230.0,5.0,,10.0,1017.6101950000001,VFR,,,METAR KPEQ 131055Z AUTO 23005KT 10SM 15/05 A3005 RMK AO2 T01520047 PWINO
KPEX,2026-04-13 10:55:00+00:00,2026-04-13 10:55:00+00:00,9.0,9.0,40.0,6.0,,7.0,1008.128303,LIFR,,"[{""cover"": ""OVC"", ""base_ft_agl"": 300.0}]",METAR KPEX 131055Z AUTO 04006KT 7SM OVC003 09/09 A2977 RMK AO2
KPEZ,2026-04-13 10:55:00+00:00,2026-04-13 10:55:00+00:00,21.8,20.3,140.0,4.0,,7.0,1017.948834,VFR,,,METAR KPEZ 131055Z AUTO 14004KT 7SM CLR 22/20 A3006 RMK AO2 T02180203
KPGA,2026-04-13 10:53:00+00:00,2026-04-13 10:53:00+00:00,11.1,-6.1,190.0,4.0,,,1014.223805,,,,METAR KPGA 131053Z AUTO 19004KT CLR 11/M06 A2995 RMK AO2 SLP098 T01111061 $
KPGD,2026-04-13 10:53:00+00:00,2026-04-13 10:53:00+00:00,15.0,13.9,80.0,6.0,,10.0,1024.721614,VFR,,,METAR KPGD 131053Z 08006KT 10SM CLR 15/14 A3026 RMK AO2 SLP247 T01500139
KPGV,2026-04-13 10:55:00+00:00,2026-04-13 10:55:00+00:00,16.0,15.0,200.0,8.0,,10.0,1027.092087,VFR,,"[{""cover"": ""FEW"", ""base_ft_agl"": 2100.0}]",METAR KPGV 131055Z AUTO 20008KT 10SM FEW021 16/15 A3033 RMK AO2
KPHD,2026-04-13 10:53:00+00:00,2026-04-13 10:53:00+00:00,22.2,9.4,0.0,6.0,18.0,10.0,1015.917,VFR,,"[{""cover"": ""OVC"", ""base_ft_agl"": 6000.0}]",METAR KPHD 131053Z AUTO VRB06G18KT 10SM OVC060 22/09 A3000 RMK AO2 SLP152 T02220094
KPHF,2026-04-13 10:54:00+00:00,2026-04-13 10:54:00+00:00,16.1,13.9,200.0,11.0,,10.0,1025.737531,VFR,,,METAR KPHF 131054Z 20011KT 10SM CLR 16/14 A3029 RMK AO2 SLP256 T01610139
KPHG,2026-04-13 10:55:00+00:00,2026-04-13 10:55:00+00:00,13.0,2.0,230.0,11.0,,10.0,1004.403274,VFR,,,METAR KPHG 131055Z AUTO 23011KT 10SM CLR 13/02 A2966 RMK AO2
KPHL,2026-04-13 10:54:00+00:00,2026-04-13 10:54:00+00:00,14.4,11.7,200.0,7.0,,10.0,1021.335224,VFR,,"[{""cover"": ""SCT"", ""base_ft_agl"": 1900.0}, {""cover"": ""BKN"", ""base_ft_agl"": 6500.0}, {""cover"": ""BKN"", ""base_ft_agl"": 11000.0}, {""cover"": ""BKN"", ""base_ft_agl"": 20000.0}]",METAR KPHL 131054Z 20007KT 10SM SCT019 BKN065 BKN110 BKN200 14/12 A3016 RMK AO2 SLP214 SCT V BKN T01440117 $
KPHN,2026-04-13 10:55:00+00:00,2026-04-13 10:55:00+00:00,17.0,13.0,220.0,6.0,14.0,10.0,1008.805581,MVFR,DZ,"[{""cover"": ""OVC"", ""base_ft_agl"": 2200.0}]",METAR KPHN 131055Z AUTO 22006G14KT 10SM DZ OVC022 17/13 A2979 RMK AO2
KPHP,2026-04-13 10:55:00+00:00,2026-04-13 10:55:00+00:00,7.2,3.3,360.0,10.0,,10.0,1004.7419130000001,VFR,,,METAR KPHP 131055Z AUTO 36010KT 10SM CLR 07/03 A2967 RMK AO2 SLP037 T00720033
KPHT,2026-04-13 10:55:00+00:00,2026-04-13 10:55:00+00:00,21.0,14.0,210.0,10.0,,10.0,1019.980668,VFR,,"[{""cover"": ""FEW"", ""base_ft_agl"": 6000.0}, {""cover"": ""BKN"", ""base_ft_agl"": 9000.0}, {""cover"": ""OVC"", ""base_ft_agl"": 11000.0}]",METAR KPHT 131055Z AUTO 21010KT 10SM FEW060 BKN090 OVC110 21/14 A3012 RMK A01
KPHX,2026-04-13 10:51:00+00:00,2026-04-13 10:51:00+00:00,19.4,5.6,100.0,4.0,,10.0,1013.546527,VFR,,"[{""cover"": ""SCT"", ""base_ft_agl"": 11000.0}, {""cover"": ""SCT"", ""base_ft_agl"": 14000.0}, {""cover"": ""BKN"", ""base_ft_agl"": 20000.0}]",METAR KPHX 131051Z 10004KT 10SM SCT110 SCT140 BKN200 19/06 A2993 RMK AO2 SLP121 T01940056 $
KPIA,2026-04-13 10:54:00+00:00,2026-04-13 10:54:00+00:00,16.7,15.6,190.0,6.0,,10.0,1012.8692490000001,MVFR,,"[{""cover"": ""BKN"", ""base_ft_agl"": 3000.0}]",METAR KPIA 131054Z 19006KT 10SM BKN030 17/16 A2991 RMK AO2 SLP125 T01670156
KPIB,2026-04-13 10:56:00+00:00,2026-04-13 10:56:00+00:00,15.6,15.6,140.0,3.0,,6.0,1023.7056970000001,VFR,BR,,METAR KPIB 131056Z AUTO 14003KT 6SM BR CLR 16/16 A3023 RMK AO2 RAE13 SLP234 P0000 T01560156 $
KPIE,2026-04-13 10:53:00+00:00,2026-04-13 10:53:00+00:00,18.9,16.1,110.0,5.0,,10.0,1025.060253,VFR,,,METAR KPIE 131053Z 11005KT 10SM CLR 19/16 A3027 RMK AO2 SLP248 T01890161
KPIH,2026-04-13 10:53:00+00:00,2026-04-13 10:53:00+00:00,2.2,-1.1,220.0,7.0,,10.0,1013.546527,VFR,,,METAR KPIH 131053Z AUTO 22007KT 10SM CLR 02/M01 A2993 RMK AO2 SLP129 T00221011
KPIL,2026-04-13 10:53:00+00:00,2026-04-13 10:53:00+00:00,24.4,22.8,150.0,8.0,,10.0,1016.9329170000001,MVFR,,"[{""cover"": ""BKN"", ""base_ft_agl"": 1000.0}, {""cover"": ""OVC"", ""base_ft_agl"": 1600.0}]",METAR KPIL 131053Z AUTO 15008KT 10SM BKN010 OVC016 24/23 A3003 RMK AO2 CIG 009V013 SLP168 T02440228
KPIM,2026-04-13 10:55:00+00:00,2026-04-13 10:55:00+00:00,13.0,13.0,170.0,4.0,,10.0,1026.753448,VFR,,,METAR KPIM 131055Z AUTO 17004KT 10SM CLR 13/13 A3032 RMK AO2
KPIR,2026-04-13 10:53:00+00:00,2026-04-13 10:53:00+00:00,8.9,8.3,60.0,17.0,,5.0,1004.7419130000001,LIFR,BR,"[{""cover"": ""BKN"", ""base_ft_agl"": 400.0}]",METAR KPIR 131053Z AUTO 06017KT 5SM BR BKN004 09/08 A2967 RMK AO2 SLP041 T00890083
KPIT,2026-04-13 10:51:00+00:00,2026-04-13 10:51:00+00:00,21.7,7.2,240.0,18.0,36.0,10.0,1016.2556390000001,VFR,-RA,"[{""cover"": ""FEW"", ""base_ft_agl"": 4800.0}, {""cover"": ""BKN"", ""base_ft_agl"": 7000.0}, {""cover"": ""OVC"", ""base_ft_agl"": 9500.0}]",METAR KPIT 131051Z 24018G36KT 10SM -RA FEW048 BKN070 OVC095 22/07 A3001 RMK AO2 PK WND 26036/1049 RAB38 SLP158 P0000 T02170072 $
KPKB,2026-04-13 10:53:00+00:00,2026-04-13 10:53:00+00:00,22.2,5.6,210.0,10.0,21.0,10.0,1018.6261119999999,VFR,,"[{""cover"": ""BKN"", ""base_ft_agl"": 8000.0}, {""cover"": ""OVC"", ""base_ft_agl"": 10000.0}]",METAR KPKB 131053Z 21010G21KT 10SM BKN080 OVC100 22/06 A3008 RMK AO2 SLP176 T02220056
KPKD,2026-04-13 10:53:00+00:00,2026-04-13 10:53:00+00:00,5.6,4.4,10.0,4.0,,10.0,1008.466942,IFR,,"[{""cover"": ""OVC"", ""base_ft_agl"": 600.0}]",METAR KPKD 131053Z AUTO 01004KT 10SM OVC006 06/04 A2978 RMK AO2 SLP090 T00560044
KPKV,2026-04-13 10:55:00+00:00,2026-04-13 10:55:00+00:00,23.1,23.1,150.0,8.0,,10.0,1017.6101950000001,VFR,,"[{""cover"": ""FEW"", ""base_ft_agl"": 1200.0}, {""cover"": ""BKN"", ""base_ft_agl"": 3800.0}]",METAR KPKV 131055Z AUTO 15008KT 10SM FEW012 BKN038 23/23 A3005 RMK AO2 T02310231
KPLD,2026-04-13 10:55:00+00:00,2026-04-13 10:55:00+00:00,19.0,8.5,220.0,14.0,17.0,10.0,1015.239722,VFR,,"[{""cover"": ""SCT"", ""base_ft_agl"": 3400.0}]",METAR KPLD 131055Z AUTO 22014G17KT 10SM SCT034 19/09 A2998 RMK AO2 T01900085
KPLN,2026-04-13 10:54:00+00:00,2026-04-13 10:54:00+00:00,15.0,13.3,250.0,11.0,22.0,10.0,1003.387357,MVFR,,"[{""cover"": ""SCT"", ""base_ft_agl"": 1100.0}, {""cover"": ""BKN"", ""base_ft_agl"": 1900.0}, {""cover"": ""OVC"", ""base_ft_agl"": 2400.0}]",METAR KPLN 131054Z AUTO 25011G22KT 10SM SCT011 BKN019 OVC024 15/13 A2963 RMK AO2 SLP034 T01500133
KPLR,2026-04-13 10:55:00+00:00,2026-04-13 10:55:00+00:00,11.0,11.0,0.0,0.0,,10.0,1025.737531,VFR,,"[{""cover"": ""FEW"", ""base_ft_agl"": 4400.0}, {""cover"": ""FEW"", ""base_ft_agl"": 5000.0}]",METAR KPLR 131055Z AUTO 00000KT 10SM FEW044 FEW050 11/11 A3029 RMK A01
KPLU,2026-04-13 10:55:00+00:00,2026-04-13 10:55:00+00:00,9.0,7.0,230.0,5.0,10.0,9.0,1014.223805,MVFR,,"[{""cover"": ""BKN"", ""base_ft_agl"": 1200.0}, {""cover"": ""OVC"", ""base_ft_agl"": 2200.0}]",METAR KPLU 131055Z AUTO 23005G10KT 9SM BKN012 OVC022 09/07 A2995 RMK AO2
KPMD,2026-04-13 10:53:00+00:00,2026-04-13 10:53:00+00:00,8.3,3.3,220.0,11.0,,10.0,1015.917,VFR,,"[{""cover"": ""OVC"", ""base_ft_agl"": 6000.0}]",METAR KPMD 131053Z AUTO 22011KT 10SM OVC060 08/03 A3000 RMK AO2 SLP150 T00830033 $
KPMH,2026-04-13 10:55:00+00:00,2026-04-13 10:55:00+00:00,24.0,10.0,200.0,8.0,14.0,10.0,1018.964751,VFR,,"[{""cover"": ""OVC"", ""base_ft_agl"": 7000.0}]",METAR KPMH 131055Z AUTO 20008G14KT 10SM OVC070 24/10 A3009 RMK AO2
KPMP,2026-04-13 10:53:00+00:00,2026-04-13 10:53:00+00:00,22.8,13.3,70.0,12.0,,10.0,1024.044336,VFR,,"[{""cover"": ""OVC"", ""base_ft_agl"": 4500.0}]",METAR KPMP 131053Z 07012KT 10SM OVC045 23/13 A3024 RMK AO2 SLP240 T02280133
KPMU,2026-04-13 10:55:00+00:00,2026-04-13 10:55:00+00:00,20.0,15.0,170.0,4.0,,10.0,1020.996585,VFR,,"[{""cover"": ""FEW"", ""base_ft_agl"": 3500.0}, {""cover"": ""FEW"", ""base_ft_agl"": 4400.0}, {""cover"": ""SCT"", ""base_ft_agl"": 12000.0}]",METAR KPMU 131055Z AUTO 17004KT 10SM FEW035 FEW044 SCT120 20/15 A3015 RMK AO2
KPMV,2026-04-13 10:55:00+00:00,2026-04-13 10:55:00+00:00,17.8,16.5,160.0,11.0,15.0,10.0,1005.75783,VFR,,,METAR KPMV 131055Z AUTO 16011G15KT 10SM CLR 18/17 A2970 RMK AO2 T01780165
KPNA,2026-04-13 10:55:00+00:00,2026-04-13 10:55:00+00:00,0.0,-3.0,300.0,10.0,,10.0,1012.53061,VFR,,"[{""cover"": ""BKN"", ""base_ft_agl"": 4100.0}, {""cover"": ""OVC"", ""base_ft_agl"": 4700.0}]",METAR KPNA 131055Z AUTO 30010KT 10SM BKN041 OVC047 00/M03 A2990 RMK AO2
KPNC,2026-04-13 10:53:00+00:00,2026-04-13 10:53:00+00:00,20.6,18.3,190.0,9.0,18.0,10.0,1010.8374150000001,MVFR,,"[{""cover"": ""BKN"", ""base_ft_agl"": 1600.0}]",METAR KPNC 131053Z AUTO 19009G18KT 10SM BKN016 21/18 A2985 RMK AO2 SLP096 T02060183
KPNE,2026-04-13 10:54:00+00:00,2026-04-13 10:54:00+00:00,11.1,7.8,0.0,0.0,,10.0,1021.6738630000001,MVFR,,"[{""cover"": ""OVC"", ""base_ft_agl"": 1600.0}]",METAR KPNE 131054Z 00000KT 10SM OVC016 11/08 A3017 RMK AO2 SLP217 T01110078
KPNM,2026-04-13 10:55:00+00:00,2026-04-13 10:55:00+00:00,9.9,9.3,360.0,8.0,,10.0,1008.128303,IFR,,"[{""cover"": ""OVC"", ""base_ft_agl"": 900.0}]",METAR KPNM 131055Z AUTO 36008KT 10SM OVC009 10/09 A2977 RMK AO2 T00990093
KPNS,2026-04-13 10:53:00+00:00,2026-04-13 10:53:00+00:00,15.6,15.0,90.0,4.0,,10.0,1024.721614,VFR,,,METAR KPNS 131053Z AUTO 09004KT 10SM CLR 16/15 A3026 RMK AO2 SLP248 T01560150
KPNT,2026-04-13 10:55:00+00:00,2026-04-13 10:55:00+00:00,18.2,15.5,,,,10.0,1012.8692490000001,VFR,,"[{""cover"": ""SCT"", ""base_ft_agl"": 3800.0}]",METAR KPNT 131055Z 10SM SCT038 18/16 A2991 RMK AO2 T01820155 PWINO
KPO1,2026-04-13 10:55:00+00:00,2026-04-13 10:55:00+00:00,2.0,1.0,80.0,8.0,,9.0,1008.466942,VFR,,"[{""cover"": ""SCT"", ""base_ft_agl"": 1100.0}, {""cover"": ""BKN"", ""base_ft_agl"": 5500.0}, {""cover"": ""OVC"", ""base_ft_agl"": 9000.0}]",METAR KPO1 131055Z AUTO 08008KT 9SM SCT011 BKN055 OVC090 02/01 A2978 RMK AO2 TSNO
KPOB,2026-04-13 09:55:00+00:00,2026-04-13 09:55:00+00:00,16.1,15.5,0.0,0.0,,10.0,1026.07617,VFR,,,METAR KPOB 130955Z AUTO 00000KT 10SM CLR 16/16 A3030 RMK AO2 SLP262 T01610155 $
KPOE,2026-04-13 10:55:00+00:00,2026-04-13 10:55:00+00:00,20.1,19.4,170.0,5.0,,10.0,1019.980668,MVFR,,"[{""cover"": ""BKN"", ""base_ft_agl"": 1600.0}, {""cover"": ""BKN"", ""base_ft_agl"": 15000.0}]",METAR KPOE 131055Z AUTO 17005KT 10SM BKN016 BKN150 20/19 A3012 RMK AO2 SLP200 T02010194
KPOF,2026-04-13 10:53:00+00:00,2026-04-13 10:53:00+00:00,21.1,16.7,200.0,9.0,,10.0,1017.948834,MVFR,,"[{""cover"": ""BKN"", ""base_ft_agl"": 2900.0}, {""cover"": ""OVC"", ""base_ft_agl"": 3500.0}]",METAR KPOF 131053Z AUTO 20009KT 10SM BKN029 OVC035 21/17 A3006 RMK AO2 SLP173 T02110167
KPOU,2026-04-13 10:53:00+00:00,2026-04-13 10:53:00+00:00,10.0,5.0,0.0,0.0,,10.0,1020.319307,MVFR,,"[{""cover"": ""OVC"", ""base_ft_agl"": 1900.0}]",METAR KPOU 131053Z 00000KT 10SM OVC019 10/05 A3013 RMK AO2 SLP201 T01000050 $
KPOV,2026-04-13 10:55:00+00:00,2026-04-13 10:55:00+00:00,20.0,8.7,250.0,15.0,25.0,10.0,1014.562444,VFR,,"[{""cover"": ""OVC"", ""base_ft_agl"": 6000.0}]",METAR KPOV 131055Z AUTO 25015G25KT 10SM OVC060 20/09 A2996 RMK AO2 T02000087
KPOY,2026-04-13 10:55:00+00:00,2026-04-13 10:55:00+00:00,5.0,-3.0,180.0,6.0,,10.0,1006.435108,VFR,,,METAR KPOY 131055Z AUTO 18006KT 10SM CLR 05/M03 A2972 RMK AO2
KPPA,2026-04-13 10:55:00+00:00,2026-04-13 10:55:00+00:00,14.4,-0.5,200.0,12.0,,10.0,1012.8692490000001,VFR,,,METAR KPPA 131055Z AUTO 20012KT 10SM CLR 14/00 A2991 RMK AO2 T01441005
KPPF,2026-04-13 10:52:00+00:00,2026-04-13 10:52:00+00:00,20.6,18.3,190.0,12.0,22.0,10.0,1011.853332,MVFR,,"[{""cover"": ""OVC"", ""base_ft_agl"": 2300.0}]",METAR KPPF 131052Z AUTO 19012G22KT 10SM OVC023 21/18 A2988 RMK AO2 SLP110 T02060183 PNO $
KPPO,2026-04-13 10:55:00+00:00,2026-04-13 10:55:00+00:00,17.0,17.0,240.0,8.0,,10.0,1012.53061,VFR,,"[{""cover"": ""FEW"", ""base_ft_agl"": 2500.0}, {""cover"": ""FEW"", ""base_ft_agl"": 3600.0}]",METAR KPPO 131055Z AUTO 24008KT 10SM FEW025 FEW036 17/17 A2990 RMK AO2
KPPQ,2026-04-13 10:55:00+00:00,2026-04-13 10:55:00+00:00,19.5,16.5,210.0,7.0,,10.0,1013.546527,VFR,,,METAR KPPQ 131055Z AUTO 21007KT 10SM CLR 20/17 A2993 RMK AO2 T01950165
KPQI,2026-04-13 10:56:00+00:00,2026-04-13 10:56:00+00:00,3.3,1.1,190.0,16.0,21.0,10.0,1015.239722,MVFR,-RA,"[{""cover"": ""OVC"", ""base_ft_agl"": 1900.0}]",METAR KPQI 131056Z AUTO 19016G21KT 10SM -RA OVC019 03/01 A2998 RMK AO2 RAB40 SLP184 P0000 T00330011
KPQL,2026-04-13 10:58:00+00:00,2026-04-13 10:58:00+00:00,12.8,12.8,0.0,0.0,,2.0,1023.367058,IFR,BR,,SPECI KPQL 131058Z AUTO 00000KT 2SM BR CLR 13/13 A3022 RMK AO2 VIS 3/4V5 T01280128
KPQN,2026-04-13 10:55:00+00:00,2026-04-13 10:55:00+00:00,9.0,9.0,40.0,9.0,,10.0,1006.7737470000001,VFR,,,METAR KPQN 131055Z AUTO 04009KT 10SM CLR 09/09 A2973 RMK AO2 T00900090
KPRC,2026-04-13 10:53:00+00:00,2026-04-13 10:53:00+00:00,7.8,-0.6,150.0,5.0,,10.0,1016.9329170000001,VFR,,,METAR KPRC 131053Z AUTO 15005KT 10SM CLR 08/M01 A3003 RMK AO2 SLP119 T00781006
KPRG,2026-04-13 10:55:00+00:00,2026-04-13 10:55:00+00:00,19.6,14.6,,,,10.0,1015.578361,VFR,,"[{""cover"": ""SCT"", ""base_ft_agl"": 3800.0}, {""cover"": ""BKN"", ""base_ft_agl"": 5000.0}, {""cover"": ""OVC"", ""base_ft_agl"": 6000.0}]",METAR KPRG 131055Z 10SM SCT038 BKN050 OVC060 20/15 A2999 RMK AO2 T01960146
KPRN,2026-04-13 11:00:00+00:00,2026-04-13 11:00:00+00:00,11.7,11.1,0.0,0.0,,9.0,1025.060253,VFR,,,METAR KPRN 131100Z AUTO 00000KT 9SM CLR 12/11 A3027 RMK AO2 SLP195 T01170111
KPRO,2026-04-13 10:55:00+00:00,2026-04-13 10:55:00+00:00,13.6,13.6,160.0,8.0,,9.0,1007.112386,VFR,,"[{""cover"": ""FEW"", ""base_ft_agl"": 1300.0}]",METAR KPRO 131055Z AUTO 16008KT 9SM FEW013 14/14 A2974 RMK AO2 T01360136
KPRS,2026-04-13 10:55:00+00:00,2026-04-13 10:55:00+00:00,18.1,8.9,350.0,5.0,,10.0,1018.964751,VFR,,,METAR KPRS 131055Z AUTO 35005KT 10SM CLR 18/09 A3009 RMK AO2 T01810089
KPRX,2026-04-13 10:55:00+00:00,2026-04-13 10:55:00+00:00,17.2,16.7,150.0,5.0,,10.0,1017.6101950000001,MVFR,,"[{""cover"": ""OVC"", ""base_ft_agl"": 1400.0}]",METAR KPRX 131055Z AUTO 15005KT 10SM OVC014 17/17 A3005 RMK AO2 SLP174 T01720167
KPSC,2026-04-13 10:53:00+00:00,2026-04-13 10:53:00+00:00,13.3,4.4,250.0,8.0,,10.0,1007.7896640000001,VFR,,"[{""cover"": ""OVC"", ""base_ft_agl"": 7500.0}]",METAR KPSC 131053Z AUTO 25008KT 10SM OVC075 13/04 A2976 RMK AO2 SLP075 T01330044
KPSF,2026-04-13 10:54:00+00:00,2026-04-13 10:54:00+00:00,9.4,5.0,0.0,3.0,,10.0,1018.2874730000001,VFR,,"[{""cover"": ""BKN"", ""base_ft_agl"": 10000.0}]",METAR KPSF 131054Z AUTO VRB03KT 10SM BKN100 09/05 A3007 RMK AO2 SLP174 T00940050 $
KPSK,2026-04-13 10:55:00+00:00,2026-04-13 10:55:00+00:00,13.5,7.5,260.0,4.0,,10.0,1025.060253,VFR,,,METAR KPSK 131055Z AUTO 26004KT 10SM CLR 14/08 A3027 RMK AO2 T01350075
KPSM,2026-04-13 10:55:00+00:00,2026-04-13 10:55:00+00:00,7.1,5.9,140.0,5.0,,10.0,1019.30339,MVFR,,"[{""cover"": ""OVC"", ""base_ft_agl"": 2800.0}]",METAR KPSM 131055Z 14005KT 10SM OVC028 07/06 A3010 RMK AO2A SLP196 T00710059
KPSN,2026-04-13 10:55:00+00:00,2026-04-13 10:55:00+00:00,20.0,19.0,170.0,9.0,17.0,10.0,1018.964751,VFR,,"[{""cover"": ""FEW"", ""base_ft_agl"": 6500.0}, {""cover"": ""FEW"", ""base_ft_agl"": 8000.0}, {""cover"": ""SCT"", ""base_ft_agl"": 10000.0}]",METAR KPSN 131055Z AUTO 17009G17KT 10SM FEW065 FEW080 SCT100 20/19 A3009 RMK AO2 LTG DSNT E AND SE P0005
KPSO,2026-04-13 10:55:00+00:00,2026-04-13 10:55:00+00:00,1.0,-6.0,210.0,1.0,,10.0,1019.980668,VFR,,,METAR KPSO 131055Z AUTO 21001KT 10SM CLR 01/M06 A3012 RMK AO2
KPSP,2026-04-13 10:53:00+00:00,2026-04-13 10:53:00+00:00,14.4,6.1,0.0,3.0,,10.0,1014.223805,VFR,,,METAR KPSP 131053Z AUTO VRB03KT 10SM CLR 14/06 A2995 RMK AO2 SLP142 T01440061
KPSX,2026-04-13 10:53:00+00:00,2026-04-13 10:53:00+00:00,22.8,21.7,140.0,11.0,,9.0,1018.2874730000001,VFR,,"[{""cover"": ""FEW"", ""base_ft_agl"": 3500.0}, {""cover"": ""BKN"", ""base_ft_agl"": 8000.0}]",METAR KPSX 131053Z AUTO 14011KT 9SM FEW035 BKN080 23/22 A3007 RMK AO2 SLP182 T02280217
KPTD,2026-04-13 10:55:00+00:00,2026-04-13 10:55:00+00:00,18.0,8.0,210.0,20.0,28.0,10.0,1009.14422,VFR,,"[{""cover"": ""FEW"", ""base_ft_agl"": 8000.0}, {""cover"": ""OVC"", ""base_ft_agl"": 12000.0}]",METAR KPTD 131055Z AUTO 21020G28KT 10SM FEW080 OVC120 18/08 A2980 RMK AO2 PNO
KPTK,2026-04-13 10:53:00+00:00,2026-04-13 10:53:00+00:00,16.0,14.0,240.0,15.0,24.0,9.0,1009.821498,MVFR,,"[{""cover"": ""FEW"", ""base_ft_agl"": 1000.0}, {""cover"": ""OVC"", ""base_ft_agl"": 1500.0}]",METAR KPTK 131053Z 24015G24KT 9SM FEW010 OVC015 16/14 A2982 RMK RAE39 SLPNO T01600140
KPTN,2026-04-13 10:56:00+00:00,2026-04-13 10:56:00+00:00,20.0,20.0,130.0,6.0,,10.0,1020.996585,VFR,,,METAR KPTN 131056Z AUTO 13006KT 10SM CLR 20/20 A3015 RMK AO2 SLP210 T02000200 $
KPTS,2026-04-13 10:55:00+00:00,2026-04-13 10:55:00+00:00,21.0,19.0,190.0,16.0,22.0,10.0,1012.53061,MVFR,,"[{""cover"": ""SCT"", ""base_ft_agl"": 2000.0}, {""cover"": ""OVC"", ""base_ft_agl"": 2600.0}]",METAR KPTS 131055Z AUTO 19016G22KT 10SM SCT020 OVC026 21/19 A2990 RMK AO2
KPTT,2026-04-13 10:55:00+00:00,2026-04-13 10:55:00+00:00,18.3,18.0,190.0,11.0,,10.0,1008.805581,VFR,,,METAR KPTT 131055Z AUTO 19011KT 10SM CLR 18/18 A2979 RMK AO2 T01830180
KPTV,2026-04-13 10:56:00+00:00,2026-04-13 10:56:00+00:00,8.9,7.2,0.0,0.0,,10.0,1017.271556,VFR,,"[{""cover"": ""SCT"", ""base_ft_agl"": 7000.0}]",METAR KPTV 131056Z AUTO 00000KT 10SM SCT070 09/07 A3004 RMK AO2 SLP173 T00890072 $
KPTW,2026-04-13 10:54:00+00:00,2026-04-13 10:54:00+00:00,12.2,10.6,150.0,3.0,,10.0,1021.335224,MVFR,,"[{""cover"": ""OVC"", ""base_ft_agl"": 1300.0}]",METAR KPTW 131054Z AUTO 15003KT 10SM OVC013 12/11 A3016 RMK AO2 SLP211 T01220106
KPUB,2026-04-13 10:53:00+00:00,2026-04-13 10:53:00+00:00,10.6,-8.9,120.0,6.0,,10.0,1010.498776,VFR,,,METAR KPUB 131053Z AUTO 12006KT 10SM CLR 11/M09 A2984 RMK AO2 SLP055 T01061089 $
KPUC,2026-04-13 10:53:00+00:00,2026-04-13 10:53:00+00:00,6.1,-6.1,260.0,8.0,,10.0,1014.562444,VFR,,,METAR KPUC 131053Z AUTO 26008KT 10SM CLR 06/M06 A2996 RMK AO2 SLP120 T00611061
KPUJ,2026-04-13 10:55:00+00:00,2026-04-13 10:55:00+00:00,12.0,9.0,150.0,2.0,,10.0,1026.4148089999999,VFR,,,METAR KPUJ 131055Z AUTO 15002KT 10SM CLR 12/09 A3031 RMK AO2
KPUW,2026-04-13 10:53:00+00:00,2026-04-13 10:53:00+00:00,5.0,4.4,110.0,8.0,,5.0,1007.7896640000001,MVFR,-RA BR,"[{""cover"": ""OVC"", ""base_ft_agl"": 1500.0}]",METAR KPUW 131053Z AUTO 11008KT 5SM -RA BR OVC015 05/04 A2976 RMK AO2 SLP083 P0006 T00500044
KPVB,2026-04-13 10:55:00+00:00,2026-04-13 10:55:00+00:00,,,230.0,7.0,,7.0,1010.160137,IFR,,"[{""cover"": ""OVC"", ""base_ft_agl"": 600.0}]",METAR KPVB 131055Z AUTO 23007KT 7SM OVC006 A2983 RMK AO1
KPVC,2026-04-13 10:56:00+00:00,2026-04-13 10:56:00+00:00,8.3,8.3,180.0,16.0,22.0,10.0,1022.3511410000001,MVFR,,"[{""cover"": ""OVC"", ""base_ft_agl"": 2700.0}]",METAR KPVC 131056Z AUTO 18016G22KT 10SM OVC027 08/08 A3019 RMK AO2 SLP223 T00830083 PNO $
KPVD,2026-04-13 10:51:00+00:00,2026-04-13 10:51:00+00:00,9.4,5.0,200.0,10.0,,10.0,1022.68978,VFR,,"[{""cover"": ""OVC"", ""base_ft_agl"": 3200.0}]",METAR KPVD 131051Z 20010KT 10SM OVC032 09/05 A3020 RMK AO2 SLP225 T00940050 $
KPVE,2026-04-13 10:55:00+00:00,2026-04-13 10:55:00+00:00,20.0,13.0,180.0,7.0,,10.0,1021.6738630000001,VFR,,"[{""cover"": ""SCT"", ""base_ft_agl"": 5000.0}, {""cover"": ""BKN"", ""base_ft_agl"": 6500.0}, {""cover"": ""OVC"", ""base_ft_agl"": 11000.0}]",METAR KPVE 131055Z AUTO 18007KT 10SM SCT050 BKN065 OVC110 20/13 A3017 RMK A01
KPVF,2026-04-13 10:55:00+00:00,2026-04-13 10:55:00+00:00,5.0,4.0,0.0,0.0,,10.0,1017.6101950000001,VFR,,"[{""cover"": ""FEW"", ""base_ft_agl"": 2100.0}, {""cover"": ""OVC"", ""base_ft_agl"": 6000.0}]",METAR KPVF 131055Z AUTO 00000KT 10SM FEW021 OVC060 05/04 A3005 RMK AO1
KPVG,2026-04-13 10:56:00+00:00,2026-04-13 10:56:00+00:00,15.0,15.0,200.0,5.0,,10.0,1026.4148089999999,VFR,,,METAR KPVG 131056Z AUTO 20005KT 10SM CLR 15/15 A3031 RMK AO2 SLP266 T01500150 $
KPVJ,2026-04-13 10:55:00+00:00,2026-04-13 10:55:00+00:00,20.0,18.0,180.0,4.0,14.0,10.0,1015.917,MVFR,,"[{""cover"": ""BKN"", ""base_ft_agl"": 1700.0}, {""cover"": ""BKN"", ""base_ft_agl"": 2100.0}]",METAR KPVJ 131055Z AUTO 18004G14KT 10SM BKN017 BKN021 20/18 A3000 RMK AO2 T02000180
KPVU,2026-04-13 10:56:00+00:00,2026-04-13 10:56:00+00:00,5.0,3.9,120.0,3.0,,10.0,1015.917,VFR,,,METAR KPVU 131056Z AUTO 12003KT 10SM CLR 05/04 A3000 RMK AO2 SLP135 T00500039
KPVW,2026-04-13 10:50:00+00:00,2026-04-13 10:50:00+00:00,13.7,8.3,210.0,11.0,,10.0,1015.239722,VFR,,,METAR KPVW 131050Z AUTO 21011KT 10SM CLR 14/08 A2998 RMK AO2 T01370083
KPWA,2026-04-13 10:53:00+00:00,2026-04-13 10:53:00+00:00,21.1,18.3,180.0,18.0,29.0,10.0,1012.8692490000001,MVFR,,"[{""cover"": ""OVC"", ""base_ft_agl"": 1800.0}]",METAR KPWA 131053Z AUTO 18018G29KT 10SM OVC018 21/18 A2991 RMK AO2 PK WND 18029/1045 SLP115 T02110183
KPWC,2026-04-13 10:55:00+00:00,2026-04-13 10:55:00+00:00,6.3,6.3,10.0,6.0,,9.0,1008.128303,IFR,,"[{""cover"": ""BKN"", ""base_ft_agl"": 700.0}, {""cover"": ""OVC"", ""base_ft_agl"": 1100.0}]",METAR KPWC 131055Z AUTO 01006KT 9SM BKN007 OVC011 06/06 A2977 RMK AO2 CIG 006V010 BKN V OVC T00630063
KPWD,2026-04-13 10:55:00+00:00,2026-04-13 10:55:00+00:00,0.0,-1.0,130.0,7.0,,10.0,1009.482859,IFR,,"[{""cover"": ""BKN"", ""base_ft_agl"": 700.0}, {""cover"": ""OVC"", ""base_ft_agl"": 6000.0}]",METAR KPWD 131055Z AUTO 13007KT 10SM BKN007 OVC060 00/M01 A2981 RMK AO2
KPWG,2026-04-13 10:56:00+00:00,2026-04-13 10:56:00+00:00,21.7,21.1,160.0,9.0,,10.0,1017.948834,MVFR,,"[{""cover"": ""OVC"", ""base_ft_agl"": 1100.0}]",METAR KPWG 131056Z AUTO 16009KT 10SM OVC011 22/21 A3006 RMK AO2 SLP173 T02170211
KPWK,2026-04-13 11:01:00+00:00,2026-04-13 11:01:00+00:00,18.3,16.7,240.0,8.0,,10.0,1011.176054,MVFR,,"[{""cover"": ""OVC"", ""base_ft_agl"": 1400.0}]",SPECI KPWK 131101Z 24008KT 10SM OVC014 18/17 A2986 RMK AO2 T01830167
KPWM,2026-04-13 10:51:00+00:00,2026-04-13 10:51:00+00:00,6.1,5.6,190.0,14.0,20.0,7.0,1019.980668,IFR,-RA,"[{""cover"": ""OVC"", ""base_ft_agl"": 500.0}]",METAR KPWM 131051Z 19014G20KT 7SM -RA OVC005 06/06 A3012 RMK AO2 SLP200 P0003 T00610056 $
KPWT,2026-04-13 10:56:00+00:00,2026-04-13 10:56:00+00:00,7.8,7.8,0.0,3.0,,10.0,1013.2078880000001,MVFR,,"[{""cover"": ""BKN"", ""base_ft_agl"": 1000.0}, {""cover"": ""OVC"", ""base_ft_agl"": 1800.0}]",METAR KPWT 131056Z AUTO VRB03KT 10SM BKN010 OVC018 08/08 A2992 RMK AO2 RAB32E55 SLP135 P0000 T00780078
KPXE,2026-04-13 10:55:00+00:00,2026-04-13 10:55:00+00:00,12.0,,0.0,0.0,,2.5,1027.092087,IFR,BR,,METAR KPXE 131055Z AUTO 00000KT 2 1/2SM BR CLR 12/ A3033 RMK AO2 VIS 1 1/2V4
KPYM,2026-04-13 11:04:00+00:00,2026-04-13 11:04:00+00:00,10.0,5.6,210.0,14.0,24.0,10.0,1022.012502,VFR,,"[{""cover"": ""SCT"", ""base_ft_agl"": 2500.0}, {""cover"": ""OVC"", ""base_ft_agl"": 3600.0}]",SPECI KPYM 131104Z AUTO 21014G24KT 10SM SCT025 OVC036 10/06 A3018 RMK AO2 T01000056 $
KPYX,2026-04-13 10:55:00+00:00,2026-04-13 10:55:00+00:00,12.6,2.0,200.0,9.0,,10.0,1010.160137,VFR,,,METAR KPYX 131055Z AUTO 20009KT 10SM CLR 13/02 A2983 RMK AO2 T01260020
KPZQ,2026-04-13 10:55:00+00:00,2026-04-13 10:55:00+00:00,15.0,13.0,250.0,11.0,,10.0,1002.7100790000001,MVFR,,"[{""cover"": ""OVC"", ""base_ft_agl"": 2600.0}]",METAR KPZQ 131055Z AUTO 25011KT 10SM OVC026 15/13 A2961 RMK AO2
KPZZ,2026-04-13 10:55:00+00:00,2026-04-13 10:55:00+00:00,24.0,18.0,140.0,22.0,,10.0,1020.996585,VFR,,"[{""cover"": ""FEW"", ""base_ft_agl"": 2900.0}, {""cover"": ""FEW"", ""base_ft_agl"": 3300.0}, {""cover"": ""SCT"", ""base_ft_agl"": 4000.0}]",METAR KPZZ 131055Z AUTO 14022KT 10SM FEW029 FEW033 SCT040 24/18 A3015 RMK A01
KRAC,2026-04-13 10:53:00+00:00,2026-04-13 10:53:00+00:00,17.2,15.6,230.0,9.0,19.0,10.0,1010.160137,MVFR,,"[{""cover"": ""BKN"", ""base_ft_agl"": 1400.0}, {""cover"": ""OVC"", ""base_ft_agl"": 3200.0}]",METAR KRAC 131053Z AUTO 23009G19KT 10SM BKN014 OVC032 17/16 A2983 RMK AO2 SLP098 T01720156 $
KRAL,2026-04-13 10:53:00+00:00,2026-04-13 10:53:00+00:00,10.0,8.9,0.0,0.0,,10.0,1016.594278,VFR,,,METAR KRAL 131053Z AUTO 00000KT 10SM CLR 10/09 A3002 RMK AO2 SLP157 T01000089
KRAP,2026-04-13 10:52:00+00:00,2026-04-13 10:52:00+00:00,9.4,3.9,340.0,12.0,,10.0,1006.0964690000001,VFR,,"[{""cover"": ""SCT"", ""base_ft_agl"": 12000.0}]",METAR KRAP 131052Z AUTO 34012KT 10SM SCT120 09/04 A2971 RMK AO2 SLP047 T00940039
KRAS,2026-04-13 10:55:00+00:00,2026-04-13 10:55:00+00:00,23.8,22.2,140.0,10.0,,10.0,1018.2874730000001,MVFR,,"[{""cover"": ""BKN"", ""base_ft_agl"": 2700.0}, {""cover"": ""BKN"", ""base_ft_agl"": 8000.0}]",METAR KRAS 131055Z AUTO 14010KT 10SM BKN027 BKN080 24/22 A3007 RMK AO2 T02380222
KRAW,2026-04-13 10:55:00+00:00,2026-04-13 10:55:00+00:00,20.5,16.6,200.0,13.0,16.0,10.0,1013.546527,MVFR,,"[{""cover"": ""OVC"", ""base_ft_agl"": 2400.0}]",METAR KRAW 131055Z AUTO 20013G16KT 10SM OVC024 21/17 A2993 RMK AO2 T02050166
KRBD,2026-04-13 10:53:00+00:00,2026-04-13 10:53:00+00:00,21.1,20.0,180.0,14.0,21.0,10.0,1016.594278,MVFR,,"[{""cover"": ""OVC"", ""base_ft_agl"": 1200.0}]",METAR KRBD 131053Z AUTO 18014G21KT 10SM OVC012 21/20 A3002 RMK AO2 SLP161 T02110200
KRBG,2026-04-13 10:53:00+00:00,2026-04-13 10:53:00+00:00,9.4,8.3,170.0,3.0,,10.0,1017.948834,MVFR,,"[{""cover"": ""BKN"", ""base_ft_agl"": 2400.0}, {""cover"": ""BKN"", ""base_ft_agl"": 2900.0}, {""cover"": ""OVC"", ""base_ft_agl"": 3600.0}]",METAR KRBG 131053Z AUTO 17003KT 10SM BKN024 BKN029 OVC036 09/08 A3006 RMK AO2 RAB03E31 SLP178 P0000 T00940083 $
KRBL,2026-04-13 10:54:00+00:00,2026-04-13 10:54:00+00:00,8.3,7.8,330.0,3.0,,10.0,1018.964751,VFR,,"[{""cover"": ""OVC"", ""base_ft_agl"": 3100.0}]",METAR KRBL 131054Z AUTO 33003KT 10SM OVC031 08/08 A3009 RMK AO2 SLP190 T00830078
KRBO,2026-04-13 10:55:00+00:00,2026-04-13 10:55:00+00:00,23.3,22.0,140.0,10.0,,10.0,1017.6101950000001,MVFR,,"[{""cover"": ""OVC"", ""base_ft_agl"": 1100.0}]",METAR KRBO 131055Z AUTO 14010KT 10SM OVC011 23/22 A3005 RMK AO2 T02330220 PWINO
KRBW,2026-04-13 10:55:00+00:00,2026-04-13 10:55:00+00:00,11.0,11.0,0.0,0.0,,0.25,1027.769365,LIFR,FG,"[{""cover"": ""OVC"", ""base_ft_agl"": 200.0}]",METAR KRBW 131055Z AUTO 00000KT M1/4SM FG OVC002 11/11 A3035 RMK AO2
KRCA,2026-04-13 10:55:00+00:00,2026-04-13 10:55:00+00:00,10.2,4.6,340.0,14.0,,4.0,1005.4191910000001,MVFR,HZ,"[{""cover"": ""BKN"", ""base_ft_agl"": 11000.0}]",METAR KRCA 131055Z AUTO 34014KT 4SM HZ BKN110 10/05 A2969 RMK AO2 SLP042 T01020046
KRCE,2026-04-13 10:55:00+00:00,2026-04-13 10:55:00+00:00,20.0,18.0,180.0,18.0,27.0,10.0,1012.8692490000001,MVFR,,"[{""cover"": ""OVC"", ""base_ft_agl"": 1700.0}]",METAR KRCE 131055Z AUTO 18018G27KT 10SM OVC017 20/18 A2991 RMK AO2
KRCM,2026-04-13 10:55:00+00:00,2026-04-13 10:55:00+00:00,20.0,17.0,190.0,10.0,14.0,10.0,1011.5146930000001,MVFR,,"[{""cover"": ""OVC"", ""base_ft_agl"": 2400.0}]",METAR KRCM 131055Z AUTO 19010G14KT 10SM OVC024 20/17 A2987 RMK AO2 LTG DSNT NE
KRCR,2026-04-13 10:55:00+00:00,2026-04-13 10:55:00+00:00,20.0,15.0,240.0,12.0,23.0,10.0,1013.2078880000001,MVFR,,"[{""cover"": ""BKN"", ""base_ft_agl"": 2900.0}, {""cover"": ""BKN"", ""base_ft_agl"": 3400.0}, {""cover"": ""OVC"", ""base_ft_agl"": 4800.0}]",METAR KRCR 131055Z AUTO 24012G23KT 10SM BKN029 BKN034 OVC048 20/15 A2992 RMK AO2
KRCV,2026-04-13 10:55:00+00:00,2026-04-13 10:55:00+00:00,6.3,-9.5,280.0,15.0,25.0,10.0,1017.271556,VFR,,,METAR KRCV 131055Z AUTO 28015G25KT 10SM CLR 06/M09 A3004 RMK AO2 T00631095
KRCX,2026-04-13 10:55:00+00:00,2026-04-13 10:55:00+00:00,11.6,10.5,340.0,4.0,,10.0,1007.7896640000001,MVFR,,"[{""cover"": ""OVC"", ""base_ft_agl"": 1300.0}]",METAR KRCX 131055Z AUTO 34004KT 10SM OVC013 12/11 A2976 RMK AO2 T01160105
KRCZ,2026-04-13 10:55:00+00:00,2026-04-13 10:55:00+00:00,15.4,14.3,0.0,0.0,,10.0,1027.430726,VFR,,,METAR KRCZ 131055Z AUTO 00000KT 10SM CLR 15/14 A3034 RMK AO2 T01540143
KRDD,2026-04-13 10:53:00+00:00,2026-04-13 10:53:00+00:00,7.2,6.7,0.0,0.0,,10.0,1018.2874730000001,VFR,,"[{""cover"": ""OVC"", ""base_ft_agl"": 3100.0}]",METAR KRDD 131053Z AUTO 00000KT 10SM OVC031 07/07 A3007 RMK AO2 SLP184 T00720067 $
KRDG,2026-04-13 10:54:00+00:00,2026-04-13 10:54:00+00:00,13.9,10.0,0.0,0.0,,10.0,1020.319307,MVFR,,"[{""cover"": ""OVC"", ""base_ft_agl"": 1300.0}]",METAR KRDG 131054Z 00000KT 10SM OVC013 14/10 A3013 RMK AO2 SLP207 T01390100 $
KRDK,2026-04-13 10:55:00+00:00,2026-04-13 10:55:00+00:00,19.0,18.0,170.0,12.0,,10.0,1006.7737470000001,MVFR,,"[{""cover"": ""OVC"", ""base_ft_agl"": 1600.0}]",METAR KRDK 131055Z AUTO 17012KT 10SM OVC016 19/18 A2973 RMK AO2
KRDM,2026-04-13 10:56:00+00:00,2026-04-13 10:56:00+00:00,5.6,1.1,290.0,7.0,,10.0,1012.1919710000001,VFR,,"[{""cover"": ""OVC"", ""base_ft_agl"": 10000.0}]",METAR KRDM 131056Z AUTO 29007KT 10SM OVC100 06/01 A2989 RMK AO2 SLP122 T00560011
KRDR,2026-04-13 10:28:00+00:00,2026-04-13 10:28:00+00:00,3.0,1.0,20.0,9.0,,10.0,1010.160137,IFR,,"[{""cover"": ""OVC"", ""base_ft_agl"": 500.0}]",SPECI KRDR 131028Z 02009KT 10SM OVC005 03/01 A2983 RMK AO2A SLP113 $
KRDU,2026-04-13 10:51:00+00:00,2026-04-13 10:51:00+00:00,16.7,15.0,220.0,8.0,,10.0,1026.753448,VFR,,"[{""cover"": ""FEW"", ""base_ft_agl"": 7500.0}, {""cover"": ""SCT"", ""base_ft_agl"": 25000.0}]",METAR KRDU 131051Z 22008KT 10SM FEW075 SCT250 17/15 A3032 RMK AO2 SLP264 T01670150 $
KREG,2026-04-13 10:55:00+00:00,2026-04-13 10:55:00+00:00,19.7,19.5,0.0,0.0,,10.0,1021.335224,VFR,,,METAR KREG 131055Z AUTO 00000KT 10SM CLR 20/20 A3016 RMK AO2 T01970195
KREO,2026-04-13 10:52:00+00:00,2026-04-13 10:52:00+00:00,5.0,-1.7,210.0,11.0,,,1012.1919710000001,,,,METAR KREO 131052Z AUTO 21011KT 05/M02 A2989 RMK AO1 SLP123 T00501017
KRFD,2026-04-13 10:54:00+00:00,2026-04-13 10:54:00+00:00,17.2,16.7,220.0,9.0,,4.0,1011.176054,MVFR,-RA BR,"[{""cover"": ""OVC"", ""base_ft_agl"": 1000.0}]",METAR KRFD 131054Z 22009KT 4SM -RA BR OVC010 17/17 A2986 RMK AO2 CIG 007V013 SLP110 P0000 T01720167 $
KRFI,2026-04-13 09:55:00+00:00,2026-04-13 09:55:00+00:00,20.3,19.1,210.0,9.0,16.0,8.0,1018.964751,VFR,-RA,"[{""cover"": ""FEW"", ""base_ft_agl"": 5000.0}, {""cover"": ""BKN"", ""base_ft_agl"": 9500.0}, {""cover"": ""OVC"", ""base_ft_agl"": 12000.0}]",METAR KRFI 130955Z AUTO 21009G16KT 8SM -RA FEW050 BKN095 OVC120 20/19 A3009 RMK AO2 LTG DSNT SW RAB0930 P0000 T02030191 $
KRGA,2026-04-13 10:55:00+00:00,2026-04-13 10:55:00+00:00,21.0,8.0,220.0,12.0,17.0,10.0,1022.012502,VFR,,"[{""cover"": ""BKN"", ""base_ft_agl"": 7500.0}]",METAR KRGA 131055Z AUTO 22012G17KT 10SM BKN075 21/08 A3018 RMK AO2
KRGK,2026-04-13 10:55:00+00:00,2026-04-13 10:55:00+00:00,10.0,9.0,0.0,0.0,,1.5,1006.7737470000001,IFR,BR,"[{""cover"": ""OVX"", ""base_ft_agl"": 700.0}]",METAR KRGK 131055Z AUTO 00000KT 1 1/2SM BR VV007 10/09 A2973 RMK AO2
KRHI,2026-04-13 10:53:00+00:00,2026-04-13 10:53:00+00:00,11.7,10.6,0.0,5.0,,10.0,1006.435108,IFR,,"[{""cover"": ""OVC"", ""base_ft_agl"": 700.0}]",METAR KRHI 131053Z AUTO VRB05KT 10SM OVC007 12/11 A2972 RMK AO2 SLP064 T01170106
KRHP,2026-04-13 10:55:00+00:00,2026-04-13 10:55:00+00:00,9.0,5.9,0.0,0.0,,10.0,1027.430726,VFR,,,METAR KRHP 131055Z AUTO 00000KT 10SM CLR 09/06 A3034 RMK AO2 T00900059
KRIC,2026-04-13 10:54:00+00:00,2026-04-13 10:54:00+00:00,15.6,14.4,200.0,11.0,,10.0,1024.721614,VFR,,"[{""cover"": ""FEW"", ""base_ft_agl"": 1400.0}, {""cover"": ""FEW"", ""base_ft_agl"": 30000.0}]",METAR KRIC 131054Z 20011KT 10SM FEW014 FEW300 16/14 A3026 RMK AO2 SLP251 T01560144 $
KRID,2026-04-13 10:55:00+00:00,2026-04-13 10:55:00+00:00,18.0,12.0,200.0,12.0,,10.0,1017.271556,VFR,,"[{""cover"": ""BKN"", ""base_ft_agl"": 4700.0}, {""cover"": ""OVC"", ""base_ft_agl"": 6000.0}]",METAR KRID 131055Z AUTO 20012KT 10SM BKN047 OVC060 18/12 A3004 RMK AO2
KRIL,2026-04-13 10:53:00+00:00,2026-04-13 10:53:00+00:00,11.7,-11.1,230.0,14.0,21.0,10.0,1013.885166,VFR,,,METAR KRIL 131053Z AUTO 23014G21KT 10SM CLR 12/M11 A2994 RMK AO2 PK WND 24028/0959 SLP084 T01171111
KRIV,2026-04-13 10:55:00+00:00,2026-04-13 10:55:00+00:00,11.4,9.3,330.0,3.0,,10.0,1015.578361,VFR,,"[{""cover"": ""BKN"", ""base_ft_agl"": 4800.0}, {""cover"": ""BKN"", ""base_ft_agl"": 6000.0}]",METAR KRIV 131055Z AUTO 33003KT 10SM BKN048 BKN060 11/09 A2999 RMK AO2 SLP150 T01140093
KRKD,2026-04-13 10:56:00+00:00,2026-04-13 10:56:00+00:00,5.0,5.0,200.0,11.0,17.0,4.0,1020.996585,IFR,-RA BR,"[{""cover"": ""OVC"", ""base_ft_agl"": 700.0}]",METAR KRKD 131056Z AUTO 20011G17KT 4SM -RA BR OVC007 05/05 A3015 RMK AO2 SLP210 P0005 T00500050
KRKP,2026-04-13 10:53:00+00:00,2026-04-13 10:53:00+00:00,23.3,22.2,140.0,12.0,,6.0,1017.271556,VFR,BR,"[{""cover"": ""FEW"", ""base_ft_agl"": 2100.0}]",METAR KRKP 131053Z AUTO 14012KT 6SM BR FEW021 23/22 A3004 RMK AO2 SLP175 T02330222
KRKR,2026-04-13 10:55:00+00:00,2026-04-13 10:55:00+00:00,22.0,17.0,190.0,13.0,,10.0,1016.594278,VFR,,"[{""cover"": ""BKN"", ""base_ft_agl"": 3100.0}, {""cover"": ""BKN"", ""base_ft_agl"": 3900.0}]",METAR KRKR 131055Z AUTO 19013KT 10SM BKN031 BKN039 22/17 A3002 RMK AO2
KRKS,2026-04-13 10:54:00+00:00,2026-04-13 10:54:00+00:00,1.7,-1.1,230.0,10.0,,10.0,1013.2078880000001,VFR,,"[{""cover"": ""FEW"", ""base_ft_agl"": 3600.0}, {""cover"": ""BKN"", ""base_ft_agl"": 8000.0}, {""cover"": ""OVC"", ""base_ft_agl"": 9500.0}]",METAR KRKS 131054Z AUTO 23010KT 10SM FEW036 BKN080 OVC095 02/M01 A2992 RMK AO2 SLP095 T00171011
KRLD,2026-04-13 10:55:00+00:00,2026-04-13 10:55:00+00:00,13.5,5.5,220.0,7.0,,10.0,1007.7896640000001,VFR,,"[{""cover"": ""OVC"", ""base_ft_agl"": 7000.0}]",METAR KRLD 131055Z AUTO 22007KT 10SM OVC070 14/06 A2976 RMK AO2 T01350055
KRME,2026-04-13 10:53:00+00:00,2026-04-13 10:53:00+00:00,12.8,6.1,130.0,8.0,,10.0,1014.901083,VFR,,"[{""cover"": ""BKN"", ""base_ft_agl"": 10000.0}]",METAR KRME 131053Z 13008KT 10SM BKN100 13/06 A2997 RMK AO2 SLP150 T01280061
KRMG,2026-04-13 10:53:00+00:00,2026-04-13 10:53:00+00:00,10.0,8.9,0.0,0.0,,10.0,1025.3988920000002,VFR,,,METAR KRMG 131053Z AUTO 00000KT 10SM CLR 10/09 A3028 RMK AO2 SLP247 T01000089 $
KRMN,2026-04-13 10:55:00+00:00,2026-04-13 10:55:00+00:00,17.8,14.1,190.0,6.0,,10.0,1022.3511410000001,VFR,,,METAR KRMN 131055Z AUTO 19006KT 10SM CLR 18/14 A3019 RMK AO2 T01780141
KRMY,2026-04-13 10:55:00+00:00,2026-04-13 10:55:00+00:00,16.5,14.9,240.0,7.0,,10.0,1011.176054,MVFR,,"[{""cover"": ""OVC"", ""base_ft_agl"": 1600.0}]",METAR KRMY 131055Z AUTO 24007KT 10SM OVC016 17/15 A2986 RMK AO2 T01650149
KRNC,2026-04-13 10:55:00+00:00,2026-04-13 10:55:00+00:00,19.0,10.0,220.0,4.0,10.0,10.0,1023.7056970000001,VFR,,"[{""cover"": ""SCT"", ""base_ft_agl"": 2600.0}, {""cover"": ""BKN"", ""base_ft_agl"": 4200.0}, {""cover"": ""BKN"", ""base_ft_agl"": 9500.0}]",METAR KRNC 131055Z AUTO 22004G10KT 10SM SCT026 BKN042 BKN095 19/10 A3023 RMK A01
KRND,2026-04-13 10:55:00+00:00,2026-04-13 10:55:00+00:00,22.6,20.9,150.0,8.0,,10.0,1017.6101950000001,IFR,,"[{""cover"": ""BKN"", ""base_ft_agl"": 800.0}, {""cover"": ""OVC"", ""base_ft_agl"": 1300.0}]",METAR KRND 131055Z AUTO 15008KT 10SM BKN008 OVC013 23/21 A3005 RMK AO2 DZB07E12 CIG 007 RWY15R SLP169 P0000 T02260209
KRNH,2026-04-13 10:55:00+00:00,2026-04-13 10:55:00+00:00,10.0,8.9,320.0,5.0,,10.0,1007.7896640000001,VFR,,,METAR KRNH 131055Z AUTO 32005KT 10SM CLR 10/09 A2976 RMK AO2 T01000089
KRNM,2026-04-13 10:53:00+00:00,2026-04-13 10:53:00+00:00,10.6,10.0,270.0,4.0,,10.0,1016.2556390000001,MVFR,,"[{""cover"": ""BKN"", ""base_ft_agl"": 1800.0}, {""cover"": ""OVC"", ""base_ft_agl"": 2300.0}]",METAR KRNM 131053Z AUTO 27004KT 10SM BKN018 OVC023 11/10 A3001 RMK AO2 SLP156 T01060100
KRNO,2026-04-13 10:55:00+00:00,2026-04-13 10:55:00+00:00,2.2,0.0,130.0,3.0,,10.0,1016.2556390000001,VFR,,"[{""cover"": ""SCT"", ""base_ft_agl"": 5000.0}, {""cover"": ""BKN"", ""base_ft_agl"": 7000.0}]",METAR KRNO 131055Z 13003KT 10SM SCT050 BKN070 02/00 A3001 RMK AO2 SLP158 T00220000
KRNP,2026-04-13 10:55:00+00:00,2026-04-13 10:55:00+00:00,15.1,13.0,250.0,14.0,27.0,10.0,1009.482859,MVFR,,"[{""cover"": ""SCT"", ""base_ft_agl"": 1000.0}, {""cover"": ""OVC"", ""base_ft_agl"": 1400.0}]",METAR KRNP 131055Z AUTO 25014G27KT 10SM SCT010 OVC014 15/13 A2981 RMK AO2 T01510130
KRNT,2026-04-13 10:53:00+00:00,2026-04-13 10:53:00+00:00,10.0,7.2,170.0,6.0,,10.0,1013.2078880000001,MVFR,,"[{""cover"": ""OVC"", ""base_ft_agl"": 1900.0}]",METAR KRNT 131053Z 17006KT 10SM OVC019 10/07 A2992 RMK AO2 SLP137 T01000072
KRNV,2026-04-13 10:55:00+00:00,2026-04-13 10:55:00+00:00,20.2,19.0,170.0,9.0,,10.0,1020.319307,VFR,,"[{""cover"": ""OVC"", ""base_ft_agl"": 11000.0}]",METAR KRNV 131055Z AUTO 17009KT 10SM OVC110 20/19 A3013 RMK AO2 T02020190 $
KROA,2026-04-13 10:54:00+00:00,2026-04-13 10:54:00+00:00,17.2,8.9,0.0,0.0,,10.0,1024.721614,VFR,,"[{""cover"": ""FEW"", ""base_ft_agl"": 10000.0}, {""cover"": ""SCT"", ""base_ft_agl"": 25000.0}]",METAR KROA 131054Z 00000KT 10SM FEW100 SCT250 17/09 A3026 RMK AO2 SLP238 T01720089
KROC,2026-04-13 10:54:00+00:00,2026-04-13 10:54:00+00:00,17.8,8.3,220.0,13.0,18.0,10.0,1011.176054,VFR,,"[{""cover"": ""OVC"", ""base_ft_agl"": 13000.0}]",METAR KROC 131054Z 22013G18KT 10SM OVC130 18/08 A2986 RMK AO2 SLP114 T01780083
KROG,2026-04-13 10:58:00+00:00,2026-04-13 10:58:00+00:00,20.6,17.2,200.0,12.0,18.0,10.0,1016.594278,MVFR,,"[{""cover"": ""OVC"", ""base_ft_agl"": 1800.0}]",METAR KROG 131058Z 20012G18KT 10SM OVC018 21/17 A3002 RMK AO2 SLP151 T02060172
KROS,2026-04-13 10:55:00+00:00,2026-04-13 10:55:00+00:00,11.0,9.5,0.0,0.0,,10.0,1008.128303,MVFR,,"[{""cover"": ""OVC"", ""base_ft_agl"": 1400.0}]",METAR KROS 131055Z AUTO 00000KT 10SM OVC014 11/10 A2977 RMK AO2 T01100095
KROW,2026-04-13 10:51:00+00:00,2026-04-13 10:51:00+00:00,18.3,2.2,280.0,6.0,,10.0,1015.917,VFR,,,METAR KROW 131051Z AUTO 28006KT 10SM CLR 18/02 A3000 RMK AO2 SLP097 T01830022 $
KROX,2026-04-13 10:55:00+00:00,2026-04-13 10:55:00+00:00,1.3,0.2,340.0,9.0,,10.0,1009.821498,MVFR,,"[{""cover"": ""OVC"", ""base_ft_agl"": 1100.0}]",METAR KROX 131055Z AUTO 34009KT 10SM OVC011 01/00 A2982 RMK AO2 T00130002
KRPD,2026-04-13 10:55:00+00:00,2026-04-13 10:55:00+00:00,7.4,6.5,0.0,0.0,,7.0,1007.7896640000001,VFR,,"[{""cover"": ""BKN"", ""base_ft_agl"": 9000.0}]",METAR KRPD 131055Z AUTO 00000KT 7SM BKN090 07/07 A2976 RMK AO2 T00740065
KRPH,2026-04-13 10:55:00+00:00,2026-04-13 10:55:00+00:00,21.2,19.1,190.0,6.0,,10.0,1014.901083,MVFR,,"[{""cover"": ""OVC"", ""base_ft_agl"": 1700.0}]",METAR KRPH 131055Z AUTO 19006KT 10SM OVC017 21/19 A2997 RMK AO2 CIG 016V021 T02120191
KRPJ,2026-04-13 10:55:00+00:00,2026-04-13 10:55:00+00:00,17.3,16.1,240.0,10.0,,10.0,1011.5146930000001,MVFR,,"[{""cover"": ""OVC"", ""base_ft_agl"": 1300.0}]",METAR KRPJ 131055Z AUTO 24010KT 10SM OVC013 17/16 A2987 RMK AO2 T01730161
KRQB,2026-04-13 10:55:00+00:00,2026-04-13 10:55:00+00:00,15.0,14.0,230.0,10.0,,10.0,1007.4510250000001,IFR,,"[{""cover"": ""OVC"", ""base_ft_agl"": 700.0}]",METAR KRQB 131055Z AUTO 23010KT 10SM OVC007 15/14 A2975 RMK AO2
KRQE,2026-04-13 10:53:00+00:00,2026-04-13 10:53:00+00:00,6.1,0.0,0.0,4.0,,10.0,1018.6261119999999,VFR,,,METAR KRQE 131053Z AUTO VRB04KT 10SM CLR 06/00 A3008 RMK AO2 SLP113 T00610000 $
KRQO,2026-04-13 10:55:00+00:00,2026-04-13 10:55:00+00:00,20.0,,200.0,18.0,25.0,10.0,1013.2078880000001,MVFR,,"[{""cover"": ""OVC"", ""base_ft_agl"": 1300.0}]",METAR KRQO 131055Z AUTO 20018G25KT 10SM OVC013 20/ A2992 RMK AO2
KRRT,2026-04-13 10:55:00+00:00,2026-04-13 10:55:00+00:00,0.0,-1.0,310.0,8.0,,10.0,1009.821498,IFR,,"[{""cover"": ""OVC"", ""base_ft_agl"": 900.0}]",METAR KRRT 131055Z AUTO 31008KT 10SM OVC009 00/M01 A2982 RMK AO2
KRSL,2026-04-13 10:53:00+00:00,2026-04-13 10:53:00+00:00,17.8,14.4,200.0,11.0,,10.0,1005.75783,VFR,,,METAR KRSL 131053Z AUTO 20011KT 10SM CLR 18/14 A2970 RMK AO2 SLP040 T01780144
KRSN,2026-04-13 10:55:00+00:00,2026-04-13 10:55:00+00:00,20.9,19.1,180.0,6.0,,10.0,1020.319307,MVFR,,"[{""cover"": ""BKN"", ""base_ft_agl"": 1800.0}, {""cover"": ""BKN"", ""base_ft_agl"": 2900.0}, {""cover"": ""OVC"", ""base_ft_agl"": 3700.0}]",METAR KRSN 131055Z AUTO 18006KT 10SM BKN018 BKN029 OVC037 21/19 A3013 RMK AO2 CIG 016V023 BKN018 V SCT T02090191 $
KRSP,2026-04-13 10:54:00+00:00,2026-04-13 10:54:00+00:00,15.0,9.4,220.0,11.0,22.0,10.0,1020.319307,VFR,,,METAR KRSP 131054Z AUTO 22011G22KT 10SM CLR 15/09 A3013 RMK AO2 SLP204 T01500094 $
KRST,2026-04-13 10:57:00+00:00,2026-04-13 10:57:00+00:00,11.1,11.1,170.0,7.0,,0.75,1007.112386,LIFR,BR,"[{""cover"": ""OVX"", ""base_ft_agl"": 200.0}]",SPECI KRST 131057Z 17007KT 3/4SM R31/2400VP6000FT BR VV002 11/11 A2974 RMK AO2 T01110111
KRSV,2026-04-13 10:55:00+00:00,2026-04-13 10:55:00+00:00,22.0,15.0,220.0,13.0,,10.0,1016.2556390000001,VFR,,"[{""cover"": ""BKN"", ""base_ft_agl"": 6000.0}]",METAR KRSV 131055Z AUTO 22013KT 10SM BKN060 22/15 A3001 RMK AO2
KRSW,2026-04-13 10:53:00+00:00,2026-04-13 10:53:00+00:00,16.7,15.0,0.0,0.0,,10.0,1024.382975,VFR,,"[{""cover"": ""BKN"", ""base_ft_agl"": 4100.0}]",METAR KRSW 131053Z 00000KT 10SM BKN041 17/15 A3025 RMK AO2 SLP242 T01670150
KRTN,2026-04-13 10:53:00+00:00,2026-04-13 10:53:00+00:00,5.6,-6.7,0.0,0.0,,10.0,1014.901083,VFR,,,METAR KRTN 131053Z AUTO 00000KT 10SM CLR 06/M07 A2997 RMK AO2 SLP089 T00561067
KRTS,2026-04-13 10:55:00+00:00,2026-04-13 10:55:00+00:00,-1.0,-4.0,70.0,5.0,,10.0,1016.594278,VFR,,"[{""cover"": ""FEW"", ""base_ft_agl"": 3700.0}]",METAR KRTS 131055Z AUTO 07005KT 10SM FEW037 M01/M04 A3002 RMK AO2
KRUE,2026-04-13 10:53:00+00:00,2026-04-13 10:53:00+00:00,20.6,17.2,0.0,0.0,,10.0,1017.948834,VFR,,"[{""cover"": ""FEW"", ""base_ft_agl"": 2700.0}, {""cover"": ""FEW"", ""base_ft_agl"": 3400.0}, {""cover"": ""OVC"", ""base_ft_agl"": 4300.0}]",METAR KRUE 131053Z AUTO 00000KT 10SM FEW027 FEW034 OVC043 21/17 A3006 RMK AO2 SLP170 T02060172
KRUG,2026-04-13 10:55:00+00:00,2026-04-13 10:55:00+00:00,1.0,-1.0,70.0,7.0,,10.0,1010.8374150000001,MVFR,,"[{""cover"": ""OVC"", ""base_ft_agl"": 2100.0}]",METAR KRUG 131055Z AUTO 07007KT 10SM OVC021 01/M01 A2985 RMK AO2
KRUQ,2026-04-13 10:55:00+00:00,2026-04-13 10:55:00+00:00,15.6,11.6,200.0,7.0,,10.0,1026.753448,VFR,,,METAR KRUQ 131055Z AUTO 20007KT 10SM CLR 16/12 A3032 RMK AO2 T01560116
KRUT,2026-04-13 10:56:00+00:00,2026-04-13 10:56:00+00:00,7.8,3.9,110.0,9.0,,10.0,1016.2556390000001,VFR,,,METAR KRUT 131056Z AUTO 11009KT 10SM CLR 08/04 A3001 RMK AO2 SLP157 T00780039
KRVF,2026-04-13 10:55:00+00:00,2026-04-13 10:55:00+00:00,2.0,-2.0,240.0,5.0,,10.0,1009.14422,VFR,,,METAR KRVF 131055Z AUTO 24005KT 10SM CLR 02/M02 A2980 RMK AO2
KRVJ,2026-04-13 10:55:00+00:00,2026-04-13 10:55:00+00:00,10.2,10.0,0.0,0.0,,1.25,1027.430726,LIFR,BR,"[{""cover"": ""OVC"", ""base_ft_agl"": 300.0}]",METAR KRVJ 131055Z AUTO 00000KT 1 1/4SM BR OVC003 10/10 A3034 RMK AO2 VIS 1/2V5 T01020100
KRVL,2026-04-13 10:55:00+00:00,2026-04-13 10:55:00+00:00,11.0,7.0,0.0,0.0,,10.0,1018.2874730000001,VFR,,,METAR KRVL 131055Z AUTO 00000KT 10SM CLR 11/07 A3007 RMK AO2
KRVS,2026-04-13 10:53:00+00:00,2026-04-13 10:53:00+00:00,22.2,18.9,180.0,12.0,20.0,10.0,1013.546527,MVFR,,"[{""cover"": ""OVC"", ""base_ft_agl"": 2300.0}]",METAR KRVS 131053Z AUTO 18012G20KT 10SM OVC023 22/19 A2993 RMK AO2 SLP137 T02220189
KRWF,2026-04-13 11:00:00+00:00,2026-04-13 11:00:00+00:00,9.4,9.4,300.0,6.0,,2.5,1006.7737470000001,LIFR,BR,"[{""cover"": ""OVC"", ""base_ft_agl"": 200.0}]",SPECI KRWF 131100Z AUTO 30006KT 2 1/2SM BR OVC002 09/09 A2973 RMK AO2 T00940094
KRWI,2026-04-13 10:53:00+00:00,2026-04-13 10:53:00+00:00,15.0,13.9,190.0,5.0,,9.0,1026.753448,VFR,,,METAR KRWI 131053Z AUTO 19005KT 9SM CLR 15/14 A3032 RMK AO2 SLP268 T01500139 $
KRWL,2026-04-13 10:53:00+00:00,2026-04-13 10:53:00+00:00,2.2,0.6,0.0,0.0,,10.0,1011.853332,VFR,,"[{""cover"": ""FEW"", ""base_ft_agl"": 8000.0}, {""cover"": ""SCT"", ""base_ft_agl"": 10000.0}]",METAR KRWL 131053Z AUTO 00000KT 10SM FEW080 SCT100 02/01 A2988 RMK AO2 RAE09 SLP071 P0000 T00220006
KRXE,2026-04-13 10:53:00+00:00,2026-04-13 10:53:00+00:00,3.9,-2.2,210.0,14.0,22.0,10.0,1012.1919710000001,VFR,,,METAR KRXE 131053Z AUTO 21014G22KT 10SM CLR 04/M02 A2989 RMK AO2 PK WND 21029/1019 SLP114 T00391022
KRYM,2026-04-13 10:55:00+00:00,2026-04-13 10:55:00+00:00,9.3,6.9,40.0,12.0,,10.0,1006.7737470000001,MVFR,,"[{""cover"": ""OVC"", ""base_ft_agl"": 1100.0}]",METAR KRYM 131055Z AUTO 04012KT 10SM OVC011 09/07 A2973 RMK AO2 SLP070 T00930069 $
KRYV,2026-04-13 10:55:00+00:00,2026-04-13 10:55:00+00:00,15.8,15.8,230.0,9.0,,10.0,1008.805581,MVFR,,"[{""cover"": ""BKN"", ""base_ft_agl"": 2300.0}]",METAR KRYV 131055Z AUTO 23009KT 10SM BKN023 16/16 A2979 RMK AO2 T01580158
KRYY,2026-04-13 10:50:00+00:00,2026-04-13 10:50:00+00:00,15.0,9.4,0.0,0.0,,10.0,1027.092087,VFR,,,METAR KRYY 131050Z 00000KT 10SM CLR 15/09 A3033 RMK AO2 SLP000 T01500094 $
KRZL,2026-04-13 10:55:00+00:00,2026-04-13 10:55:00+00:00,17.0,15.0,220.0,13.0,,10.0,1013.885166,VFR,,"[{""cover"": ""SCT"", ""base_ft_agl"": 2600.0}, {""cover"": ""SCT"", ""base_ft_agl"": 3400.0}, {""cover"": ""SCT"", ""base_ft_agl"": 4600.0}]",METAR KRZL 131055Z AUTO 22013KT 10SM SCT026 SCT034 SCT046 17/15 A2994 RMK AO2
KRZN,2026-04-13 10:55:00+00:00,2026-04-13 10:55:00+00:00,10.0,9.6,360.0,3.0,,10.0,1008.128303,MVFR,,"[{""cover"": ""OVC"", ""base_ft_agl"": 1600.0}]",METAR KRZN 131055Z AUTO 36003KT 10SM OVC016 10/10 A2977 RMK AO2 T01000096
KRZR,2026-04-13 10:55:00+00:00,2026-04-13 10:55:00+00:00,15.0,9.0,0.0,0.0,,10.0,1024.382975,VFR,,"[{""cover"": ""BKN"", ""base_ft_agl"": 12000.0}]",METAR KRZR 131055Z AUTO 00000KT 10SM BKN120 15/09 A3025 RMK A01
KRZT,2026-04-13 10:36:00+00:00,2026-04-13 10:36:00+00:00,22.0,8.0,230.0,14.0,,10.0,1018.2874730000001,VFR,,"[{""cover"": ""SCT"", ""base_ft_agl"": 6500.0}, {""cover"": ""OVC"", ""base_ft_agl"": 9000.0}]",METAR KRZT 131036Z AUTO 23014KT 10SM SCT065 OVC090 22/08 A3007 RMK AO2
KS21,2026-04-13 10:50:00+00:00,2026-04-13 10:50:00+00:00,3.0,1.0,190.0,11.0,,10.0,1014.223805,VFR,,"[{""cover"": ""FEW"", ""base_ft_agl"": 2700.0}, {""cover"": ""SCT"", ""base_ft_agl"": 7500.0}, {""cover"": ""BKN"", ""base_ft_agl"": 8500.0}]",METAR KS21 131050Z AUTO 19011KT 10SM FEW027 SCT075 BKN085 03/01 A2995 RMK AO2
KS24,2026-04-13 10:38:00+00:00,2026-04-13 10:38:00+00:00,20.0,14.0,240.0,18.0,27.0,10.0,1012.53061,VFR,,,METAR KS24 131038Z AUTO 24018G27KT 10SM CLR 20/14 A2990 RMK AO2
KS25,2026-04-13 10:55:00+00:00,2026-04-13 10:55:00+00:00,2.0,2.0,80.0,9.0,,10.0,1009.14422,IFR,UP,"[{""cover"": ""OVC"", ""base_ft_agl"": 500.0}]",METAR KS25 131055Z AUTO 08009KT 10SM UP OVC005 02/02 A2980 RMK AO2
KS31,2026-04-13 10:55:00+00:00,2026-04-13 10:55:00+00:00,9.9,5.2,0.0,4.0,,10.0,1011.5146930000001,VFR,,"[{""cover"": ""OVC"", ""base_ft_agl"": 4200.0}]",METAR KS31 131055Z AUTO VRB04KT 10SM OVC042 10/05 A2987 RMK AO2 T00990052
KS32,2026-04-13 10:55:00+00:00,2026-04-13 10:55:00+00:00,2.0,2.0,10.0,13.0,,10.0,1010.160137,VFR,,,METAR KS32 131055Z AUTO 01013KT 10SM 02/02 A2983 RMK AO2 TSNO
KS33,2026-04-13 10:55:00+00:00,2026-04-13 10:55:00+00:00,3.0,2.0,0.0,0.0,,10.0,1012.8692490000001,VFR,,"[{""cover"": ""SCT"", ""base_ft_agl"": 4700.0}, {""cover"": ""OVC"", ""base_ft_agl"": 12000.0}]",METAR KS33 131055Z AUTO 00000KT 10SM SCT047 OVC120 03/02 A2991 RMK AO2
KS34,2026-04-13 10:55:00+00:00,2026-04-13 10:55:00+00:00,7.0,7.0,50.0,4.0,,10.0,1006.435108,VFR,,"[{""cover"": ""FEW"", ""base_ft_agl"": 3700.0}, {""cover"": ""OVC"", ""base_ft_agl"": 5000.0}]",METAR KS34 131055Z AUTO 05004KT 10SM FEW037 OVC050 07/07 A2972 RMK AO2 P0003
KS39,2026-04-13 10:55:00+00:00,2026-04-13 10:55:00+00:00,6.0,2.0,260.0,9.0,15.0,10.0,1012.53061,VFR,,"[{""cover"": ""SCT"", ""base_ft_agl"": 5500.0}, {""cover"": ""BKN"", ""base_ft_agl"": 8000.0}, {""cover"": ""OVC"", ""base_ft_agl"": 9000.0}]",METAR KS39 131055Z AUTO 26009G15KT 10SM SCT055 BKN080 OVC090 06/02 A2990 RMK AO2
KS52,2026-04-13 10:55:00+00:00,2026-04-13 10:55:00+00:00,8.2,3.9,0.0,0.0,,10.0,1006.7737470000001,VFR,,"[{""cover"": ""SCT"", ""base_ft_agl"": 9500.0}]",METAR KS52 131055Z AUTO 00000KT 10SM SCT095 08/04 A2973 RMK AO2 T00820039
KSAA,2026-04-13 10:55:00+00:00,2026-04-13 10:55:00+00:00,1.0,-2.0,180.0,3.0,,10.0,1012.53061,VFR,,,METAR KSAA 131055Z AUTO 18003KT 10SM CLR 01/M02 A2990 RMK AO2
KSAC,2026-04-13 10:53:00+00:00,2026-04-13 10:53:00+00:00,10.6,9.4,340.0,3.0,,10.0,1018.2874730000001,MVFR,-RA,"[{""cover"": ""FEW"", ""base_ft_agl"": 1000.0}, {""cover"": ""BKN"", ""base_ft_agl"": 2300.0}, {""cover"": ""OVC"", ""base_ft_agl"": 3500.0}]",METAR KSAC 131053Z AUTO 34003KT 10SM -RA FEW010 BKN023 OVC035 11/09 A3007 RMK AO2 SLP180 P0000 T01060094
KSAD,2026-04-13 10:51:00+00:00,2026-04-13 10:51:00+00:00,13.9,1.7,160.0,6.0,,10.0,1015.917,VFR,,,METAR KSAD 131051Z AUTO 16006KT 10SM CLR 14/02 A3000 RMK AO2 SLP119 T01390017
KSAF,2026-04-13 10:53:00+00:00,2026-04-13 10:53:00+00:00,10.6,-5.6,0.0,0.0,,,1018.2874730000001,,,,METAR KSAF 131053Z AUTO 00000KT CLR 11/M06 A3007 RMK AO2 SLP101 T01061056 $
KSAN,2026-04-13 10:51:00+00:00,2026-04-13 10:51:00+00:00,16.1,11.1,290.0,4.0,,10.0,1016.9329170000001,VFR,,"[{""cover"": ""FEW"", ""base_ft_agl"": 2800.0}, {""cover"": ""SCT"", ""base_ft_agl"": 3800.0}, {""cover"": ""BKN"", ""base_ft_agl"": 6000.0}]",METAR KSAN 131051Z 29004KT 10SM FEW028 SCT038 BKN060 16/11 A3003 RMK AO2 SLP168 T01610111 $
KSAR,2026-04-13 10:55:00+00:00,2026-04-13 10:55:00+00:00,21.3,16.2,210.0,8.0,,10.0,1016.9329170000001,VFR,,"[{""cover"": ""BKN"", ""base_ft_agl"": 3300.0}, {""cover"": ""BKN"", ""base_ft_agl"": 3900.0}, {""cover"": ""OVC"", ""base_ft_agl"": 4700.0}]",METAR KSAR 131055Z AUTO 21008KT 10SM BKN033 BKN039 OVC047 21/16 A3003 RMK AO2 T02130162
KSAT,2026-04-13 10:51:00+00:00,2026-04-13 10:51:00+00:00,22.2,21.1,140.0,6.0,,8.0,1017.6101950000001,MVFR,,"[{""cover"": ""BKN"", ""base_ft_agl"": 1000.0}, {""cover"": ""OVC"", ""base_ft_agl"": 2500.0}]",METAR KSAT 131051Z 14006KT 8SM BKN010 OVC025 22/21 A3005 RMK AO2 RAE0957B13E23 SLP160 P0000 T02220211 $
KSAV,2026-04-13 10:53:00+00:00,2026-04-13 10:53:00+00:00,12.8,12.8,0.0,0.0,,1.0,1027.430726,IFR,BR,"[{""cover"": ""FEW"", ""base_ft_agl"": 200.0}, {""cover"": ""SCT"", ""base_ft_agl"": 25000.0}]",METAR KSAV 131053Z 00000KT 1SM R10/1400V4500FT BR FEW002 SCT250 13/13 A3034 RMK AO2 SLP273 VIS SE-SW 6 T01280128
KSAW,2026-04-13 10:47:00+00:00,2026-04-13 10:47:00+00:00,8.0,8.0,360.0,7.0,,1.0,1004.7419130000001,IFR,BR,"[{""cover"": ""OVC"", ""base_ft_agl"": 700.0}]",METAR KSAW 131047Z 36007KT 1SM BR OVC007 08/08 A2967
KSAZ,2026-04-13 10:55:00+00:00,2026-04-13 10:55:00+00:00,9.0,7.0,20.0,6.0,,10.0,1008.128303,IFR,,"[{""cover"": ""OVC"", ""base_ft_agl"": 800.0}]",METAR KSAZ 131055Z AUTO 02006KT 10SM OVC008 09/07 A2977 RMK AO2
KSBA,2026-04-13 10:53:00+00:00,2026-04-13 10:53:00+00:00,8.3,6.1,330.0,3.0,,10.0,1016.2556390000001,VFR,,,METAR KSBA 131053Z AUTO 33003KT 10SM CLR 08/06 A3001 RMK AO2 SLP162 T00830061 $
KSBD,2026-04-13 11:00:00+00:00,2026-04-13 11:00:00+00:00,11.2,6.5,0.0,0.0,,10.0,1016.9329170000001,VFR,,"[{""cover"": ""OVC"", ""base_ft_agl"": 6500.0}]",METAR KSBD 131100Z AUTO 00000KT 10SM OVC065 11/07 A3003 RMK AO2 T01120065
KSBM,2026-04-13 10:53:00+00:00,2026-04-13 10:53:00+00:00,16.1,14.4,240.0,12.0,,10.0,1007.112386,MVFR,,"[{""cover"": ""OVC"", ""base_ft_agl"": 3000.0}]",METAR KSBM 131053Z AUTO 24012KT 10SM OVC030 16/14 A2974 RMK AO2 SLP070 T01610144
KSBN,2026-04-13 10:54:00+00:00,2026-04-13 10:54:00+00:00,17.2,15.0,230.0,11.0,,10.0,1012.53061,MVFR,,"[{""cover"": ""OVC"", ""base_ft_agl"": 2000.0}]",METAR KSBN 131054Z 23011KT 10SM OVC020 17/15 A2990 RMK AO2 SLP120 T01720150 PNO $
KSBP,2026-04-13 11:04:00+00:00,2026-04-13 11:04:00+00:00,7.8,6.7,120.0,3.0,,10.0,1017.6101950000001,VFR,,"[{""cover"": ""SCT"", ""base_ft_agl"": 2800.0}]",SPECI KSBP 131104Z AUTO 12003KT 10SM SCT028 08/07 A3005 RMK AO2 T00780067
KSBS,2026-04-13 10:55:00+00:00,2026-04-13 10:55:00+00:00,5.9,-2.6,150.0,3.0,,10.0,1012.8692490000001,VFR,,"[{""cover"": ""OVC"", ""base_ft_agl"": 8000.0}]",METAR KSBS 131055Z AUTO 15003KT 10SM OVC080 06/M03 A2991 RMK AO1 T00591026
KSBX,2026-04-13 10:55:00+00:00,2026-04-13 10:55:00+00:00,3.0,3.0,0.0,0.0,,10.0,1007.112386,VFR,,"[{""cover"": ""OVC"", ""base_ft_agl"": 3200.0}]",METAR KSBX 131055Z AUTO 00000KT 10SM OVC032 03/03 A2974 RMK AO2
KSBY,2026-04-13 10:54:00+00:00,2026-04-13 10:54:00+00:00,16.7,13.9,200.0,12.0,23.0,10.0,1023.7056970000001,VFR,,,METAR KSBY 131054Z 20012G23KT 10SM CLR 17/14 A3023 RMK AO2 SLP240 T01670139
KSCD,2026-04-13 10:55:00+00:00,2026-04-13 10:55:00+00:00,11.7,11.3,0.0,0.0,,10.0,1026.07617,VFR,,,METAR KSCD 131055Z AUTO 00000KT 10SM CLR 12/11 A3030 RMK AO2 T01170113
KSCK,2026-04-13 11:04:00+00:00,2026-04-13 11:04:00+00:00,11.1,11.1,310.0,3.0,,7.0,1017.6101950000001,VFR,-RA,"[{""cover"": ""SCT"", ""base_ft_agl"": 1200.0}, {""cover"": ""BKN"", ""base_ft_agl"": 3200.0}, {""cover"": ""OVC"", ""base_ft_agl"": 4200.0}]",SPECI KSCK 131104Z AUTO 31003KT 7SM -RA SCT012 BKN032 OVC042 11/11 A3005 RMK AO2 RAB1059 P0000 T01110111 $
KSCR,2026-04-13 10:55:00+00:00,2026-04-13 10:55:00+00:00,15.7,13.8,0.0,0.0,,10.0,1027.430726,VFR,,,METAR KSCR 131055Z AUTO 00000KT 10SM CLR 16/14 A3034 RMK AO2 T01570138
KSDA,2026-04-13 10:55:00+00:00,2026-04-13 10:55:00+00:00,19.0,19.0,170.0,5.0,11.0,10.0,1006.0964690000001,MVFR,,"[{""cover"": ""OVC"", ""base_ft_agl"": 1700.0}]",METAR KSDA 131055Z AUTO 17005G11KT 10SM OVC017 19/19 A2971 RMK AO2
KSDB,2026-04-13 11:05:00+00:00,2026-04-13 11:05:00+00:00,3.3,2.8,0.0,0.0,,4.0,1015.917,MVFR,BR,"[{""cover"": ""SCT"", ""base_ft_agl"": 400.0}, {""cover"": ""OVC"", ""base_ft_agl"": 1800.0}]",SPECI KSDB 131105Z AUTO 00000KT 4SM BR SCT004 OVC018 03/03 A3000 RMK AO2 T00330028 
KSDC,2026-04-13 10:55:00+00:00,2026-04-13 10:55:00+00:00,15.0,6.0,180.0,5.0,,10.0,1011.853332,VFR,,"[{""cover"": ""SCT"", ""base_ft_agl"": 12000.0}]",METAR KSDC 131055Z AUTO 18005KT 10SM SCT120 15/06 A2988 RMK AO2
KSDF,2026-04-13 10:56:00+00:00,2026-04-13 10:56:00+00:00,22.8,11.7,230.0,12.0,20.0,10.0,1018.6261119999999,VFR,,,METAR KSDF 131056Z 23012G20KT 10SM CLR 23/12 A3008 RMK AO2 SLP182 T02280117
KSDL,2026-04-13 10:53:00+00:00,2026-04-13 10:53:00+00:00,17.8,7.2,0.0,0.0,,10.0,1014.562444,VFR,,,METAR KSDL 131053Z AUTO 00000KT 10SM CLR 18/07 A2996 RMK AO2 SLP126 T01780072
KSDM,2026-04-13 10:53:00+00:00,2026-04-13 10:53:00+00:00,14.4,11.1,300.0,3.0,,10.0,1016.2556390000001,MVFR,,"[{""cover"": ""FEW"", ""base_ft_agl"": 2200.0}, {""cover"": ""BKN"", ""base_ft_agl"": 2900.0}, {""cover"": ""OVC"", ""base_ft_agl"": 3700.0}]",METAR KSDM 131053Z AUTO 30003KT 10SM FEW022 BKN029 OVC037 14/11 A3001 RMK AO2 SLP162 T01440111
KSDY,2026-04-13 10:56:00+00:00,2026-04-13 10:56:00+00:00,4.4,3.9,50.0,6.0,,7.0,1008.466942,MVFR,,"[{""cover"": ""FEW"", ""base_ft_agl"": 900.0}, {""cover"": ""OVC"", ""base_ft_agl"": 1300.0}]",METAR KSDY 131056Z AUTO 05006KT 7SM FEW009 OVC013 04/04 A2978 RMK AO2 RAE43 SLP091 P0000 T00440039 $
KSEA,2026-04-13 10:53:00+00:00,2026-04-13 10:53:00+00:00,8.9,6.7,200.0,12.0,20.0,10.0,1013.2078880000001,MVFR,-RA,"[{""cover"": ""OVC"", ""base_ft_agl"": 1500.0}]",METAR KSEA 131053Z 20012G20KT 10SM -RA OVC015 09/07 A2992 RMK AO2 RAB13E22B50 SLP138 PCPN VRY LGT P0000 T00890067
KSEE,2026-04-13 10:55:00+00:00,2026-04-13 10:55:00+00:00,15.0,12.0,290.0,3.0,,10.0,1016.2556390000001,VFR,,"[{""cover"": ""SCT"", ""base_ft_agl"": 3600.0}, {""cover"": ""BKN"", ""base_ft_agl"": 5500.0}, {""cover"": ""OVC"", ""base_ft_agl"": 8000.0}]",METAR KSEE 131055Z AUTO 29003KT 10SM SCT036 BKN055 OVC080 15/12 A3001 RMK AO2
KSEF,2026-04-13 10:55:00+00:00,2026-04-13 10:55:00+00:00,15.0,13.0,70.0,5.0,,10.0,1025.3988920000002,VFR,,,METAR KSEF 131055Z AUTO 07005KT 10SM CLR 15/13 A3028 RMK AO2
KSEG,2026-04-13 10:53:00+00:00,2026-04-13 10:53:00+00:00,12.2,8.9,220.0,4.0,,10.0,1019.30339,VFR,,,METAR KSEG 131053Z AUTO 22004KT 10SM CLR 12/09 A3010 RMK AO2 SLP191 T01220089
KSEM,2026-04-13 10:50:00+00:00,2026-04-13 10:50:00+00:00,12.0,12.0,0.0,0.0,,10.0,1025.060253,VFR,,,METAR KSEM 131050Z AUTO 00000KT 10SM CLR 12/12 A3027 RMK AO2
KSEP,2026-04-13 10:55:00+00:00,2026-04-13 10:55:00+00:00,21.5,19.0,190.0,7.0,,10.0,1017.6101950000001,MVFR,,"[{""cover"": ""OVC"", ""base_ft_agl"": 2600.0}]",METAR KSEP 131055Z AUTO 19007KT 10SM OVC026 22/19 A3005 RMK AO2 T02150190
KSEQ,2026-04-13 10:35:00+00:00,2026-04-13 10:35:00+00:00,23.0,22.0,160.0,7.0,,9.0,1016.2556390000001,MVFR,,"[{""cover"": ""FEW"", ""base_ft_agl"": 1000.0}, {""cover"": ""SCT"", ""base_ft_agl"": 1700.0}, {""cover"": ""OVC"", ""base_ft_agl"": 2600.0}]",SPECI KSEQ 131035Z AUTO 16007KT 9SM FEW010 SCT017 OVC026 23/22 A3001 RMK AO2 CIG 021V028 OVC V BKN SLP159
KSET,2026-04-13 10:54:00+00:00,2026-04-13 10:54:00+00:00,18.3,15.0,170.0,5.0,,10.0,1014.223805,VFR,,"[{""cover"": ""FEW"", ""base_ft_agl"": 4000.0}]",METAR KSET 131054Z AUTO 17005KT 10SM FEW040 18/15 A2995 RMK AO2 SLP138 T01830150
KSEZ,2026-04-13 10:55:00+00:00,2026-04-13 10:55:00+00:00,10.0,2.0,170.0,8.0,,10.0,1017.271556,VFR,,,METAR KSEZ 131055Z AUTO 17008KT 10SM CLR 10/02 A3004 RMK AO2
KSFB,2026-04-13 10:53:00+00:00,2026-04-13 10:53:00+00:00,14.4,13.3,40.0,3.0,,10.0,1025.3988920000002,VFR,,"[{""cover"": ""SCT"", ""base_ft_agl"": 3500.0}]",METAR KSFB 131053Z 04003KT 10SM SCT035 14/13 A3028 RMK AO2 SLP253 T01440133
KSFF,2026-04-13 10:53:00+00:00,2026-04-13 10:53:00+00:00,10.0,7.8,0.0,0.0,,10.0,1006.435108,MVFR,,"[{""cover"": ""OVC"", ""base_ft_agl"": 1100.0}]",METAR KSFF 131053Z AUTO 00000KT 10SM OVC011 10/08 A2972 RMK AO2 SLP057 T01000078
KSFM,2026-04-13 10:56:00+00:00,2026-04-13 10:56:00+00:00,6.1,5.6,0.0,4.0,,9.0,1019.642029,IFR,,"[{""cover"": ""OVC"", ""base_ft_agl"": 500.0}]",METAR KSFM 131056Z AUTO VRB04KT 9SM OVC005 06/06 A3011 RMK AO2 RAE30 SLP201 P0000 T00610056
KSFO,2026-04-13 10:56:00+00:00,2026-04-13 10:56:00+00:00,10.6,9.4,270.0,3.0,,10.0,1017.6101950000001,VFR,,"[{""cover"": ""FEW"", ""base_ft_agl"": 700.0}, {""cover"": ""SCT"", ""base_ft_agl"": 4500.0}, {""cover"": ""BKN"", ""base_ft_agl"": 18000.0}]",METAR KSFO 131056Z 27003KT 10SM FEW007 SCT045 BKN180 11/09 A3005 RMK AO2 SLP175 T01060094 $
KSFQ,2026-04-13 10:55:00+00:00,2026-04-13 10:55:00+00:00,15.8,14.5,0.0,0.0,,10.0,1026.753448,VFR,,,METAR KSFQ 131055Z AUTO 00000KT 10SM CLR 16/15 A3032 RMK AO2 T01580145
KSFY,2026-04-13 10:55:00+00:00,2026-04-13 10:55:00+00:00,17.8,16.2,220.0,4.0,,10.0,1010.8374150000001,MVFR,,"[{""cover"": ""OVC"", ""base_ft_agl"": 1000.0}]",METAR KSFY 131055Z AUTO 22004KT 10SM OVC010 18/16 A2985 RMK AO2 T01780162
KSFZ,2026-04-13 10:56:00+00:00,2026-04-13 10:56:00+00:00,9.4,6.1,210.0,8.0,,10.0,1021.6738630000001,MVFR,,"[{""cover"": ""OVC"", ""base_ft_agl"": 1700.0}]",METAR KSFZ 131056Z AUTO 21008KT 10SM OVC017 09/06 A3017 RMK AO2 SLP217 T00940061 $
KSGF,2026-04-13 10:52:00+00:00,2026-04-13 10:52:00+00:00,20.6,16.7,200.0,17.0,,10.0,1014.562444,MVFR,,"[{""cover"": ""OVC"", ""base_ft_agl"": 2400.0}]",METAR KSGF 131052Z 20017KT 10SM OVC024 21/17 A2996 RMK AO2 PK WND 20028/1039 SLP136 T02060167
KSGH,2026-04-13 10:56:00+00:00,2026-04-13 10:56:00+00:00,20.0,11.7,230.0,12.0,,10.0,1017.271556,VFR,,"[{""cover"": ""SCT"", ""base_ft_agl"": 4400.0}, {""cover"": ""BKN"", ""base_ft_agl"": 9000.0}]",METAR KSGH 131056Z AUTO 23012KT 10SM SCT044 BKN090 20/12 A3004 RMK AO2 PK WND 25030/1007 SLP166 T02000117
KSGJ,2026-04-13 10:56:00+00:00,2026-04-13 10:56:00+00:00,15.0,13.3,0.0,0.0,,10.0,1026.4148089999999,VFR,,"[{""cover"": ""BKN"", ""base_ft_agl"": 3300.0}]",METAR KSGJ 131056Z 00000KT 10SM BKN033 15/13 A3031 RMK AO2 SLP265 T01500133 $
KSGR,2026-04-13 10:53:00+00:00,2026-04-13 10:53:00+00:00,22.2,21.1,150.0,6.0,,10.0,1018.964751,MVFR,,"[{""cover"": ""BKN"", ""base_ft_agl"": 1800.0}, {""cover"": ""OVC"", ""base_ft_agl"": 2800.0}]",METAR KSGR 131053Z 15006KT 10SM BKN018 OVC028 22/21 A3009 RMK AO2 SLP189 T02220211 $
KSGS,2026-04-13 10:55:00+00:00,2026-04-13 10:55:00+00:00,10.2,9.4,0.0,0.0,,7.0,1006.7737470000001,VFR,,,METAR KSGS 131055Z AUTO 00000KT 7SM CLR 10/09 A2973 RMK AO2 T01020094
KSGT,2026-04-13 10:56:00+00:00,2026-04-13 10:56:00+00:00,21.1,16.7,180.0,7.0,,10.0,1019.980668,VFR,,"[{""cover"": ""SCT"", ""base_ft_agl"": 2900.0}]",METAR KSGT 131056Z AUTO 18007KT 10SM SCT029 21/17 A3012 RMK AO2 SLP200 T02110167 $
KSGU,2026-04-13 10:56:00+00:00,2026-04-13 10:56:00+00:00,13.9,1.1,160.0,6.0,,10.0,1013.2078880000001,VFR,,"[{""cover"": ""BKN"", ""base_ft_agl"": 7000.0}]",METAR KSGU 131056Z AUTO 16006KT 10SM BKN070 14/01 A2992 RMK AO2 SLP111 T01390011
KSHD,2026-04-13 10:55:00+00:00,2026-04-13 10:55:00+00:00,18.0,9.6,170.0,6.0,,10.0,1023.367058,VFR,,,METAR KSHD 131055Z AUTO 17006KT 10SM CLR 18/10 A3022 RMK AO2 T01800096
KSHL,2026-04-13 10:55:00+00:00,2026-04-13 10:55:00+00:00,8.0,8.0,90.0,6.0,,0.25,1005.75783,LIFR,FG,"[{""cover"": ""OVC"", ""base_ft_agl"": 100.0}]",METAR KSHL 131055Z AUTO 09006KT M1/4SM FG OVC001 08/08 A2970 RMK AO2
KSHN,2026-04-13 10:53:00+00:00,2026-04-13 10:53:00+00:00,7.2,5.6,230.0,14.0,,10.0,1012.53061,VFR,,"[{""cover"": ""SCT"", ""base_ft_agl"": 9500.0}]",METAR KSHN 131053Z AUTO 23014KT 10SM SCT095 07/06 A2990 RMK AO2 SLP127 T00720056
KSHR,2026-04-13 10:53:00+00:00,2026-04-13 10:53:00+00:00,3.9,1.7,0.0,0.0,,10.0,1005.75783,VFR,,,METAR KSHR 131053Z AUTO 00000KT 10SM CLR 04/02 A2970 RMK AO2 SLP048 T00390017
KSHV,2026-04-13 10:56:00+00:00,2026-04-13 10:56:00+00:00,21.0,18.0,200.0,9.0,,10.0,1019.642029,MVFR,,"[{""cover"": ""OVC"", ""base_ft_agl"": 1300.0}]",METAR KSHV 131056Z 20009KT 10SM OVC013 21/18 A3011 RMK SLPNO
KSIF,2026-04-13 10:55:00+00:00,2026-04-13 10:55:00+00:00,17.1,11.1,200.0,8.0,,10.0,1026.07617,VFR,,,METAR KSIF 131055Z AUTO 20008KT 10SM CLR 17/11 A3030 RMK AO2 T01710111
KSIK,2026-04-13 10:55:00+00:00,2026-04-13 10:55:00+00:00,21.7,14.1,200.0,6.0,,8.0,1018.2874730000001,VFR,,,METAR KSIK 131055Z AUTO 20006KT 8SM 22/14 A3007 RMK AO2 T02170141 $
KSIY,2026-04-13 10:53:00+00:00,2026-04-13 10:53:00+00:00,5.0,3.3,0.0,0.0,,10.0,1017.271556,VFR,,"[{""cover"": ""OVC"", ""base_ft_agl"": 3900.0}]",METAR KSIY 131053Z AUTO 00000KT 10SM OVC039 05/03 A3004 RMK AO2 SLP183 T00500033
KSJC,2026-04-13 10:53:00+00:00,2026-04-13 10:53:00+00:00,11.1,9.4,100.0,3.0,,10.0,1017.948834,VFR,,"[{""cover"": ""OVC"", ""base_ft_agl"": 3900.0}]",METAR KSJC 131053Z AUTO 10003KT 10SM OVC039 11/09 A3006 RMK AO2 RAB19E31 SLP177 P0000 T01110094 $
KSJN,2026-04-13 10:54:00+00:00,2026-04-13 10:54:00+00:00,6.1,1.1,230.0,3.0,,10.0,1018.2874730000001,VFR,,,METAR KSJN 131054Z AUTO 23003KT 10SM CLR 06/01 A3007 RMK AO2 SLP125 T00610011
KSJS,2026-04-13 10:55:00+00:00,2026-04-13 10:55:00+00:00,22.0,5.2,250.0,8.0,,10.0,1022.3511410000001,VFR,,"[{""cover"": ""OVC"", ""base_ft_agl"": 10000.0}]",METAR KSJS 131055Z AUTO 25008KT 10SM OVC100 22/05 A3019 RMK AO2 T02200052
KSJT,2026-04-13 10:51:00+00:00,2026-04-13 10:51:00+00:00,21.1,18.9,190.0,9.0,,10.0,1016.2556390000001,VFR,,,METAR KSJT 131051Z AUTO 19009KT 10SM CLR 21/19 A3001 RMK AO2 SLP140 T02110189
KSJX,2026-04-13 10:55:00+00:00,2026-04-13 10:55:00+00:00,5.0,4.0,260.0,8.0,,0.25,1004.7419130000001,LIFR,FG,"[{""cover"": ""OVX"", ""base_ft_agl"": 200.0}]",METAR KSJX 131055Z AUTO 26008KT 1/4SM FG VV002 05/04 A2967 RMK AO2
KSKA,2026-04-13 10:29:00+00:00,2026-04-13 10:29:00+00:00,9.0,8.0,250.0,5.0,,3.0,1005.4191910000001,MVFR,-RA BR,"[{""cover"": ""SCT"", ""base_ft_agl"": 300.0}, {""cover"": ""BKN"", ""base_ft_agl"": 1100.0}, {""cover"": ""OVC"", ""base_ft_agl"": 3200.0}]",SPECI KSKA 131029Z 25005KT 3SM -RA BR SCT003 BKN011 OVC032 09/08 A2969 RMK AO2A RAB0959 CIG 005 RWY05 SLP049 $
KSKF,2026-04-13 10:55:00+00:00,2026-04-13 10:55:00+00:00,23.0,20.7,160.0,6.0,,8.0,1016.2556390000001,MVFR,,"[{""cover"": ""BKN"", ""base_ft_agl"": 1400.0}, {""cover"": ""OVC"", ""base_ft_agl"": 2200.0}]",METAR KSKF 131055Z AUTO 16006KT 8SM BKN014 OVC022 23/21 A3001 RMK AO2 CIG 011 RWY34 SLP156 T02300207 $
KSLB,2026-04-13 10:55:00+00:00,2026-04-13 10:55:00+00:00,14.0,14.0,170.0,6.0,,0.75,1006.7737470000001,LIFR,BR,"[{""cover"": ""OVX"", ""base_ft_agl"": 500.0}]",METAR KSLB 131055Z AUTO 17006KT 3/4SM BR VV005 14/14 A2973 RMK AO2
KSLC,2026-04-13 10:54:00+00:00,2026-04-13 10:54:00+00:00,3.3,2.2,140.0,3.0,,10.0,1015.578361,VFR,,,METAR KSLC 131054Z 14003KT 10SM CLR 03/02 A2999 RMK AO2 SLP136 T00330022 $
KSLE,2026-04-13 10:56:00+00:00,2026-04-13 10:56:00+00:00,8.9,7.8,220.0,4.0,,8.0,1016.594278,MVFR,-RA,"[{""cover"": ""SCT"", ""base_ft_agl"": 1600.0}, {""cover"": ""BKN"", ""base_ft_agl"": 2200.0}, {""cover"": ""OVC"", ""base_ft_agl"": 3600.0}]",METAR KSLE 131056Z AUTO 22004KT 8SM -RA SCT016 BKN022 OVC036 09/08 A3002 RMK AO2 RAB24E40B52 SLP167 P0001 T00890078
KSLG,2026-04-13 10:56:00+00:00,2026-04-13 10:56:00+00:00,20.6,18.9,190.0,13.0,22.0,10.0,1016.2556390000001,MVFR,,"[{""cover"": ""OVC"", ""base_ft_agl"": 1900.0}]",METAR KSLG 131056Z AUTO 19013G22KT 10SM OVC019 21/19 A3001 RMK AO2 SLP151 T02060189
KSLH,2026-04-13 10:55:00+00:00,2026-04-13 10:55:00+00:00,16.0,13.0,250.0,12.0,18.0,10.0,1002.7100790000001,MVFR,,"[{""cover"": ""FEW"", ""base_ft_agl"": 1500.0}, {""cover"": ""BKN"", ""base_ft_agl"": 2200.0}, {""cover"": ""OVC"", ""base_ft_agl"": 2700.0}]",METAR KSLH 131055Z AUTO 25012G18KT 10SM FEW015 BKN022 OVC027 16/13 A2961 RMK AO2
KSLI,2026-04-13 10:55:00+00:00,2026-04-13 10:55:00+00:00,14.5,10.5,340.0,3.0,,7.0,1015.239722,VFR,,"[{""cover"": ""SCT"", ""base_ft_agl"": 3300.0}, {""cover"": ""SCT"", ""base_ft_agl"": 4100.0}, {""cover"": ""BKN"", ""base_ft_agl"": 5000.0}, {""cover"": ""OVC"", ""base_ft_agl"": 6500.0}]",METAR KSLI 131055Z AUTO 34003KT 7SM SCT033 SCT041 BKN050 OVC065 15/11 A2998 RMK AO2 SLP155 T01450105
KSLK,2026-04-13 10:51:00+00:00,2026-04-13 10:51:00+00:00,10.6,5.0,220.0,11.0,20.0,10.0,1011.5146930000001,VFR,,"[{""cover"": ""SCT"", ""base_ft_agl"": 7000.0}, {""cover"": ""BKN"", ""base_ft_agl"": 8500.0}, {""cover"": ""OVC"", ""base_ft_agl"": 11000.0}]",METAR KSLK 131051Z AUTO 22011G20KT 10SM SCT070 BKN085 OVC110 11/05 A2987 RMK AO2 SLP125 T01060050
KSLN,2026-04-13 10:53:00+00:00,2026-04-13 10:53:00+00:00,20.0,18.3,190.0,20.0,27.0,10.0,1006.435108,VFR,,,METAR KSLN 131053Z AUTO 19020G27KT 10SM CLR 20/18 A2972 RMK AO2 PK WND 20027/1002 SLP051 T02000183
KSLO,2026-04-13 10:55:00+00:00,2026-04-13 10:55:00+00:00,20.7,15.5,190.0,6.0,,10.0,1016.594278,VFR,,,METAR KSLO 131055Z AUTO 19006KT 10SM CLR 21/16 A3002 RMK AO2 T02070155
KSLR,2026-04-13 10:55:00+00:00,2026-04-13 10:55:00+00:00,18.7,18.4,200.0,6.0,,10.0,1018.2874730000001,VFR,,,METAR KSLR 131055Z AUTO 20006KT 10SM CLR 19/18 A3007 RMK AO2 T01870184 PWINO
KSMD,2026-04-13 10:55:00+00:00,2026-04-13 10:55:00+00:00,19.0,15.0,240.0,12.0,,10.0,1013.546527,MVFR,,"[{""cover"": ""OVC"", ""base_ft_agl"": 3000.0}]",METAR KSMD 131055Z AUTO 24012KT 10SM OVC030 19/15 A2993 RMK A01
KSME,2026-04-13 10:55:00+00:00,2026-04-13 10:55:00+00:00,20.0,11.0,0.0,6.0,,10.0,1022.012502,VFR,,"[{""cover"": ""FEW"", ""base_ft_agl"": 6000.0}, {""cover"": ""BKN"", ""base_ft_agl"": 7500.0}, {""cover"": ""OVC"", ""base_ft_agl"": 11000.0}]",METAR KSME 131055Z AUTO VRB06KT 10SM FEW060 BKN075 OVC110 20/11 A3018 RMK AO2
KSMF,2026-04-13 10:53:00+00:00,2026-04-13 10:53:00+00:00,8.9,8.3,290.0,4.0,,3.0,1017.948834,LIFR,BR,"[{""cover"": ""OVC"", ""base_ft_agl"": 400.0}]",METAR KSMF 131053Z 29004KT 3SM BR OVC004 09/08 A3006 RMK AO2 SFC VIS 6 SLP178 T00890083 $
KSMN,2026-04-13 10:56:00+00:00,2026-04-13 10:56:00+00:00,0.6,-0.6,340.0,3.0,,10.0,1009.821498,VFR,,"[{""cover"": ""OVC"", ""base_ft_agl"": 8500.0}]",METAR KSMN 131056Z AUTO 34003KT 10SM OVC085 01/M01 A2982 RMK AO2 SLP107 T00061006 FZRANO
KSMO,2026-04-13 10:51:00+00:00,2026-04-13 10:51:00+00:00,13.3,8.9,0.0,0.0,,10.0,1016.594278,VFR,,"[{""cover"": ""OVC"", ""base_ft_agl"": 7500.0}]",METAR KSMO 131051Z AUTO 00000KT 10SM OVC075 13/09 A3002 RMK AO2 SLP165 T01330089 $
KSMP,2026-04-13 10:56:00+00:00,2026-04-13 10:56:00+00:00,1.1,1.1,0.0,5.0,22.0,2.0,1010.498776,LIFR,-RA BR,"[{""cover"": ""BKN"", ""base_ft_agl"": 300.0}, {""cover"": ""OVC"", ""base_ft_agl"": 700.0}]",METAR KSMP 131056Z AUTO VRB05G22KT 2SM -RA BR BKN003 OVC007 01/01 A2984 RMK AO2 VIS 1V2 1/2 RAE04B37 SLP753 P0000 T00110011 $
KSMQ,2026-04-13 10:53:00+00:00,2026-04-13 10:53:00+00:00,7.8,5.0,0.0,0.0,,10.0,1020.996585,MVFR,,"[{""cover"": ""OVC"", ""base_ft_agl"": 1800.0}]",METAR KSMQ 131053Z AUTO 00000KT 10SM OVC018 08/05 A3015 RMK AO2 SLP209 T00780050
KSMS,2026-04-13 10:55:00+00:00,2026-04-13 10:55:00+00:00,10.0,10.0,0.0,0.0,,0.5,1027.430726,LIFR,FG,"[{""cover"": ""OVX"", ""base_ft_agl"": 500.0}]",METAR KSMS 131055Z AUTO 00000KT 1/2SM FG VV005 10/10 A3034 RMK AO2
KSMX,2026-04-13 10:51:00+00:00,2026-04-13 10:51:00+00:00,7.8,6.7,0.0,0.0,,10.0,1017.6101950000001,VFR,,"[{""cover"": ""FEW"", ""base_ft_agl"": 2200.0}]",METAR KSMX 131051Z AUTO 00000KT 10SM FEW022 08/07 A3005 RMK AO2 SLP180 T00780067
KSNA,2026-04-13 10:53:00+00:00,2026-04-13 10:53:00+00:00,13.9,10.0,90.0,4.0,,10.0,1016.594278,VFR,,"[{""cover"": ""BKN"", ""base_ft_agl"": 7500.0}]",METAR KSNA 131053Z AUTO 09004KT 10SM BKN075 14/10 A3002 RMK AO2 SLP164 T01390100 $
KSNC,2026-04-13 10:55:00+00:00,2026-04-13 10:55:00+00:00,10.0,8.0,0.0,5.0,12.0,9.0,1022.012502,MVFR,,"[{""cover"": ""OVC"", ""base_ft_agl"": 1200.0}]",METAR KSNC 131055Z AUTO VRB05G12KT 9SM OVC012 10/08 A3018 RMK AO2
KSNH,2026-04-13 10:55:00+00:00,2026-04-13 10:55:00+00:00,20.0,15.0,180.0,8.0,13.0,10.0,1021.6738630000001,VFR,,"[{""cover"": ""FEW"", ""base_ft_agl"": 6000.0}, {""cover"": ""BKN"", ""base_ft_agl"": 8000.0}, {""cover"": ""OVC"", ""base_ft_agl"": 11000.0}]",METAR KSNH 131055Z AUTO 18008G13KT 10SM FEW060 BKN080 OVC110 20/15 A3017 RMK A01
KSNK,2026-04-13 10:55:00+00:00,2026-04-13 10:55:00+00:00,20.5,19.7,200.0,12.0,20.0,10.0,1016.594278,MVFR,,"[{""cover"": ""OVC"", ""base_ft_agl"": 1300.0}]",METAR KSNK 131055Z AUTO 20012G20KT 10SM OVC013 21/20 A3002 RMK AO2 T02050197
KSNL,2026-04-13 10:55:00+00:00,2026-04-13 10:55:00+00:00,20.6,19.3,200.0,13.0,,10.0,1014.223805,MVFR,,"[{""cover"": ""BKN"", ""base_ft_agl"": 1600.0}]",METAR KSNL 131055Z AUTO 20013KT 10SM BKN016 21/19 A2995 RMK AO2 T02060193 TSNO
KSNS,2026-04-13 10:53:00+00:00,2026-04-13 10:53:00+00:00,8.3,7.2,0.0,0.0,,10.0,1017.948834,VFR,,"[{""cover"": ""SCT"", ""base_ft_agl"": 2800.0}]",METAR KSNS 131053Z 00000KT 10SM SCT028 08/07 A3006 RMK AO2 SLP187 T00830072
KSNT,2026-04-13 10:51:00+00:00,2026-04-13 10:51:00+00:00,-1.1,-3.3,140.0,9.0,23.0,,1009.821498,,,,METAR KSNT 131051Z AUTO 14009G23KT M01/M03 A2982 RMK AO1 SLP068 T10111033
KSNY,2026-04-13 10:53:00+00:00,2026-04-13 10:53:00+00:00,8.3,-7.8,300.0,10.0,,10.0,1007.112386,VFR,,,METAR KSNY 131053Z AUTO 30010KT 10SM CLR 08/M08 A2974 RMK AO2 SLP031 T00831078
KSOA,2026-04-13 10:55:00+00:00,2026-04-13 10:55:00+00:00,22.0,20.0,170.0,6.0,,10.0,1018.964751,MVFR,,"[{""cover"": ""OVC"", ""base_ft_agl"": 1400.0}]",METAR KSOA 131055Z AUTO 17006KT 10SM OVC014 22/20 A3009 RMK AO2
KSOP,2026-04-13 10:56:00+00:00,2026-04-13 10:56:00+00:00,15.6,15.0,220.0,7.0,,10.0,1027.430726,VFR,,,METAR KSOP 131056Z AUTO 22007KT 10SM 16/15 A3034 RMK AO2 SLP278 T01560150 PNO $
KSOW,2026-04-13 10:55:00+00:00,2026-04-13 10:55:00+00:00,7.0,2.0,190.0,17.0,,10.0,1018.6261119999999,VFR,,,METAR KSOW 131055Z AUTO 19017KT 10SM CLR 07/02 A3008 RMK AO2
KSPA,2026-04-13 10:55:00+00:00,2026-04-13 10:55:00+00:00,15.0,10.0,240.0,4.0,,10.0,1027.092087,MVFR,,"[{""cover"": ""BKN"", ""base_ft_agl"": 2000.0}]",METAR KSPA 131055Z AUTO 24004KT 10SM BKN020 15/10 A3033 RMK AO2
KSPB,2026-04-13 10:53:00+00:00,2026-04-13 10:53:00+00:00,8.9,7.8,0.0,0.0,,10.0,1015.578361,VFR,,"[{""cover"": ""OVC"", ""base_ft_agl"": 5500.0}]",METAR KSPB 131053Z AUTO 00000KT 10SM OVC055 09/08 A2999 RMK AO2 SLP156 T00890078 $
KSPD,2026-04-13 10:56:00+00:00,2026-04-13 10:56:00+00:00,10.6,-7.2,240.0,10.0,,,1010.498776,,,,METAR KSPD 131056Z AUTO 24010KT 11/M07 A2984 RMK AO1 SLP050 T01061072
KSPF,2026-04-13 10:55:00+00:00,2026-04-13 10:55:00+00:00,6.0,5.0,240.0,3.0,,10.0,1007.7896640000001,VFR,,"[{""cover"": ""OVC"", ""base_ft_agl"": 11000.0}]",METAR KSPF 131055Z AUTO 24003KT 10SM OVC110 06/05 A2976 RMK AO2
KSPG,2026-04-13 10:53:00+00:00,2026-04-13 10:53:00+00:00,21.1,15.6,110.0,11.0,,10.0,1024.382975,VFR,,,METAR KSPG 131053Z 11011KT 10SM CLR 21/16 A3025 RMK AO2 SLP243 T02110156 $
KSPI,2026-04-13 10:52:00+00:00,2026-04-13 10:52:00+00:00,19.4,16.1,210.0,9.0,17.0,10.0,1013.546527,VFR,,,METAR KSPI 131052Z 21009G17KT 10SM CLR 19/16 A2993 RMK AO2 SLP132 T01940161
KSPK,2026-04-13 10:55:00+00:00,2026-04-13 10:55:00+00:00,4.0,3.0,0.0,0.0,,10.0,1015.917,VFR,,"[{""cover"": ""SCT"", ""base_ft_agl"": 3100.0}]",METAR KSPK 131055Z AUTO 00000KT 10SM SCT031 04/03 A3000 RMK AO2
KSPR,2026-04-13 10:55:00+00:00,2026-04-13 10:55:00+00:00,24.0,20.0,150.0,16.0,,9.0,1021.335224,MVFR,,"[{""cover"": ""BKN"", ""base_ft_agl"": 2700.0}, {""cover"": ""OVC"", ""base_ft_agl"": 3200.0}]",METAR KSPR 131055Z AUTO 15016KT 9SM BKN027 OVC032 24/20 A3016 RMK A01
KSPS,2026-04-13 10:59:00+00:00,2026-04-13 10:59:00+00:00,20.6,18.3,200.0,16.0,24.0,10.0,1014.223805,MVFR,,"[{""cover"": ""BKN"", ""base_ft_agl"": 1400.0}]",SPECI KSPS 131059Z 20016G24KT 10SM BKN014 21/18 A2995 RMK AO2 T02060183
KSPW,2026-04-13 10:53:00+00:00,2026-04-13 10:53:00+00:00,7.8,7.8,50.0,3.0,,0.75,1006.7737470000001,LIFR,BR,"[{""cover"": ""OVX"", ""base_ft_agl"": 300.0}]",METAR KSPW 131053Z AUTO 05003KT 3/4SM BR VV003 08/08 A2973 RMK AO2 RAE09 SLP065 P0000 T00780078 $
KSQI,2026-04-13 10:56:00+00:00,2026-04-13 10:56:00+00:00,17.2,17.2,230.0,7.0,,10.0,1011.5146930000001,VFR,,,METAR KSQI 131056Z AUTO 23007KT 10SM CLR 17/17 A2987 RMK AO2 SLP109 T01720172 $
KSQL,2026-04-13 10:55:00+00:00,2026-04-13 10:55:00+00:00,11.0,11.0,0.0,0.0,,10.0,1017.6101950000001,VFR,,"[{""cover"": ""FEW"", ""base_ft_agl"": 2100.0}, {""cover"": ""SCT"", ""base_ft_agl"": 2900.0}, {""cover"": ""SCT"", ""base_ft_agl"": 3500.0}]",METAR KSQL 131055Z AUTO 00000KT 10SM FEW021 SCT029 SCT035 11/11 A3005 RMK A01
KSRB,2026-04-13 10:55:00+00:00,2026-04-13 10:55:00+00:00,19.0,13.0,200.0,8.0,,10.0,1023.7056970000001,VFR,,"[{""cover"": ""SCT"", ""base_ft_agl"": 8000.0}, {""cover"": ""BKN"", ""base_ft_agl"": 9500.0}]",METAR KSRB 131055Z AUTO 20008KT 10SM SCT080 BKN095 19/13 A3023 RMK AO2
KSRC,2026-04-13 10:56:00+00:00,2026-04-13 10:56:00+00:00,19.4,18.3,210.0,5.0,,10.0,1019.30339,MVFR,,"[{""cover"": ""OVC"", ""base_ft_agl"": 1700.0}]",METAR KSRC 131056Z AUTO 21005KT 10SM OVC017 19/18 A3010 RMK AO2 SLP189 T01940183 $
KSRE,2026-04-13 10:55:00+00:00,2026-04-13 10:55:00+00:00,21.0,18.0,190.0,7.0,16.0,10.0,1014.223805,MVFR,,"[{""cover"": ""OVC"", ""base_ft_agl"": 1900.0}]",METAR KSRE 131055Z AUTO 19007G16KT 160V230 10SM OVC019 21/18 A2995 RMK AO2
KSRQ,2026-04-13 09:53:00+00:00,2026-04-13 09:53:00+00:00,18.0,11.0,80.0,5.0,,10.0,1024.044336,VFR,,,METAR KSRQ 130953Z AUTO 08005KT 10SM CLR 18/11 A3024
KSRR,2026-04-13 10:55:00+00:00,2026-04-13 10:55:00+00:00,10.0,-3.0,0.0,0.0,,10.0,1020.996585,VFR,,,METAR KSRR 131055Z AUTO 00000KT 10SM CLR 10/M03 A3015 RMK AO2
KSSC,2026-04-13 09:55:00+00:00,2026-04-13 09:55:00+00:00,14.9,14.1,0.0,0.0,,10.0,1026.4148089999999,VFR,,"[{""cover"": ""FEW"", ""base_ft_agl"": 25000.0}]",METAR KSSC 130955Z 00000KT 10SM FEW250 15/14 A3031 RMK AO2A SLP264 T01490141 $
KSSF,2026-04-13 10:53:00+00:00,2026-04-13 10:53:00+00:00,22.8,21.1,160.0,7.0,,10.0,1016.9329170000001,MVFR,,"[{""cover"": ""OVC"", ""base_ft_agl"": 1600.0}]",METAR KSSF 131053Z AUTO 16007KT 10SM OVC016 23/21 A3003 RMK AO2 SLP159 T02280211 $
KSSI,2026-04-13 10:55:00+00:00,2026-04-13 10:55:00+00:00,16.0,16.0,0.0,0.0,,10.0,1026.4148089999999,VFR,VCTS,"[{""cover"": ""SCT"", ""base_ft_agl"": 2900.0}]",METAR KSSI 131055Z AUTO 00000KT 10SM VCTS SCT029 16/16 A3031 RMK AO2 LTG DSNT NE AND SW AND NW
KSTC,2026-04-13 10:53:00+00:00,2026-04-13 10:53:00+00:00,10.6,8.9,0.0,0.0,,10.0,1008.128303,IFR,,"[{""cover"": ""OVC"", ""base_ft_agl"": 900.0}]",METAR KSTC 131053Z AUTO 00000KT 10SM OVC009 11/09 A2977 RMK AO2 SLP087 T01060089 $
KSTE,2026-04-13 10:55:00+00:00,2026-04-13 10:55:00+00:00,16.0,14.7,240.0,5.0,,10.0,1007.112386,VFR,,,METAR KSTE 131055Z AUTO 24005KT 10SM CLR 16/15 A2974 RMK AO2 T01600147
KSTJ,2026-04-13 10:53:00+00:00,2026-04-13 10:53:00+00:00,20.0,17.8,170.0,10.0,,10.0,1008.466942,MVFR,,"[{""cover"": ""OVC"", ""base_ft_agl"": 2300.0}]",METAR KSTJ 131053Z AUTO 17010KT 10SM OVC023 20/18 A2978 RMK AO2 SLP080 T02000178 $
KSTK,2026-04-13 10:55:00+00:00,2026-04-13 10:55:00+00:00,5.0,-5.0,230.0,7.0,,10.0,1007.7896640000001,VFR,,,METAR KSTK 131055Z AUTO 23007KT 10SM CLR 05/M05 A2976 RMK AO2
KSTL,2026-04-13 10:51:00+00:00,2026-04-13 10:51:00+00:00,20.6,16.1,200.0,8.0,,10.0,1014.901083,VFR,,"[{""cover"": ""FEW"", ""base_ft_agl"": 3300.0}, {""cover"": ""SCT"", ""base_ft_agl"": 25000.0}]",METAR KSTL 131051Z 20008KT 10SM FEW033 SCT250 21/16 A2997 RMK AO2 SLP140 T02060161 $
KSTP,2026-04-13 10:53:00+00:00,2026-04-13 10:53:00+00:00,10.0,8.9,0.0,0.0,,10.0,1007.112386,VFR,,,METAR KSTP 131053Z 00000KT 10SM CLR 10/09 A2974 RMK AO2 SLP068 T01000089 $
KSUA,2026-04-13 10:47:00+00:00,2026-04-13 10:47:00+00:00,22.0,15.0,90.0,12.0,,10.0,1024.382975,VFR,,"[{""cover"": ""BKN"", ""base_ft_agl"": 4000.0}]",METAR KSUA 131047Z 09012KT 10SM BKN040 22/15 A3025
KSUE,2026-04-13 10:57:00+00:00,2026-04-13 10:57:00+00:00,15.6,13.9,260.0,11.0,,10.0,1005.4191910000001,VFR,,,METAR KSUE 131057Z AUTO 26011KT 10SM CLR 16/14 A2969 RMK AO2 SLP054 T01560139 $
KSUN,2026-04-13 10:55:00+00:00,2026-04-13 10:55:00+00:00,,,0.0,0.0,,10.0,1013.546527,MVFR,,"[{""cover"": ""BKN"", ""base_ft_agl"": 2700.0}, {""cover"": ""OVC"", ""base_ft_agl"": 3600.0}]",METAR KSUN 131055Z AUTO 00000KT 10SM BKN027 OVC036 A2993 RMK AO2
KSUO,2026-04-13 10:55:00+00:00,2026-04-13 10:55:00+00:00,13.0,6.0,150.0,9.0,,10.0,1003.387357,VFR,,,METAR KSUO 131055Z AUTO 15009KT 10SM CLR 13/06 A2963 RMK AO2
KSUS,2026-04-13 10:54:00+00:00,2026-04-13 10:54:00+00:00,21.1,16.1,200.0,8.0,,10.0,1014.223805,VFR,,"[{""cover"": ""BKN"", ""base_ft_agl"": 3800.0}]",METAR KSUS 131054Z 20008KT 10SM BKN038 21/16 A2995 RMK AO2 SLP134 T02110161 $
KSUT,2026-04-13 10:55:00+00:00,2026-04-13 10:55:00+00:00,18.0,17.0,170.0,2.0,,10.0,1027.430726,VFR,,,METAR KSUT 131055Z AUTO 17002KT 10SM CLR 18/17 A3034 RMK AO2
KSUW,2026-04-13 10:55:00+00:00,2026-04-13 10:55:00+00:00,8.5,6.5,340.0,3.0,,10.0,1007.7896640000001,MVFR,,"[{""cover"": ""OVC"", ""base_ft_agl"": 1800.0}]",METAR KSUW 131055Z AUTO 34003KT 10SM OVC018 09/07 A2976 RMK AO2 T00850065
KSUX,2026-04-13 10:52:00+00:00,2026-04-13 10:52:00+00:00,12.8,12.2,120.0,7.0,,6.0,1005.080552,VFR,BR,,METAR KSUX 131052Z 12007KT 6SM BR CLR 13/12 A2968 RMK AO2 SLP045 T01280122
KSUZ,2026-04-13 10:55:00+00:00,2026-04-13 10:55:00+00:00,20.0,20.0,200.0,7.0,,8.0,1019.30339,VFR,,"[{""cover"": ""OVC"", ""base_ft_agl"": 3200.0}]",METAR KSUZ 131055Z AUTO 20007KT 8SM OVC032 20/20 A3010 RMK A01
KSVC,2026-04-13 10:55:00+00:00,2026-04-13 10:55:00+00:00,9.9,-0.5,310.0,6.0,,10.0,1019.980668,VFR,,,METAR KSVC 131055Z AUTO 31006KT 10SM CLR 10/00 A3012 RMK AO2 T00991005
KSVE,2026-04-13 10:55:00+00:00,2026-04-13 10:55:00+00:00,-1.0,-1.0,0.0,0.0,,10.0,1017.271556,VFR,,"[{""cover"": ""SCT"", ""base_ft_agl"": 3900.0}]",METAR KSVE 131055Z AUTO 00000KT 10SM SCT039 M01/M01 A3004 RMK A01 P000
KSVH,2026-04-13 10:55:00+00:00,2026-04-13 10:55:00+00:00,15.1,11.7,200.0,5.0,,10.0,1026.753448,VFR,,,METAR KSVH 131055Z AUTO 20005KT 10SM CLR 15/12 A3032 RMK AO2 T01510117
KSVN,2026-04-13 10:35:00+00:00,2026-04-13 10:35:00+00:00,15.0,14.0,0.0,0.0,,0.75,1025.737531,LIFR,BR,,SPECI KSVN 131035Z AUTO 00000KT 3/4SM R28/3500VP6000FT BR CLR 15/14 A3029 RMK AO2 VIS 3/4V1 5/8 SLP260 $
KSVR,2026-04-13 10:55:00+00:00,2026-04-13 10:55:00+00:00,2.0,2.0,230.0,6.0,,10.0,1015.578361,VFR,,,METAR KSVR 131055Z AUTO 23006KT 10SM CLR 02/02 A2999 RMK AO2
KSWF,2026-04-13 10:45:00+00:00,2026-04-13 10:45:00+00:00,10.0,7.0,220.0,4.0,,7.0,1020.319307,MVFR,,"[{""cover"": ""OVC"", ""base_ft_agl"": 1500.0}]",METAR KSWF 131045Z 22004KT 7SM OVC015 10/07 A3013
KSWO,2026-04-13 10:53:00+00:00,2026-04-13 10:53:00+00:00,21.1,18.3,210.0,12.0,18.0,10.0,1012.1919710000001,MVFR,,"[{""cover"": ""OVC"", ""base_ft_agl"": 1900.0}]",METAR KSWO 131053Z AUTO 21012G18KT 10SM OVC019 21/18 A2989 RMK AO2 SLP108 T02110183
KSWW,2026-04-13 10:55:00+00:00,2026-04-13 10:55:00+00:00,21.0,18.8,190.0,13.0,,10.0,1017.271556,VFR,,,METAR KSWW 131055Z AUTO 19013KT 10SM 21/19 A3004 RMK AO2 T02100188
KSXK,2026-04-13 10:55:00+00:00,2026-04-13 10:55:00+00:00,13.0,13.0,140.0,10.0,,6.0,1004.7419130000001,VFR,BR,,METAR KSXK 131055Z AUTO 14010KT 6SM BR CLR 13/13 A2967 RMK AO2
KSXS,2026-04-13 10:55:00+00:00,2026-04-13 10:55:00+00:00,13.4,12.4,0.0,0.0,,10.0,1025.737531,VFR,,,METAR KSXS 131055Z AUTO 00000KT 10SM CLR 13/12 A3029 RMK AO2 SLP257 T01340124 $
KSXT,2026-04-13 10:56:00+00:00,2026-04-13 10:56:00+00:00,1.7,1.1,250.0,5.0,,10.0,1016.2556390000001,MVFR,,"[{""cover"": ""BKN"", ""base_ft_agl"": 3000.0}, {""cover"": ""BKN"", ""base_ft_agl"": 4200.0}, {""cover"": ""OVC"", ""base_ft_agl"": 5000.0}]",METAR KSXT 131056Z AUTO 25005KT 10SM BKN030 BKN042 OVC050 02/01 A3001 RMK AO2 SLP164 T00170011
KSXU,2026-04-13 10:55:00+00:00,2026-04-13 10:55:00+00:00,12.0,-5.0,240.0,4.0,,10.0,1015.917,VFR,,,METAR KSXU 131055Z AUTO 24004KT 10SM CLR 12/M05 A3000 RMK AO2
KSYF,2026-04-13 10:55:00+00:00,2026-04-13 10:55:00+00:00,13.0,-6.0,240.0,13.0,,10.0,1006.0964690000001,VFR,,,METAR KSYF 131055Z AUTO 24013KT 10SM CLR 13/M06 A2971 RMK AO2
KSYI,2026-04-13 10:55:00+00:00,2026-04-13 10:55:00+00:00,19.0,11.0,180.0,6.0,,10.0,1023.0284190000001,VFR,,,METAR KSYI 131055Z AUTO 18006KT 10SM CLR 19/11 A3021 RMK A01
KSYM,2026-04-13 10:55:00+00:00,2026-04-13 10:55:00+00:00,22.0,8.0,220.0,14.0,21.0,10.0,1020.657946,VFR,,"[{""cover"": ""OVC"", ""base_ft_agl"": 6000.0}]",METAR KSYM 131055Z AUTO 22014G21KT 10SM OVC060 22/08 A3014 RMK AO2
KSYN,2026-04-13 10:55:00+00:00,2026-04-13 10:55:00+00:00,10.2,10.2,0.0,0.0,,1.25,1006.7737470000001,IFR,BR,"[{""cover"": ""OVX"", ""base_ft_agl"": 700.0}]",METAR KSYN 131055Z AUTO 00000KT 1 1/4SM BR VV007 10/10 A2973 RMK AO2 T01020102
KSYR,2026-04-13 10:54:00+00:00,2026-04-13 10:54:00+00:00,16.1,6.7,180.0,8.0,,10.0,1012.8692490000001,VFR,,"[{""cover"": ""SCT"", ""base_ft_agl"": 11000.0}, {""cover"": ""BKN"", ""base_ft_agl"": 15000.0}, {""cover"": ""BKN"", ""base_ft_agl"": 20000.0}]",METAR KSYR 131054Z 18008KT 10SM SCT110 BKN150 BKN200 16/07 A2991 RMK AO2 SLP125 T01610067 $
KSZL,2026-04-13 10:55:00+00:00,2026-04-13 10:55:00+00:00,20.8,17.2,190.0,12.0,,10.0,1011.5146930000001,MVFR,,"[{""cover"": ""OVC"", ""base_ft_agl"": 2300.0}]",METAR KSZL 131055Z 19012KT 10SM OVC023 21/17 A2987 RMK AO2A LTG DSNT W SLP112 T02080172 $
KSZT,2026-04-13 10:55:00+00:00,2026-04-13 10:55:00+00:00,7.0,5.0,40.0,3.0,,10.0,1005.75783,MVFR,,"[{""cover"": ""BKN"", ""base_ft_agl"": 1600.0}, {""cover"": ""BKN"", ""base_ft_agl"": 2900.0}, {""cover"": ""BKN"", ""base_ft_agl"": 5500.0}]",METAR KSZT 131055Z AUTO 04003KT 10SM BKN016 BKN029 BKN055 07/05 A2970 RMK AO2
KSZY,2026-04-13 10:55:00+00:00,2026-04-13 10:55:00+00:00,19.0,12.0,170.0,4.0,,10.0,1022.012502,VFR,,"[{""cover"": ""FEW"", ""base_ft_agl"": 4800.0}, {""cover"": ""FEW"", ""base_ft_agl"": 7000.0}, {""cover"": ""BKN"", ""base_ft_agl"": 10000.0}]",METAR KSZY 131055Z AUTO 17004KT 10SM FEW048 FEW070 BKN100 19/12 A3018 RMK A01
KT20,2026-04-13 10:55:00+00:00,2026-04-13 10:55:00+00:00,23.0,21.7,160.0,6.0,,,1017.948834,,,"[{""cover"": ""OVC"", ""base_ft_agl"": 1200.0}]",METAR KT20 131055Z AUTO 16006KT OVC012 23/22 A3006 RMK AO2 T02300217 PWINO
KT35,2026-04-13 10:55:00+00:00,2026-04-13 10:55:00+00:00,22.0,20.7,160.0,6.0,,10.0,1018.2874730000001,MVFR,,"[{""cover"": ""BKN"", ""base_ft_agl"": 1300.0}, {""cover"": ""BKN"", ""base_ft_agl"": 4200.0}, {""cover"": ""OVC"", ""base_ft_agl"": 6000.0}]",METAR KT35 131055Z AUTO 16006KT 10SM BKN013 BKN042 OVC060 22/21 A3007 RMK AO2 T02200207
KT41,2026-04-13 10:55:00+00:00,2026-04-13 10:55:00+00:00,22.9,20.8,160.0,9.0,,10.0,1019.642029,MVFR,,"[{""cover"": ""BKN"", ""base_ft_agl"": 1300.0}, {""cover"": ""BKN"", ""base_ft_agl"": 2000.0}, {""cover"": ""OVC"", ""base_ft_agl"": 8500.0}]",METAR KT41 131055Z AUTO 16009KT 10SM BKN013 BKN020 OVC085 23/21 A3011 RMK AO2 T02290208
KT69,2026-04-13 10:55:00+00:00,2026-04-13 10:55:00+00:00,24.0,24.0,,,,3.0,1017.6101950000001,LIFR,BR,"[{""cover"": ""OVC"", ""base_ft_agl"": 100.0}]",METAR KT69 131055Z AUTO 3SM BR OVC001 24/24 A3005 RMK A01
KT70,2026-04-13 10:25:00+00:00,2026-04-13 10:25:00+00:00,24.0,21.0,170.0,6.0,,9.0,1016.2556390000001,MVFR,,"[{""cover"": ""OVC"", ""base_ft_agl"": 1400.0}]",SPECI KT70 131025Z AUTO 17006KT 9SM OVC014 24/21 A3001 RMK AO2 SLP149 $
KT74,2026-04-13 10:55:00+00:00,2026-04-13 10:55:00+00:00,22.0,21.0,160.0,7.0,,10.0,1019.642029,IFR,,"[{""cover"": ""OVC"", ""base_ft_agl"": 800.0}]",METAR KT74 131055Z AUTO 16007KT 10SM OVC008 22/21 A3011 RMK AO2
KT78,2026-04-13 10:55:00+00:00,2026-04-13 10:55:00+00:00,22.0,21.0,0.0,0.0,,8.0,1019.642029,MVFR,,"[{""cover"": ""OVC"", ""base_ft_agl"": 1100.0}]",METAR KT78 131055Z AUTO 00000KT 8SM OVC011 22/21 A3011 RMK AO2 LTG DSNT N
KT82,2026-04-13 10:55:00+00:00,2026-04-13 10:55:00+00:00,21.0,20.0,170.0,8.0,,7.0,1018.2874730000001,IFR,,"[{""cover"": ""OVC"", ""base_ft_agl"": 900.0}]",METAR KT82 131055Z AUTO 17008KT 7SM OVC009 21/20 A3007 RMK AO2
KT89,2026-04-13 10:55:00+00:00,2026-04-13 10:55:00+00:00,19.0,9.0,300.0,6.0,,10.0,1016.9329170000001,VFR,,"[{""cover"": ""FEW"", ""base_ft_agl"": 4100.0}]",METAR KT89 131055Z AUTO 30006KT 10SM FEW041 19/09 A3003 RMK A01
KTAD,2026-04-13 10:54:00+00:00,2026-04-13 10:54:00+00:00,11.1,-7.8,250.0,20.0,,10.0,1013.2078880000001,VFR,,,METAR KTAD 131054Z AUTO 25020KT 10SM CLR 11/M08 A2992 RMK AO2 SLP065 T01111078
KTAN,2026-04-13 10:52:00+00:00,2026-04-13 10:52:00+00:00,10.0,5.6,190.0,10.0,22.0,10.0,1022.3511410000001,VFR,,"[{""cover"": ""OVC"", ""base_ft_agl"": 3500.0}]",METAR KTAN 131052Z AUTO 19010G22KT 10SM OVC035 10/06 A3019 RMK AO2 SLP222 T01000056
KTAZ,2026-04-13 11:00:00+00:00,2026-04-13 11:00:00+00:00,18.0,16.0,180.0,8.0,,10.0,1014.901083,VFR,,"[{""cover"": ""SCT"", ""base_ft_agl"": 6000.0}]",METAR KTAZ 131100Z AUTO 18008KT 10SM SCT060 18/16 A2997 RMK AO2
KTBN,2026-04-13 10:55:00+00:00,2026-04-13 10:55:00+00:00,19.6,16.4,170.0,6.0,,10.0,1014.562444,MVFR,,"[{""cover"": ""OVC"", ""base_ft_agl"": 2800.0}]",METAR KTBN 131055Z AUTO 17006KT 10SM OVC028 20/16 A2996 RMK AO2 CIG 027 RWY33 SLP140 T01960164 $
KTBR,2026-04-13 10:55:00+00:00,2026-04-13 10:55:00+00:00,11.0,11.0,0.0,0.0,,10.0,1026.753448,VFR,,"[{""cover"": ""FEW"", ""base_ft_agl"": 100.0}]",METAR KTBR 131055Z AUTO 00000KT 10SM FEW001 11/11 A3032 RMK AO2
KTBX,2026-04-13 10:55:00+00:00,2026-04-13 10:55:00+00:00,2.0,-4.0,110.0,11.0,,10.0,1010.8374150000001,VFR,,,METAR KTBX 131055Z AUTO 11011KT 10SM CLR 02/M04 A2985 RMK AO2
KTCC,2026-04-13 10:53:00+00:00,2026-04-13 10:53:00+00:00,13.9,-4.4,240.0,13.0,,10.0,1013.885166,VFR,,,METAR KTCC 131053Z AUTO 24013KT 10SM CLR 14/M04 A2994 RMK AO2 SLP086 T01391044 $
KTCL,2026-04-13 10:53:00+00:00,2026-04-13 10:53:00+00:00,15.0,13.3,190.0,5.0,,8.0,1024.044336,VFR,,,METAR KTCL 131053Z AUTO 19005KT 8SM CLR 15/13 A3024 RMK AO2 SLP238 T01500133
KTCM,2026-04-13 10:55:00+00:00,2026-04-13 10:55:00+00:00,9.3,6.9,210.0,8.0,,10.0,1013.546527,VFR,,"[{""cover"": ""SCT"", ""base_ft_agl"": 1100.0}, {""cover"": ""OVC"", ""base_ft_agl"": 4000.0}]",METAR KTCM 131055Z AUTO 21008KT 10SM SCT011 OVC040 09/07 A2993 RMK AO2 SLP139 T00930069 $
KTCS,2026-04-13 10:53:00+00:00,2026-04-13 10:53:00+00:00,14.4,0.6,240.0,7.0,,10.0,1018.2874730000001,VFR,,,METAR KTCS 131053Z AUTO 24007KT 10SM CLR 14/01 A3007 RMK AO2 SLP114 T01440006
KTCY,2026-04-13 10:55:00+00:00,2026-04-13 10:55:00+00:00,12.0,12.0,0.0,0.0,,6.0,1017.6101950000001,VFR,BR,"[{""cover"": ""SCT"", ""base_ft_agl"": 3000.0}, {""cover"": ""BKN"", ""base_ft_agl"": 3600.0}, {""cover"": ""OVC"", ""base_ft_agl"": 4400.0}]",METAR KTCY 131055Z AUTO 00000KT 6SM BR SCT030 BKN036 OVC044 12/12 A3005 RMK A01
KTDF,2026-04-13 10:55:00+00:00,2026-04-13 10:55:00+00:00,16.0,13.0,210.0,8.0,,10.0,1027.092087,VFR,,,METAR KTDF 131055Z AUTO 21008KT 10SM CLR 16/13 A3033 RMK AO2
KTDR,2026-04-13 09:55:00+00:00,2026-04-13 09:55:00+00:00,15.9,13.7,70.0,5.0,,10.0,1022.68978,VFR,,,METAR KTDR 130955Z AUTO 07005KT 10SM CLR 16/14 A3020 RMK AO2 SLP227 T01590137 $
KTDZ,2026-04-13 10:53:00+00:00,2026-04-13 10:53:00+00:00,18.9,12.8,230.0,15.0,26.0,10.0,1012.53061,VFR,,"[{""cover"": ""SCT"", ""base_ft_agl"": 3700.0}, {""cover"": ""BKN"", ""base_ft_agl"": 5000.0}, {""cover"": ""BKN"", ""base_ft_agl"": 9500.0}]",METAR KTDZ 131053Z AUTO 23015G26KT 10SM SCT037 BKN050 BKN095 19/13 A2990 RMK AO2 PK WND 23027/1033 SLP120 T01890128
KTEB,2026-04-13 10:51:00+00:00,2026-04-13 10:51:00+00:00,10.6,6.7,0.0,0.0,,10.0,1021.335224,MVFR,,"[{""cover"": ""OVC"", ""base_ft_agl"": 1800.0}]",METAR KTEB 131051Z 00000KT 10SM OVC018 11/07 A3016 RMK AO2 SLP212 T01060067 $
KTEW,2026-04-13 10:55:00+00:00,2026-04-13 10:55:00+00:00,16.6,16.6,250.0,5.0,,10.0,1010.498776,MVFR,,"[{""cover"": ""OVC"", ""base_ft_agl"": 1100.0}]",METAR KTEW 131055Z AUTO 25005KT 10SM OVC011 17/17 A2984 RMK AO2 T01660166
KTEX,2026-04-13 10:55:00+00:00,2026-04-13 10:55:00+00:00,2.0,-10.0,120.0,8.0,,10.0,1019.30339,VFR,,,METAR KTEX 131055Z AUTO 12008KT 10SM CLR 02/M10 A3010 RMK AO2
KTGI,2026-04-13 10:35:00+00:00,2026-04-13 10:35:00+00:00,15.2,14.0,180.0,12.0,17.0,,1024.721614,,,,METAR KTGI 131035Z AUTO 18012G17KT 15/14 A3026 RMK AO1 T01520140
KTHA,2026-04-13 10:55:00+00:00,2026-04-13 10:55:00+00:00,18.0,10.0,200.0,5.0,,10.0,1023.7056970000001,MVFR,,"[{""cover"": ""BKN"", ""base_ft_agl"": 2200.0}, {""cover"": ""BKN"", ""base_ft_agl"": 3700.0}]",METAR KTHA 131055Z AUTO 20005KT 10SM BKN022 BKN037 18/10 A3023 RMK A01
KTHV,2026-04-13 10:53:00+00:00,2026-04-13 10:53:00+00:00,15.0,12.2,0.0,0.0,,10.0,1019.980668,VFR,,,METAR KTHV 131053Z AUTO 00000KT 10SM CLR 15/12 A3012 RMK AO2 SLP200 T01500122
KTIF,2026-04-13 10:55:00+00:00,2026-04-13 10:55:00+00:00,12.4,3.9,60.0,8.0,,10.0,1005.4191910000001,VFR,,,METAR KTIF 131055Z AUTO 06008KT 10SM CLR 12/04 A2969 RMK AO2 T01240039
KTIK,2026-04-13 10:25:00+00:00,2026-04-13 10:25:00+00:00,21.0,18.0,200.0,17.0,,10.0,1013.2078880000001,VFR,,"[{""cover"": ""FEW"", ""base_ft_agl"": 1600.0}]",SPECI KTIK 131025Z AUTO 20017KT 10SM FEW016 21/18 A2992 RMK AO2 SLP121
KTIP,2026-04-13 10:55:00+00:00,2026-04-13 10:55:00+00:00,17.3,14.7,230.0,12.0,,10.0,1014.223805,VFR,,,METAR KTIP 131055Z AUTO 23012KT 10SM CLR 17/15 A2995 RMK AO2 T01730147
KTIW,2026-04-13 10:53:00+00:00,2026-04-13 10:53:00+00:00,8.9,6.1,210.0,11.0,,10.0,1013.546527,VFR,,"[{""cover"": ""SCT"", ""base_ft_agl"": 1600.0}, {""cover"": ""OVC"", ""base_ft_agl"": 4000.0}]",METAR KTIW 131053Z AUTO 21011KT 10SM SCT016 OVC040 09/06 A2993 RMK AO2 SLP136 T00890061 $
KTIX,2026-04-13 10:47:00+00:00,2026-04-13 10:47:00+00:00,22.0,15.0,110.0,8.0,,7.0,1025.737531,VFR,,"[{""cover"": ""FEW"", ""base_ft_agl"": 4000.0}]",METAR KTIX 131047Z 11008KT 7SM FEW040 22/15 A3029
KTKC,2026-04-13 10:55:00+00:00,2026-04-13 10:55:00+00:00,9.0,9.0,330.0,13.0,18.0,0.25,1007.4510250000001,LIFR,FG,"[{""cover"": ""OVC"", ""base_ft_agl"": 200.0}]",METAR KTKC 131055Z AUTO 33013G18KT 1/4SM FG OVC002 09/09 A2975 RMK AO2
KTKI,2026-04-13 10:53:00+00:00,2026-04-13 10:53:00+00:00,21.1,18.3,180.0,15.0,,10.0,1016.594278,MVFR,,"[{""cover"": ""OVC"", ""base_ft_agl"": 1300.0}]",METAR KTKI 131053Z 18015KT 10SM OVC013 21/18 A3002 RMK AO2 SLP164 T02110183
KTKV,2026-04-13 10:55:00+00:00,2026-04-13 10:55:00+00:00,10.9,10.3,,,,10.0,1006.7737470000001,VFR,,,METAR KTKV 131055Z 10SM CLR 11/10 A2973 RMK AO2 T01090103 PWINO
KTKX,2026-04-13 10:55:00+00:00,2026-04-13 10:55:00+00:00,22.0,15.0,190.0,11.0,16.0,10.0,1018.2874730000001,VFR,,"[{""cover"": ""OVC"", ""base_ft_agl"": 3800.0}]",METAR KTKX 131055Z AUTO 19011G16KT 10SM OVC038 22/15 A3007 RMK AO2
KTLH,2026-04-13 10:53:00+00:00,2026-04-13 10:53:00+00:00,14.4,12.2,110.0,6.0,,10.0,1025.737531,VFR,,"[{""cover"": ""SCT"", ""base_ft_agl"": 11000.0}]",METAR KTLH 131053Z 11006KT 10SM SCT110 14/12 A3029 RMK AO2 SLP257 T01440122
KTMA,2026-04-13 10:55:00+00:00,2026-04-13 10:55:00+00:00,12.6,12.6,0.0,0.0,,8.0,1027.430726,VFR,,,METAR KTMA 131055Z AUTO 00000KT 8SM CLR 13/13 A3034 RMK AO2 T01260126 $
KTMB,2026-04-13 10:53:00+00:00,2026-04-13 10:53:00+00:00,21.1,15.6,80.0,9.0,,10.0,1023.0284190000001,VFR,,"[{""cover"": ""BKN"", ""base_ft_agl"": 4800.0}]",METAR KTMB 131053Z AUTO 08009KT 10SM BKN048 21/16 A3021 RMK AO2 SLP230 T02110156
KTME,2026-04-13 10:55:00+00:00,2026-04-13 10:55:00+00:00,22.0,22.0,170.0,4.0,,7.0,1019.642029,MVFR,,"[{""cover"": ""OVC"", ""base_ft_agl"": 1200.0}]",METAR KTME 131055Z AUTO 17004KT 7SM OVC012 22/22 A3011 RMK AO2
KTMK,2026-04-13 10:55:00+00:00,2026-04-13 10:55:00+00:00,9.0,9.0,220.0,6.0,,3.0,1017.6101950000001,MVFR,-RA BR,"[{""cover"": ""FEW"", ""base_ft_agl"": 400.0}, {""cover"": ""BKN"", ""base_ft_agl"": 1400.0}, {""cover"": ""OVC"", ""base_ft_agl"": 2000.0}]",METAR KTMK 131055Z AUTO 22006KT 3SM -RA BR FEW004 BKN014 OVC020 09/09 A3005 RMK AO2 P0003
KTMT,2026-04-13 10:55:00+00:00,2026-04-13 10:55:00+00:00,-2.1,-2.6,0.0,0.0,,10.0,1016.2556390000001,VFR,,"[{""cover"": ""OVC"", ""base_ft_agl"": 11000.0}]",METAR KTMT 131055Z AUTO 00000KT 10SM OVC110 M02/M03 A3001 RMK AO2 T10211026
KTNB,2026-04-13 10:55:00+00:00,2026-04-13 10:55:00+00:00,15.3,4.4,250.0,8.0,,10.0,1027.092087,VFR,,,METAR KTNB 131055Z AUTO 25008KT 10SM CLR 15/04 A3033 RMK AO2 T01530044
KTNU,2026-04-13 10:55:00+00:00,2026-04-13 10:55:00+00:00,16.0,16.0,200.0,10.0,,10.0,1009.14422,MVFR,,"[{""cover"": ""BKN"", ""base_ft_agl"": 1000.0}]",METAR KTNU 131055Z AUTO 20010KT 10SM BKN010 16/16 A2980 RMK A01
KTOB,2026-04-13 10:55:00+00:00,2026-04-13 10:55:00+00:00,10.3,10.3,180.0,7.0,,1.25,1006.7737470000001,IFR,BR,,METAR KTOB 131055Z AUTO 18007KT 1 1/4SM BR CLR 10/10 A2973 RMK AO2 VIS 3/4V3 T01030103
KTOC,2026-04-13 10:55:00+00:00,2026-04-13 10:55:00+00:00,11.0,10.0,0.0,0.0,,10.0,1027.769365,VFR,,,METAR KTOC 131055Z AUTO 00000KT 10SM CLR 11/10 A3035 RMK AO2
KTOI,2026-04-13 10:53:00+00:00,2026-04-13 10:53:00+00:00,12.8,11.7,0.0,0.0,,10.0,1026.4148089999999,VFR,,,METAR KTOI 131053Z AUTO 00000KT 10SM CLR 13/12 A3031 RMK AO2 SLP259 T01280117
KTOL,2026-04-13 10:52:00+00:00,2026-04-13 10:52:00+00:00,19.4,13.3,220.0,16.0,27.0,10.0,1012.1919710000001,VFR,,"[{""cover"": ""BKN"", ""base_ft_agl"": 3400.0}, {""cover"": ""BKN"", ""base_ft_agl"": 4100.0}, {""cover"": ""OVC"", ""base_ft_agl"": 5000.0}]",METAR KTOL 131052Z 22016G27KT 10SM BKN034 BKN041 OVC050 19/13 A2989 RMK AO2 PK WND 21027/1049 SLP118 T01940133 $
KTOP,2026-04-13 10:53:00+00:00,2026-04-13 10:53:00+00:00,20.6,17.8,190.0,14.0,27.0,10.0,1008.128303,VFR,,,METAR KTOP 131053Z AUTO 19014G27KT 10SM CLR 21/18 A2977 RMK AO2 PK WND 18027/1051 SLP072 T02060178
KTOR,2026-04-13 10:53:00+00:00,2026-04-13 10:53:00+00:00,8.3,-7.2,290.0,6.0,,10.0,1008.466942,VFR,,,METAR KTOR 131053Z AUTO 29006KT 10SM CLR 08/M07 A2978 RMK AO2 SLP050 T00831072 $
KTPA,2026-04-13 10:53:00+00:00,2026-04-13 10:53:00+00:00,18.3,14.4,0.0,3.0,,10.0,1025.060253,VFR,,"[{""cover"": ""FEW"", ""base_ft_agl"": 25000.0}]",METAR KTPA 131053Z VRB03KT 10SM FEW250 18/14 A3027 RMK AO2 SLP250 T01830144
KTPF,2026-04-13 10:55:00+00:00,2026-04-13 10:55:00+00:00,17.0,14.9,70.0,6.0,,10.0,1024.382975,VFR,,,METAR KTPF 131055Z AUTO 07006KT 10SM CLR 17/15 A3025 RMK AO2 T01700149
KTPH,2026-04-13 10:56:00+00:00,2026-04-13 10:56:00+00:00,0.6,-6.7,360.0,10.0,,10.0,1014.562444,VFR,,,METAR KTPH 131056Z AUTO 36010KT 10SM CLR 01/M07 A2996 RMK AO2 SLP128 T00061067
KTPL,2026-04-13 10:51:00+00:00,2026-04-13 10:51:00+00:00,21.1,21.1,160.0,13.0,,,1017.948834,,,"[{""cover"": ""OVC"", ""base_ft_agl"": 800.0}]",METAR KTPL 131051Z AUTO 16013KT OVC008 21/21 A3006 RMK AO2 CIG 007V013 SLP170 T02110211 PWINO RVRNO $
KTQE,2026-04-13 10:54:00+00:00,2026-04-13 10:54:00+00:00,10.6,10.6,120.0,3.0,,0.25,1005.4191910000001,LIFR,FG,"[{""cover"": ""OVX"", ""base_ft_agl"": 200.0}]",METAR KTQE 131054Z AUTO 12003KT 1/4SM FG VV002 11/11 A2969 RMK AO2 SLP044 T01060106
KTQK,2026-04-13 10:55:00+00:00,2026-04-13 10:55:00+00:00,6.5,-1.3,190.0,11.0,,10.0,1008.128303,VFR,,,METAR KTQK 131055Z AUTO 19011KT 10SM CLR 06/M01 A2977 RMK AO2 T00651013
KTQS,2026-04-13 09:55:00+00:00,2026-04-13 09:55:00+00:00,10.6,9.7,90.0,4.0,,10.0,1017.6101950000001,VFR,,,METAR KTQS 130955Z AUTO 09004KT 10SM CLR 11/10 A3005 RMK AO2 SLP179 T01060097 $
KTQV,2026-04-13 10:55:00+00:00,2026-04-13 10:55:00+00:00,16.0,15.0,220.0,8.0,,10.0,1026.753448,VFR,,,METAR KTQV 131055Z AUTO 22008KT 10SM CLR 16/15 A3032 RMK A01
KTRI,2026-04-13 10:53:00+00:00,2026-04-13 10:53:00+00:00,12.8,7.8,0.0,0.0,,10.0,1024.721614,VFR,,"[{""cover"": ""BKN"", ""base_ft_agl"": 22000.0}]",METAR KTRI 131053Z 00000KT 10SM BKN220 13/08 A3026 RMK AO2 SLP227 T01280078 $
KTRK,2026-04-13 10:55:00+00:00,2026-04-13 10:55:00+00:00,-2.0,-2.0,0.0,0.0,,10.0,1016.2556390000001,LIFR,,"[{""cover"": ""BKN"", ""base_ft_agl"": 400.0}, {""cover"": ""OVC"", ""base_ft_agl"": 3900.0}]",METAR KTRK 131055Z AUTO 00000KT 10SM BKN004 OVC039 M02/M02 A3001 RMK AO2
KTRL,2026-04-13 11:03:00+00:00,2026-04-13 11:03:00+00:00,20.6,18.9,180.0,11.0,19.0,10.0,1017.948834,MVFR,,"[{""cover"": ""OVC"", ""base_ft_agl"": 1400.0}]",SPECI KTRL 131103Z AUTO 18011G19KT 10SM OVC014 21/19 A3006 RMK AO2 T02060189 $
KTSP,2026-04-13 10:55:00+00:00,2026-04-13 10:55:00+00:00,4.0,3.0,320.0,9.0,,10.0,1016.2556390000001,MVFR,,"[{""cover"": ""OVC"", ""base_ft_agl"": 1300.0}]",METAR KTSP 131055Z AUTO 32009KT 10SM OVC013 04/03 A3001 RMK AO2
KTTA,2026-04-13 10:55:00+00:00,2026-04-13 10:55:00+00:00,13.6,13.6,0.0,0.0,,0.75,1027.092087,LIFR,BR,"[{""cover"": ""OVX"", ""base_ft_agl"": 500.0}]",METAR KTTA 131055Z AUTO 00000KT 3/4SM BR VV005 14/14 A3033 RMK AO2 T01360136
KTTD,2026-04-13 11:02:00+00:00,2026-04-13 11:02:00+00:00,9.4,8.9,240.0,3.0,,2.0,1015.917,IFR,RA BR,"[{""cover"": ""SCT"", ""base_ft_agl"": 1900.0}, {""cover"": ""BKN"", ""base_ft_agl"": 2700.0}, {""cover"": ""OVC"", ""base_ft_agl"": 3400.0}]",SPECI KTTD 131102Z 24003KT 2SM RA BR SCT019 BKN027 OVC034 09/09 A3000 RMK AO2 P0003 T00940089
KTTF,2026-04-13 10:55:00+00:00,2026-04-13 10:55:00+00:00,19.0,13.0,240.0,15.0,,10.0,1011.176054,VFR,,"[{""cover"": ""BKN"", ""base_ft_agl"": 3500.0}, {""cover"": ""OVC"", ""base_ft_agl"": 4100.0}]",METAR KTTF 131055Z AUTO 24015KT 10SM BKN035 OVC041 19/13 A2986 RMK AO2 PK WND 24030/56
KTTN,2026-04-13 10:53:00+00:00,2026-04-13 10:53:00+00:00,10.0,7.2,0.0,0.0,,10.0,1021.335224,MVFR,,"[{""cover"": ""OVC"", ""base_ft_agl"": 1500.0}]",METAR KTTN 131053Z 00000KT 10SM OVC015 10/07 A3016 RMK AO2 SLP206 T01000072 $
KTTS,2026-04-13 09:55:00+00:00,2026-04-13 09:55:00+00:00,19.9,13.8,120.0,4.0,,10.0,1024.044336,VFR,,"[{""cover"": ""SCT"", ""base_ft_agl"": 3600.0}]",METAR KTTS 130955Z AUTO 12004KT 10SM SCT036 20/14 A3024 RMK AO2 SLP244 T01990138 $
KTUL,2026-04-13 10:53:00+00:00,2026-04-13 10:53:00+00:00,22.2,18.3,180.0,15.0,26.0,10.0,1013.2078880000001,MVFR,,"[{""cover"": ""BKN"", ""base_ft_agl"": 1900.0}, {""cover"": ""BKN"", ""base_ft_agl"": 2400.0}]",METAR KTUL 131053Z 18015G26KT 10SM BKN019 BKN024 22/18 A2992 RMK AO2 PK WND 18026/1046 SLP125 T02220183
KTUP,2026-04-13 10:53:00+00:00,2026-04-13 10:53:00+00:00,17.8,12.8,180.0,4.0,,10.0,1022.3511410000001,VFR,,"[{""cover"": ""BKN"", ""base_ft_agl"": 11000.0}]",METAR KTUP 131053Z 18004KT 10SM BKN110 18/13 A3019 RMK AO2 SLP221 T01780128 $
KTUS,2026-04-13 10:53:00+00:00,2026-04-13 10:53:00+00:00,18.9,3.9,280.0,5.0,,10.0,1016.594278,VFR,,,METAR KTUS 131053Z 28005KT 10SM CLR 19/04 A3002 RMK AO2 SLP127 T01890039
KTVC,2026-04-13 10:53:00+00:00,2026-04-13 10:53:00+00:00,16.1,13.9,220.0,8.0,17.0,10.0,1004.7419130000001,MVFR,,"[{""cover"": ""OVC"", ""base_ft_agl"": 2000.0}]",METAR KTVC 131053Z 22008G17KT 10SM OVC020 16/14 A2967 RMK AO2 SLP046 T01610139
KTVF,2026-04-13 10:56:00+00:00,2026-04-13 10:56:00+00:00,2.8,2.8,330.0,6.0,,4.0,1010.498776,LIFR,BR,"[{""cover"": ""OVC"", ""base_ft_agl"": 300.0}]",METAR KTVF 131056Z AUTO 33006KT 4SM BR OVC003 03/03 A2984 RMK AO2 SLP115 T00280028
KTVI,2026-04-13 10:55:00+00:00,2026-04-13 10:55:00+00:00,12.0,11.0,0.0,0.0,,10.0,1026.753448,VFR,,,METAR KTVI 131055Z AUTO 00000KT 10SM CLR 12/11 A3032 RMK AO2
KTVK,2026-04-13 10:55:00+00:00,2026-04-13 10:55:00+00:00,18.0,18.0,180.0,8.0,,10.0,1010.8374150000001,MVFR,,"[{""cover"": ""OVC"", ""base_ft_agl"": 2200.0}]",METAR KTVK 131055Z AUTO 18008KT 10SM OVC022 18/18 A2985 RMK A01
KTVL,2026-04-13 10:53:00+00:00,2026-04-13 10:53:00+00:00,-2.2,-3.3,0.0,0.0,,10.0,1015.578361,VFR,,"[{""cover"": ""SCT"", ""base_ft_agl"": 2900.0}, {""cover"": ""BKN"", ""base_ft_agl"": 3800.0}, {""cover"": ""OVC"", ""base_ft_agl"": 5500.0}]",METAR KTVL 131053Z AUTO 00000KT 10SM SCT029 BKN038 OVC055 M02/M03 A2999 RMK AO2 SLP162 T10221033
KTVR,2026-04-13 10:53:00+00:00,2026-04-13 10:53:00+00:00,20.6,17.8,0.0,0.0,,10.0,1022.012502,MVFR,,"[{""cover"": ""BKN"", ""base_ft_agl"": 2800.0}]",METAR KTVR 131053Z AUTO 00000KT 10SM BKN028 21/18 A3018 RMK AO2 SLP225 T02060178
KTVY,2026-04-13 10:56:00+00:00,2026-04-13 10:56:00+00:00,2.0,1.0,200.0,9.0,,10.0,1015.578361,VFR,,,METAR KTVY 131056Z AUTO 20009KT 10SM CLR 02/01 A2999 RMK AO2
KTWF,2026-04-13 10:53:00+00:00,2026-04-13 10:53:00+00:00,2.8,-3.3,200.0,12.0,,10.0,1013.2078880000001,VFR,,,METAR KTWF 131053Z AUTO 20012KT 10SM CLR 03/M03 A2992 RMK AO2 SLP116 T00281033
KTWM,2026-04-13 10:55:00+00:00,2026-04-13 10:55:00+00:00,6.0,5.0,0.0,0.0,,10.0,1007.4510250000001,MVFR,,"[{""cover"": ""OVC"", ""base_ft_agl"": 1100.0}]",METAR KTWM 131055Z AUTO 00000KT 10SM OVC011 06/05 A2975 RMK AO2
KTWT,2026-04-13 10:55:00+00:00,2026-04-13 10:55:00+00:00,,,210.0,4.0,,10.0,1018.964751,VFR,,,METAR KTWT 131055Z AUTO 21004KT 10SM A3009 RMK AO2
KTXK,2026-04-13 11:00:00+00:00,2026-04-13 11:00:00+00:00,20.0,18.9,150.0,8.0,,10.0,1018.6261119999999,VFR,,"[{""cover"": ""SCT"", ""base_ft_agl"": 2400.0}]",SPECI KTXK 131100Z 15008KT 10SM SCT024 20/19 A3008 RMK AO2 T02000189
KTXW,2026-04-13 10:55:00+00:00,2026-04-13 10:55:00+00:00,24.1,22.4,130.0,8.0,,10.0,1016.594278,VFR,,"[{""cover"": ""OVC"", ""base_ft_agl"": 3700.0}]",METAR KTXW 131055Z AUTO 13008KT 10SM OVC037 24/22 A3002 RMK AO2 T02410224
KTYL,2026-04-13 10:55:00+00:00,2026-04-13 10:55:00+00:00,8.0,2.0,190.0,13.0,17.0,10.0,1018.2874730000001,VFR,,,METAR KTYL 131055Z AUTO 19013G17KT 10SM CLR 08/02 A3007 RMK AO2
KTYQ,2026-04-13 10:55:00+00:00,2026-04-13 10:55:00+00:00,18.6,12.1,220.0,11.0,,10.0,1015.578361,VFR,,"[{""cover"": ""SCT"", ""base_ft_agl"": 3400.0}, {""cover"": ""SCT"", ""base_ft_agl"": 4000.0}, {""cover"": ""BKN"", ""base_ft_agl"": 5000.0}]",METAR KTYQ 131055Z AUTO 22011KT 10SM SCT034 SCT040 BKN050 19/12 A2999 RMK AO2 T01860121
KTYR,2026-04-13 10:53:00+00:00,2026-04-13 10:53:00+00:00,20.0,18.9,200.0,15.0,,10.0,1018.2874730000001,VFR,,,METAR KTYR 131053Z AUTO 20015KT 10SM CLR 20/19 A3007 RMK AO2 PK WND 19026/1004 SLP177 T02000189
KTYS,2026-04-13 10:53:00+00:00,2026-04-13 10:53:00+00:00,17.2,6.7,220.0,7.0,,9.0,1024.382975,VFR,,"[{""cover"": ""SCT"", ""base_ft_agl"": 15000.0}, {""cover"": ""BKN"", ""base_ft_agl"": 25000.0}]",METAR KTYS 131053Z 22007KT 9SM SCT150 BKN250 17/07 A3025 RMK AO2 SLP234 T01720067 $
KTZR,2026-04-13 10:55:00+00:00,2026-04-13 10:55:00+00:00,20.7,11.6,240.0,17.0,24.0,10.0,1017.271556,VFR,,"[{""cover"": ""BKN"", ""base_ft_agl"": 6000.0}, {""cover"": ""BKN"", ""base_ft_agl"": 7500.0}, {""cover"": ""BKN"", ""base_ft_agl"": 8500.0}]",METAR KTZR 131055Z AUTO 24017G24KT 10SM BKN060 BKN075 BKN085 21/12 A3004 RMK AO2 T02070116
KU14,2026-04-13 10:55:00+00:00,2026-04-13 10:55:00+00:00,0.0,0.0,220.0,3.0,,10.0,1016.2556390000001,VFR,,"[{""cover"": ""BKN"", ""base_ft_agl"": 5000.0}]",METAR KU14 131055Z AUTO 22003KT 10SM BKN050 M00/M00 A3001 RMK AO2
KU19,2026-04-13 10:55:00+00:00,2026-04-13 10:55:00+00:00,5.1,1.2,150.0,5.0,,10.0,1014.223805,VFR,,,METAR KU19 131055Z AUTO 15005KT 10SM CLR 05/01 A2995 RMK AO2 SLPNO T00510012
KU52,2026-04-13 10:55:00+00:00,2026-04-13 10:55:00+00:00,5.0,2.0,0.0,0.0,,10.0,1015.239722,VFR,,"[{""cover"": ""SCT"", ""base_ft_agl"": 4400.0}, {""cover"": ""BKN"", ""base_ft_agl"": 5000.0}, {""cover"": ""OVC"", ""base_ft_agl"": 7500.0}]",METAR KU52 131055Z AUTO 00000KT 10SM SCT044 BKN050 OVC075 05/02 A2998 RMK AO2 PWINO
KU55,2026-04-13 10:55:00+00:00,2026-04-13 10:55:00+00:00,2.0,0.0,130.0,6.0,,10.0,1016.2556390000001,VFR,,"[{""cover"": ""FEW"", ""base_ft_agl"": 2800.0}, {""cover"": ""SCT"", ""base_ft_agl"": 3900.0}, {""cover"": ""BKN"", ""base_ft_agl"": 5000.0}]",METAR KU55 131055Z AUTO 13006KT 10SM FEW028 SCT039 BKN050 02/00 A3001 RMK A01
KU64,2026-04-13 10:55:00+00:00,2026-04-13 10:55:00+00:00,2.7,-7.6,190.0,8.0,,10.0,1017.948834,VFR,,,METAR KU64 131055Z AUTO 19008KT 10SM CLR 03/M08 A3006 RMK AO2 T00271076 $
KU68,2026-04-13 10:55:00+00:00,2026-04-13 10:55:00+00:00,4.0,4.0,0.0,0.0,,10.0,1006.435108,VFR,,,METAR KU68 131055Z AUTO 00000KT 10SM CLR 04/04 A2972 RMK AO2
KU69,2026-04-13 10:55:00+00:00,2026-04-13 10:55:00+00:00,4.0,-2.0,280.0,10.0,16.0,10.0,1014.562444,VFR,,,METAR KU69 131055Z AUTO 28010G16KT 10SM CLR 04/M02 A2996 RMK A01
KU96,2026-04-13 10:55:00+00:00,2026-04-13 10:55:00+00:00,11.2,-5.7,180.0,9.0,,10.0,1013.885166,VFR,,,METAR KU96 131055Z AUTO 18009KT 10SM CLR 11/M06 A2994 RMK AO2 T01121057
KUAO,2026-04-13 10:53:00+00:00,2026-04-13 10:53:00+00:00,8.9,7.8,210.0,6.0,,10.0,1016.594278,VFR,,"[{""cover"": ""SCT"", ""base_ft_agl"": 1300.0}, {""cover"": ""BKN"", ""base_ft_agl"": 3300.0}, {""cover"": ""OVC"", ""base_ft_agl"": 5500.0}]",METAR KUAO 131053Z AUTO 21006KT 10SM SCT013 BKN033 OVC055 09/08 A3002 RMK AO2 SLP165 T00890078
KUBE,2026-04-13 10:55:00+00:00,2026-04-13 10:55:00+00:00,8.0,8.0,320.0,4.0,,0.75,1007.7896640000001,LIFR,BR,"[{""cover"": ""OVC"", ""base_ft_agl"": 900.0}]",METAR KUBE 131055Z AUTO 32004KT 3/4SM BR OVC009 08/08 A2976 RMK AO2
KUCP,2026-04-13 10:56:00+00:00,2026-04-13 10:56:00+00:00,20.6,9.4,230.0,10.0,17.0,10.0,1014.901083,VFR,,"[{""cover"": ""OVC"", ""base_ft_agl"": 6500.0}]",METAR KUCP 131056Z AUTO 23010G17KT 10SM OVC065 21/09 A2997 RMK AO2 PK WND 23031/1016 RAB26E42 SLP156 P0000 T02060094
KUCY,2026-04-13 10:45:00+00:00,2026-04-13 10:45:00+00:00,22.0,14.0,200.0,8.0,,10.0,1018.964751,VFR,,"[{""cover"": ""OVC"", ""base_ft_agl"": 4000.0}]",METAR KUCY 131045Z AUTO 20008KT 10SM OVC040 22/14 A3009 RMK A01
KUDG,2026-04-13 10:56:00+00:00,2026-04-13 10:56:00+00:00,13.9,,200.0,3.0,,,1027.430726,,,,METAR KUDG 131056Z AUTO 20003KT CLR 14/ A3034 RMK AO2 SLP274 T0139 PWINO $
KUES,2026-04-13 10:45:00+00:00,2026-04-13 10:45:00+00:00,17.0,15.0,240.0,10.0,,10.0,1009.482859,MVFR,,"[{""cover"": ""OVC"", ""base_ft_agl"": 1800.0}]",METAR KUES 131045Z 24010KT 10SM OVC018 17/15 A2981
KUGN,2026-04-13 10:51:00+00:00,2026-04-13 10:51:00+00:00,17.8,16.7,240.0,11.0,,10.0,1009.821498,MVFR,,"[{""cover"": ""OVC"", ""base_ft_agl"": 1200.0}]",METAR KUGN 131051Z 24011KT 10SM OVC012 18/17 A2982 RMK AO2 SLP089 T01780167 $
KUIL,2026-04-13 10:53:00+00:00,2026-04-13 10:53:00+00:00,7.2,6.7,0.0,0.0,,10.0,1014.223805,MVFR,,"[{""cover"": ""FEW"", ""base_ft_agl"": 700.0}, {""cover"": ""BKN"", ""base_ft_agl"": 2100.0}, {""cover"": ""OVC"", ""base_ft_agl"": 3900.0}]",METAR KUIL 131053Z AUTO 00000KT 10SM FEW007 BKN021 OVC039 07/07 A2995 RMK AO2 RAE44 SLP144 P0002 T00720067 $
KUIN,2026-04-13 10:54:00+00:00,2026-04-13 10:54:00+00:00,17.8,16.1,210.0,13.0,,10.0,1012.53061,VFR,,,METAR KUIN 131054Z AUTO 21013KT 10SM CLR 18/16 A2990 RMK AO2 SLP122 T01780161 $
KUKF,2026-04-13 10:55:00+00:00,2026-04-13 10:55:00+00:00,13.0,9.0,0.0,0.0,,10.0,1027.769365,VFR,,,METAR KUKF 131055Z AUTO 00000KT 10SM CLR 13/09 A3035 RMK AO2
KUKI,2026-04-13 10:56:00+00:00,2026-04-13 10:56:00+00:00,5.6,5.0,0.0,0.0,,10.0,1018.2874730000001,IFR,,"[{""cover"": ""OVC"", ""base_ft_agl"": 900.0}]",METAR KUKI 131056Z AUTO 00000KT 10SM OVC009 06/05 A3007 RMK AO2 SLP180 T00560050
KUKL,2026-04-13 10:50:00+00:00,2026-04-13 10:50:00+00:00,19.0,18.6,190.0,13.0,19.0,10.0,1010.498776,MVFR,,"[{""cover"": ""BKN"", ""base_ft_agl"": 2000.0}]",METAR KUKL 131050Z AUTO 19013G19KT 10SM BKN020 19/19 A2984 RMK AO2 T01900186
KUKT,2026-04-13 10:55:00+00:00,2026-04-13 10:55:00+00:00,12.0,11.0,180.0,3.0,,10.0,1020.996585,MVFR,,"[{""cover"": ""OVC"", ""base_ft_agl"": 1100.0}]",METAR KUKT 131055Z AUTO 18003KT 10SM OVC011 12/11 A3015 RMK AO2
KULM,2026-04-13 10:55:00+00:00,2026-04-13 10:55:00+00:00,10.0,8.0,270.0,7.0,,10.0,1006.7737470000001,VFR,,,METAR KULM 131055Z AUTO 27007KT 10SM CLR 10/08 A2973 RMK AO2
KULS,2026-04-13 10:55:00+00:00,2026-04-13 10:55:00+00:00,9.0,0.0,0.0,0.0,,10.0,1008.128303,VFR,,,METAR KULS 131055Z AUTO 00000KT 10SM CLR 09/00 A2977 RMK AO2
KUMP,2026-04-13 10:55:00+00:00,2026-04-13 10:55:00+00:00,19.7,12.7,230.0,7.0,,10.0,1015.917,VFR,,"[{""cover"": ""SCT"", ""base_ft_agl"": 4000.0}]",METAR KUMP 131055Z AUTO 23007KT 10SM SCT040 20/13 A3000 RMK AO2 T01970127 $
KUNI,2026-04-13 10:55:00+00:00,2026-04-13 10:55:00+00:00,21.8,7.8,200.0,7.0,,10.0,1017.948834,VFR,,"[{""cover"": ""OVC"", ""base_ft_agl"": 7000.0}]",METAR KUNI 131055Z AUTO 20007KT 10SM OVC070 22/08 A3006 RMK AO2 RAE0951 T02180078
KUNO,2026-04-13 10:53:00+00:00,2026-04-13 10:53:00+00:00,17.8,16.1,190.0,8.0,,10.0,1017.271556,VFR,,,METAR KUNO 131053Z AUTO 19008KT 10SM CLR 18/16 A3004 RMK AO2 SLP162 T01780161
KUNV,2026-04-13 10:53:00+00:00,2026-04-13 10:53:00+00:00,14.0,8.0,300.0,5.0,,10.0,1017.6101950000001,VFR,,,METAR KUNV 131053Z 30005KT 10SM CLR 14/08 A3005
KUOX,2026-04-13 10:55:00+00:00,2026-04-13 10:55:00+00:00,19.0,14.0,170.0,6.0,,10.0,1022.3511410000001,VFR,,,METAR KUOX 131055Z AUTO 17006KT 10SM CLR 19/14 A3019 RMK AO2 PWINO
KUSE,2026-04-13 10:55:00+00:00,2026-04-13 10:55:00+00:00,18.0,16.0,250.0,16.0,22.0,8.0,1012.53061,VFR,,"[{""cover"": ""FEW"", ""base_ft_agl"": 2700.0}, {""cover"": ""OVC"", ""base_ft_agl"": 3300.0}]",METAR KUSE 131055Z AUTO 25016G22KT 8SM FEW027 OVC033 18/16 A2990 RMK AO2
KUTA,2026-04-13 10:55:00+00:00,2026-04-13 10:55:00+00:00,21.4,16.8,170.0,8.0,,10.0,1020.319307,VFR,,"[{""cover"": ""BKN"", ""base_ft_agl"": 10000.0}, {""cover"": ""OVC"", ""base_ft_agl"": 12000.0}]",METAR KUTA 131055Z AUTO 17008KT 10SM BKN100 OVC120 21/17 A3013 RMK AO2 T02140168 $
KUTS,2026-04-13 10:53:00+00:00,2026-04-13 10:53:00+00:00,21.7,20.6,170.0,5.0,,10.0,1019.642029,VFR,,"[{""cover"": ""FEW"", ""base_ft_agl"": 1100.0}, {""cover"": ""BKN"", ""base_ft_agl"": 3900.0}, {""cover"": ""OVC"", ""base_ft_agl"": 7000.0}]",METAR KUTS 131053Z AUTO 17005KT 10SM FEW011 BKN039 OVC070 22/21 A3011 RMK AO1 SLP193 T02170206
KUUV,2026-04-13 10:55:00+00:00,2026-04-13 10:55:00+00:00,,,200.0,8.0,,10.0,1015.917,VFR,,"[{""cover"": ""OVC"", ""base_ft_agl"": 3200.0}]",METAR KUUV 131055Z AUTO 20008KT 10SM OVC032 A3000 RMK AO2
KUVA,2026-04-13 10:55:00+00:00,2026-04-13 10:55:00+00:00,21.8,20.7,130.0,8.0,,9.0,1017.271556,IFR,,"[{""cover"": ""OVC"", ""base_ft_agl"": 800.0}]",METAR KUVA 131055Z AUTO 13008KT 9SM OVC008 22/21 A3004 RMK AO2 CIG 007V011 T02180207 $
KUWL,2026-04-13 10:55:00+00:00,2026-04-13 10:55:00+00:00,18.0,14.0,210.0,10.0,,10.0,1016.2556390000001,VFR,,"[{""cover"": ""FEW"", ""base_ft_agl"": 3300.0}, {""cover"": ""SCT"", ""base_ft_agl"": 6000.0}]",METAR KUWL 131055Z AUTO 21010KT 10SM FEW033 SCT060 18/14 A3001 RMK A01
KUXL,2026-04-13 10:55:00+00:00,2026-04-13 10:55:00+00:00,22.0,19.8,150.0,6.0,,10.0,1020.657946,VFR,,,METAR KUXL 131055Z AUTO 15006KT 10SM CLR 22/20 A3014 RMK AO2 T02200198
KUYF,2026-04-13 10:55:00+00:00,2026-04-13 10:55:00+00:00,20.0,11.0,230.0,16.0,21.0,10.0,1017.271556,VFR,,"[{""cover"": ""BKN"", ""base_ft_agl"": 4600.0}, {""cover"": ""OVC"", ""base_ft_agl"": 6000.0}]",METAR KUYF 131055Z AUTO 23016G21KT 10SM BKN046 OVC060 20/11 A3004 RMK AO2
KUZA,2026-04-13 10:54:00+00:00,2026-04-13 10:54:00+00:00,13.3,12.2,230.0,3.0,,10.0,1027.769365,VFR,,,METAR KUZA 131054Z AUTO 23003KT 10SM CLR 13/12 A3035 RMK AO2 SLP269 T01330122 $
KVAF,2026-04-13 11:00:00+00:00,2026-04-13 11:00:00+00:00,23.0,21.0,120.0,22.0,,3.0,1018.6261119999999,MVFR,BR,"[{""cover"": ""SCT"", ""base_ft_agl"": 1700.0}, {""cover"": ""SCT"", ""base_ft_agl"": 3300.0}]",METAR KVAF 131100Z 12022KT 3SM BR SCT017 SCT033 23/21 A3008 RMK A01 WINDS UN-RELIABLE 350 TO 45 DEGREES
KVAY,2026-04-13 10:54:00+00:00,2026-04-13 10:54:00+00:00,11.7,10.6,180.0,3.0,,10.0,1021.335224,VFR,,"[{""cover"": ""BKN"", ""base_ft_agl"": 11000.0}]",METAR KVAY 131054Z AUTO 18003KT 10SM BKN110 12/11 A3016 RMK AO2 SLP214 T01170106
KVBT,2026-04-13 10:56:00+00:00,2026-04-13 10:56:00+00:00,20.6,18.3,200.0,10.0,17.0,10.0,1016.594278,MVFR,,"[{""cover"": ""OVC"", ""base_ft_agl"": 1900.0}]",METAR KVBT 131056Z AUTO 20010G17KT 10SM OVC019 21/18 A3002 RMK AO2 SLP157 T02060183 $
KVBW,2026-04-13 10:55:00+00:00,2026-04-13 10:55:00+00:00,18.1,9.7,180.0,7.0,,10.0,1022.3511410000001,VFR,,,METAR KVBW 131055Z AUTO 18007KT 10SM CLR 18/10 A3019 RMK AO1 T01810097
KVCB,2026-04-13 10:53:00+00:00,2026-04-13 10:53:00+00:00,7.8,7.8,20.0,3.0,,10.0,1018.2874730000001,VFR,,"[{""cover"": ""FEW"", ""base_ft_agl"": 10000.0}]",METAR KVCB 131053Z AUTO 02003KT 10SM FEW100 08/08 A3007 RMK AO2 SLP183 T00780078
KVCT,2026-04-13 10:51:00+00:00,2026-04-13 10:51:00+00:00,22.8,21.7,150.0,9.0,,8.0,1017.948834,MVFR,,"[{""cover"": ""SCT"", ""base_ft_agl"": 1000.0}, {""cover"": ""BKN"", ""base_ft_agl"": 1600.0}, {""cover"": ""OVC"", ""base_ft_agl"": 2300.0}]",METAR KVCT 131051Z AUTO 15009KT 8SM SCT010 BKN016 OVC023 23/22 A3006 RMK AO2 RAB0959E08 SLP177 P0000 T02280217
KVCV,2026-04-13 10:55:00+00:00,2026-04-13 10:55:00+00:00,5.0,2.0,170.0,7.0,,10.0,1016.594278,VFR,,,METAR KVCV 131055Z AUTO 17007KT 10SM CLR 05/02 A3002 RMK AO2
KVDF,2026-04-13 10:55:00+00:00,2026-04-13 10:55:00+00:00,12.9,12.9,0.0,0.0,,9.0,1024.721614,VFR,,,METAR KVDF 131055Z AUTO 00000KT 9SM CLR 13/13 A3026 RMK AO2 T01290129
KVDI,2026-04-13 10:55:00+00:00,2026-04-13 10:55:00+00:00,13.0,13.0,20.0,1.0,,10.0,1027.092087,VFR,,,METAR KVDI 131055Z AUTO 02001KT 10SM CLR 13/13 A3033 RMK AO2
KVEL,2026-04-13 10:53:00+00:00,2026-04-13 10:53:00+00:00,8.9,-3.9,260.0,18.0,25.0,10.0,1012.8692490000001,VFR,,"[{""cover"": ""OVC"", ""base_ft_agl"": 9500.0}]",METAR KVEL 131053Z AUTO 26018G25KT 10SM OVC095 09/M04 A2991 RMK AO2 PK WND 25027/1041 SLP089 T00891039
KVER,2026-04-13 10:55:00+00:00,2026-04-13 10:55:00+00:00,20.9,17.9,200.0,3.0,,10.0,1013.2078880000001,MVFR,,"[{""cover"": ""OVC"", ""base_ft_agl"": 2600.0}]",METAR KVER 131055Z AUTO 20003KT 10SM OVC026 21/18 A2992 RMK AO2 LTG DSNT N T02090179
KVES,2026-04-13 10:55:00+00:00,2026-04-13 10:55:00+00:00,20.0,13.0,210.0,15.0,,10.0,1015.917,VFR,,"[{""cover"": ""BKN"", ""base_ft_agl"": 3800.0}, {""cover"": ""OVC"", ""base_ft_agl"": 6500.0}]",METAR KVES 131055Z AUTO 21015KT 10SM BKN038 OVC065 20/13 A3000 RMK AO2 PK WND 22027/54 LTG DSNT N
KVGC,2026-04-13 10:55:00+00:00,2026-04-13 10:55:00+00:00,11.0,5.0,140.0,8.0,,10.0,1015.578361,VFR,,"[{""cover"": ""SCT"", ""base_ft_agl"": 11000.0}]",METAR KVGC 131055Z AUTO 14008KT 10SM SCT110 11/05 A2999 RMK AO2
KVGT,2026-04-13 10:53:00+00:00,2026-04-13 10:53:00+00:00,13.3,0.0,170.0,13.0,,10.0,1012.1919710000001,VFR,,,METAR KVGT 131053Z AUTO 17013KT 10SM CLR 13/00 A2989 RMK AO2 SLP128 T01330000
KVHN,2026-04-13 10:55:00+00:00,2026-04-13 10:55:00+00:00,14.0,6.5,230.0,8.0,,10.0,1020.996585,VFR,,,METAR KVHN 131055Z AUTO 23008KT 10SM CLR 14/06 A3015 RMK AO2 T01400065
KVIH,2026-04-13 10:53:00+00:00,2026-04-13 10:53:00+00:00,18.3,15.6,200.0,11.0,,10.0,1015.239722,VFR,,"[{""cover"": ""SCT"", ""base_ft_agl"": 2900.0}]",METAR KVIH 131053Z AUTO 20011KT 10SM SCT029 18/16 A2998 RMK AO2 SLP143 T01830156 $
KVIS,2026-04-13 10:56:00+00:00,2026-04-13 10:56:00+00:00,10.6,7.8,360.0,5.0,,10.0,1017.271556,VFR,,"[{""cover"": ""OVC"", ""base_ft_agl"": 5000.0}]",METAR KVIS 131056Z AUTO 36005KT 10SM OVC050 11/08 A3004 RMK AO2 SLP172 T01060078 PNO $
KVJI,2026-04-13 10:55:00+00:00,2026-04-13 10:55:00+00:00,17.0,6.0,270.0,6.0,,10.0,1025.3988920000002,VFR,,,METAR KVJI 131055Z AUTO 27006KT 10SM 17/06 A3028 RMK AO2
KVKS,2026-04-13 10:55:00+00:00,2026-04-13 10:55:00+00:00,20.0,19.0,160.0,3.0,,10.0,1021.6738630000001,MVFR,,"[{""cover"": ""FEW"", ""base_ft_agl"": 2100.0}, {""cover"": ""OVC"", ""base_ft_agl"": 2800.0}]",METAR KVKS 131055Z AUTO 16003KT 10SM FEW021 OVC028 20/19 A3017 RMK A01
KVLD,2026-04-13 10:53:00+00:00,2026-04-13 10:53:00+00:00,11.1,10.6,0.0,0.0,,8.0,1026.4148089999999,VFR,,,METAR KVLD 131053Z 00000KT 8SM CLR 11/11 A3031 RMK AO2 SLP272 T01110106
KVLL,2026-04-13 10:55:00+00:00,2026-04-13 10:55:00+00:00,17.0,14.0,250.0,12.0,20.0,10.0,1009.821498,MVFR,,"[{""cover"": ""OVC"", ""base_ft_agl"": 1700.0}]",METAR KVLL 131055Z AUTO 25012G20KT 10SM OVC017 17/14 A2982 RMK AO2 PK WND 23026/25
KVMR,2026-04-13 10:55:00+00:00,2026-04-13 10:55:00+00:00,14.0,12.0,300.0,4.0,,10.0,1005.4191910000001,VFR,,"[{""cover"": ""SCT"", ""base_ft_agl"": 11000.0}]",METAR KVMR 131055Z AUTO 30004KT 10SM SCT110 14/12 A2969 RMK AO2
KVNC,2026-04-13 10:55:00+00:00,2026-04-13 10:55:00+00:00,16.3,14.4,70.0,6.0,,10.0,1024.044336,VFR,,,METAR KVNC 131055Z AUTO 07006KT 10SM CLR 16/14 A3024 RMK AO2 T01630144 $
KVNW,2026-04-13 10:55:00+00:00,2026-04-13 10:55:00+00:00,19.0,13.0,220.0,12.0,16.0,10.0,1013.885166,VFR,,"[{""cover"": ""FEW"", ""base_ft_agl"": 5500.0}]",METAR KVNW 131055Z AUTO 22012G16KT 10SM FEW055 19/13 A2994 RMK AO2 LTG DSNT NE
KVNY,2026-04-13 10:51:00+00:00,2026-04-13 10:51:00+00:00,11.7,8.3,0.0,0.0,,10.0,1016.2556390000001,VFR,,"[{""cover"": ""BKN"", ""base_ft_agl"": 7500.0}]",METAR KVNY 131051Z AUTO 00000KT 10SM BKN075 12/08 A3001 RMK AO2 SLP156 T01170083 $
KVOA,2026-04-13 10:55:00+00:00,2026-04-13 10:55:00+00:00,24.0,16.0,0.0,6.0,14.0,9.0,1024.044336,VFR,,,METAR KVOA 131055Z AUTO VRB06G14KT 9SM CLR 24/16 A3024 RMK A01
KVOK,2026-04-13 10:55:00+00:00,2026-04-13 10:55:00+00:00,15.0,13.5,260.0,6.0,,10.0,1006.7737470000001,VFR,,,METAR KVOK 131055Z AUTO 26006KT 10SM CLR 15/14 A2973 RMK AO2 SLP068 T01500135 $
KVPC,2026-04-13 10:55:00+00:00,2026-04-13 10:55:00+00:00,14.0,8.0,0.0,0.0,,10.0,1026.753448,VFR,,,METAR KVPC 131055Z AUTO 00000KT 10SM CLR 14/08 A3032 RMK AO2
KVPS,2026-04-13 10:55:00+00:00,2026-04-13 10:55:00+00:00,14.9,14.4,80.0,3.0,,10.0,1025.060253,VFR,,,METAR KVPS 131055Z AUTO 08003KT 10SM CLR 15/14 A3027 RMK AO2 SLP257 T01490144 $
KVPZ,2026-04-13 10:56:00+00:00,2026-04-13 10:56:00+00:00,16.7,15.0,240.0,9.0,,10.0,1012.8692490000001,VFR,,,METAR KVPZ 131056Z AUTO 24009KT 10SM CLR 17/15 A2991 RMK AO2 SLP123 T01670150 TSNO
KVQQ,2026-04-13 10:50:00+00:00,2026-04-13 10:50:00+00:00,9.0,9.0,0.0,0.0,,3.0,1026.4148089999999,MVFR,BR,"[{""cover"": ""FEW"", ""base_ft_agl"": 200.0}]",METAR KVQQ 131050Z 00000KT 3SM BR FEW002 09/09 A3031
KVRB,2026-04-13 10:53:00+00:00,2026-04-13 10:53:00+00:00,21.7,13.9,100.0,9.0,,10.0,1025.060253,VFR,,"[{""cover"": ""BKN"", ""base_ft_agl"": 4100.0}]",METAR KVRB 131053Z AUTO 10009KT 10SM BKN041 22/14 A3027 RMK AO2 SLP248 T02170139
KVSF,2026-04-13 10:54:00+00:00,2026-04-13 10:54:00+00:00,4.4,3.3,0.0,0.0,,9.0,1017.948834,VFR,,,METAR KVSF 131054Z AUTO 00000KT 9SM CLR 04/03 A3006 RMK AO2 SLP184 T00440033
KVTA,2026-04-13 10:54:00+00:00,2026-04-13 10:54:00+00:00,20.0,11.1,230.0,9.0,,10.0,1016.594278,VFR,,"[{""cover"": ""FEW"", ""base_ft_agl"": 5000.0}, {""cover"": ""SCT"", ""base_ft_agl"": 6000.0}, {""cover"": ""OVC"", ""base_ft_agl"": 7500.0}]",METAR KVTA 131054Z AUTO 23009KT 10SM FEW050 SCT060 OVC075 20/11 A3002 RMK AO2 PK WND 26033/1020 RAB19E50 SLP160 P0000 T02000111
KVTI,2026-04-13 10:55:00+00:00,2026-04-13 10:55:00+00:00,14.4,13.9,180.0,5.0,,5.0,1009.14422,MVFR,BR,,METAR KVTI 131055Z AUTO 18005KT 5SM BR CLR 14/14 A2980 RMK AO2 T01440139
KVTN,2026-04-13 10:52:00+00:00,2026-04-13 10:52:00+00:00,11.7,5.6,90.0,9.0,,10.0,1005.4191910000001,VFR,,,METAR KVTN 131052Z AUTO 09009KT 10SM CLR 12/06 A2969 RMK AO2 SLP037 T01170056
KVTP,2026-04-13 10:55:00+00:00,2026-04-13 10:55:00+00:00,0.0,-9.0,260.0,11.0,19.0,10.0,1021.6738630000001,VFR,,,METAR KVTP 131055Z AUTO 26011G19KT 10SM CLR 00/M09 A3017 RMK AO2
KVUJ,2026-04-13 10:55:00+00:00,2026-04-13 10:55:00+00:00,12.0,11.3,0.0,0.0,,10.0,1028.785282,VFR,,,METAR KVUJ 131055Z AUTO 00000KT 10SM CLR 12/11 A3038 RMK AO2 T01200113
KVUO,2026-04-13 10:53:00+00:00,2026-04-13 10:53:00+00:00,9.4,7.8,350.0,3.0,,3.0,1016.594278,MVFR,RA BR,"[{""cover"": ""SCT"", ""base_ft_agl"": 2100.0}, {""cover"": ""BKN"", ""base_ft_agl"": 2700.0}, {""cover"": ""OVC"", ""base_ft_agl"": 3600.0}]",METAR KVUO 131053Z AUTO 35003KT 3SM RA BR SCT021 BKN027 OVC036 09/08 A3002 RMK AO2 RAE00B34 SLP165 P0002 T00940078
KVVS,2026-04-13 10:55:00+00:00,2026-04-13 10:55:00+00:00,21.0,7.3,220.0,9.0,,10.0,1018.6261119999999,VFR,,,METAR KVVS 131055Z AUTO 22009KT 10SM CLR 21/07 A3008 RMK AO2 T02100073
KVVV,2026-04-13 10:55:00+00:00,2026-04-13 10:55:00+00:00,7.0,7.0,360.0,13.0,,4.0,1008.466942,LIFR,BR,"[{""cover"": ""OVC"", ""base_ft_agl"": 400.0}]",METAR KVVV 131055Z AUTO 36013KT 4SM BR OVC004 07/07 A2978 RMK AO2
KVWU,2026-04-13 10:34:00+00:00,2026-04-13 10:34:00+00:00,,,330.0,6.0,,7.0,1009.482859,LIFR,,"[{""cover"": ""OVC"", ""base_ft_agl"": 300.0}]",METAR KVWU 131034Z AUTO 33006KT 7SM OVC003 A2981 RMK AO2
KVYS,2026-04-13 10:59:00+00:00,2026-04-13 10:59:00+00:00,18.0,17.0,220.0,12.0,15.0,10.0,1011.853332,MVFR,,"[{""cover"": ""OVC"", ""base_ft_agl"": 2100.0}]",METAR KVYS 131059Z AUTO 22012G15KT 10SM OVC021 18/17 A2988 RMK AO2
KW22,2026-04-13 10:55:00+00:00,2026-04-13 10:55:00+00:00,21.0,5.0,220.0,11.0,20.0,10.0,1020.657946,VFR,,"[{""cover"": ""SCT"", ""base_ft_agl"": 11000.0}]",METAR KW22 131055Z AUTO 22011G20KT 10SM SCT110 21/05 A3014 RMK AO2
KW29,2026-04-13 10:55:00+00:00,2026-04-13 10:55:00+00:00,,,190.0,8.0,,10.0,1021.6738630000001,VFR,,,METAR KW29 131055Z AUTO 19008KT 10SM CLR A3017 RMK AO2
KW40,2026-04-13 10:55:00+00:00,2026-04-13 10:55:00+00:00,14.7,14.3,200.0,5.0,,7.0,1027.769365,VFR,,,METAR KW40 131055Z AUTO 20005KT 7SM CLR 15/14 A3035 RMK AO2 T01470143
KW43,2026-04-13 10:55:00+00:00,2026-04-13 10:55:00+00:00,6.0,3.0,240.0,6.0,,10.0,1007.4510250000001,VFR,,"[{""cover"": ""OVC"", ""base_ft_agl"": 10000.0}]",METAR KW43 131055Z AUTO 24006KT 10SM OVC100 06/03 A2975 RMK AO2
KW75,2026-04-13 10:55:00+00:00,2026-04-13 10:55:00+00:00,16.8,14.4,210.0,13.0,17.0,10.0,1024.721614,VFR,,,METAR KW75 131055Z AUTO 21013G17KT 10SM CLR 17/14 A3026 RMK AO1 T01680144
KW78,2026-04-13 10:55:00+00:00,2026-04-13 10:55:00+00:00,16.9,12.5,210.0,5.0,,10.0,1026.07617,VFR,,,METAR KW78 131055Z AUTO 21005KT 10SM CLR 17/13 A3030 RMK AO1 T01690125
KW81,2026-04-13 10:55:00+00:00,2026-04-13 10:55:00+00:00,16.0,13.2,180.0,3.0,,10.0,1025.3988920000002,VFR,,,METAR KW81 131055Z AUTO 18003KT 10SM CLR 16/13 A3028 RMK AO1 T01600132
KW99,2026-04-13 10:55:00+00:00,2026-04-13 10:55:00+00:00,21.6,8.6,180.0,8.0,,10.0,1019.642029,VFR,,"[{""cover"": ""OVC"", ""base_ft_agl"": 15000.0}]",METAR KW99 131055Z AUTO 18008KT 10SM OVC150 22/09 A3011 RMK AO2 T02160086
KWAL,2026-04-13 10:54:00+00:00,2026-04-13 10:54:00+00:00,15.0,13.3,200.0,11.0,,7.0,1025.060253,VFR,,"[{""cover"": ""BKN"", ""base_ft_agl"": 22000.0}, {""cover"": ""BKN"", ""base_ft_agl"": 25000.0}]",METAR KWAL 131054Z COR 20011KT 7SM BKN220 BKN250 15/13 A3027 RMK AO2 SLP247 T01500133
KWDG,2026-04-13 10:55:00+00:00,2026-04-13 10:55:00+00:00,20.0,20.0,180.0,8.0,,10.0,1010.8374150000001,MVFR,,"[{""cover"": ""OVC"", ""base_ft_agl"": 1200.0}]",METAR KWDG 131055Z AUTO 18008KT 10SM OVC012 20/20 A2985 RMK AO2
KWDR,2026-04-13 10:55:00+00:00,2026-04-13 10:55:00+00:00,12.0,10.0,,,,10.0,1027.430726,VFR,,,METAR KWDR 131055Z 10SM CLR 12/10 A3034 RMK AO2
KWJF,2026-04-13 10:56:00+00:00,2026-04-13 10:56:00+00:00,8.9,5.6,230.0,9.0,,10.0,1015.917,VFR,,"[{""cover"": ""FEW"", ""base_ft_agl"": 3900.0}, {""cover"": ""OVC"", ""base_ft_agl"": 6000.0}]",METAR KWJF 131056Z AUTO 23009KT 10SM FEW039 OVC060 09/06 A3000 RMK AO2 SLP156 T00890056
KWLD,2026-04-13 10:54:00+00:00,2026-04-13 10:54:00+00:00,20.0,18.3,180.0,16.0,32.0,10.0,1010.498776,MVFR,,"[{""cover"": ""BKN"", ""base_ft_agl"": 1400.0}]",METAR KWLD 131054Z AUTO 18016G32KT 10SM BKN014 20/18 A2984 RMK AO2 PK WND 17032/1047 SLP094 T02000183 $
KWMC,2026-04-13 10:56:00+00:00,2026-04-13 10:56:00+00:00,1.1,-1.1,0.0,3.0,,10.0,1015.578361,VFR,,,METAR KWMC 131056Z AUTO VRB03KT 10SM CLR 01/M01 A2999 RMK AO2 SLP157 T00111011 $
KWRB,2026-04-13 10:55:00+00:00,2026-04-13 10:55:00+00:00,13.8,12.4,140.0,4.0,,10.0,1026.4148089999999,VFR,,,METAR KWRB 131055Z AUTO 14004KT 10SM CLR 14/12 A3031 RMK AO2 SLP265 T01380124 $
KWRI,2026-04-13 10:55:00+00:00,2026-04-13 10:55:00+00:00,13.3,11.3,200.0,7.0,,10.0,1021.6738630000001,VFR,,,METAR KWRI 131055Z 20007KT 10SM CLR 13/11 A3017 RMK AO2A SLP216 T01330113 $
KWRL,2026-04-13 10:53:00+00:00,2026-04-13 10:53:00+00:00,3.9,0.6,100.0,3.0,,10.0,1006.435108,VFR,,"[{""cover"": ""FEW"", ""base_ft_agl"": 9000.0}]",METAR KWRL 131053Z AUTO 10003KT 10SM FEW090 04/01 A2972 RMK AO2 SLP049 T00390006
KWST,2026-04-13 10:53:00+00:00,2026-04-13 10:53:00+00:00,8.9,5.6,200.0,8.0,,10.0,1023.0284190000001,MVFR,,"[{""cover"": ""OVC"", ""base_ft_agl"": 2500.0}]",METAR KWST 131053Z AUTO 20008KT 10SM OVC025 09/06 A3021 RMK AO2 SLP230 T00890056
KWVL,2026-04-13 10:56:00+00:00,2026-04-13 10:56:00+00:00,5.0,4.4,190.0,6.0,14.0,10.0,1017.6101950000001,LIFR,-RA,"[{""cover"": ""OVC"", ""base_ft_agl"": 400.0}]",METAR KWVL 131056Z AUTO 19006G14KT 10SM -RA OVC004 05/04 A3005 RMK AO2 SLP183 P0003 T00500044
KWWD,2026-04-13 10:56:00+00:00,2026-04-13 10:56:00+00:00,13.9,12.2,190.0,9.0,,10.0,1023.0284190000001,VFR,,,METAR KWWD 131056Z AUTO 19009KT 10SM 14/12 A3021 RMK AO2 SLP232 T01390122 $
KWWR,2026-04-13 10:55:00+00:00,2026-04-13 10:55:00+00:00,18.7,15.0,190.0,17.0,21.0,10.0,1011.176054,VFR,,,METAR KWWR 131055Z AUTO 19017G21KT 10SM CLR 19/15 A2986 RMK AO2 T01870150
KX21,2026-04-13 10:55:00+00:00,2026-04-13 10:55:00+00:00,20.0,18.0,90.0,5.0,,10.0,1024.721614,VFR,,"[{""cover"": ""BKN"", ""base_ft_agl"": 3400.0}]",METAR KX21 131055Z AUTO 09005KT 10SM BKN034 20/18 A3026 RMK AO2
KX26,2026-04-13 10:55:00+00:00,2026-04-13 10:55:00+00:00,21.0,15.0,100.0,9.0,,10.0,1024.721614,VFR,,"[{""cover"": ""BKN"", ""base_ft_agl"": 3900.0}]",METAR KX26 131055Z AUTO 10009KT 10SM BKN039 21/15 A3026 RMK AO2
KX59,2026-04-13 10:55:00+00:00,2026-04-13 10:55:00+00:00,21.4,3.3,110.0,8.0,,9.0,1024.382975,VFR,,"[{""cover"": ""FEW"", ""base_ft_agl"": 3800.0}]",METAR KX59 131055Z AUTO 11008KT 9SM FEW038 21/03 A3025 RMK AO2 T02140033 $
KXBP,2026-04-13 10:50:00+00:00,2026-04-13 10:50:00+00:00,22.1,19.0,190.0,11.0,15.0,10.0,1016.2556390000001,MVFR,,"[{""cover"": ""SCT"", ""base_ft_agl"": 1700.0}, {""cover"": ""OVC"", ""base_ft_agl"": 2700.0}]",METAR KXBP 131050Z AUTO 19011G15KT 10SM SCT017 OVC027 22/19 A3001 RMK AO2 T02210190
KXLL,2026-04-13 10:55:00+00:00,2026-04-13 10:55:00+00:00,12.0,8.0,0.0,0.0,,10.0,1020.996585,MVFR,,"[{""cover"": ""OVC"", ""base_ft_agl"": 1400.0}]",METAR KXLL 131055Z AUTO 00000KT 10SM OVC014 12/08 A3015 RMK AO2 TSNO
KXNA,2026-04-13 10:53:00+00:00,2026-04-13 10:53:00+00:00,21.1,17.8,210.0,16.0,25.0,10.0,1015.917,MVFR,,"[{""cover"": ""OVC"", ""base_ft_agl"": 2000.0}]",METAR KXNA 131053Z 21016G25KT 10SM OVC020 21/18 A3000 RMK AO2 SLP146 T02110178
KXNI,2026-04-13 10:55:00+00:00,2026-04-13 10:55:00+00:00,7.0,2.0,260.0,4.0,,10.0,1018.964751,VFR,,,METAR KXNI 131055Z AUTO 26004KT 10SM CLR 07/02 A3009 RMK AO2
KXNO,2026-04-13 10:35:00+00:00,2026-04-13 10:35:00+00:00,12.0,11.0,0.0,0.0,,1.25,1026.753448,IFR,BR,,SPECI KXNO 131035Z AUTO 00000KT 1 1/4SM BR CLR 12/11 A3032 RMK AO2 VIS 7/8V4 SLP268 $
KXNX,2026-04-13 11:00:00+00:00,2026-04-13 11:00:00+00:00,20.0,14.0,0.0,0.0,,,1023.0284190000001,,,"[{""cover"": ""BKN"", ""base_ft_agl"": 7500.0}, {""cover"": ""OVC"", ""base_ft_agl"": 8500.0}]",METAR KXNX 131100Z AUTO 00000KT BKN075 OVC085 20/14 A3021 RMK A01
KXSA,2026-04-13 10:55:00+00:00,2026-04-13 10:55:00+00:00,16.2,16.0,190.0,5.0,,10.0,1024.382975,MVFR,,"[{""cover"": ""BKN"", ""base_ft_agl"": 1500.0}, {""cover"": ""BKN"", ""base_ft_agl"": 1900.0}]",METAR KXSA 131055Z AUTO 19005KT 10SM BKN015 BKN019 16/16 A3025 RMK AO2 T01620160
KXVG,2026-04-13 10:53:00+00:00,2026-04-13 10:53:00+00:00,6.0,5.0,0.0,0.0,,10.0,1008.466942,IFR,,"[{""cover"": ""BKN"", ""base_ft_agl"": 800.0}, {""cover"": ""OVC"", ""base_ft_agl"": 1200.0}]",METAR KXVG 131053Z AUTO 00000KT 10SM BKN008 OVC012 06/05 A2978 RMK AO2
KXWA,2026-04-13 10:51:00+00:00,2026-04-13 10:51:00+00:00,0.6,0.0,90.0,9.0,,3.0,1008.805581,LIFR,BR,"[{""cover"": ""OVC"", ""base_ft_agl"": 200.0}]",METAR KXWA 131051Z AUTO 09009KT 3SM BR OVC002 01/00 A2979 RMK AO2 SLP105 T00060000
KY19,2026-04-13 10:55:00+00:00,2026-04-13 10:55:00+00:00,5.0,5.0,50.0,7.0,,3.0,1008.805581,LIFR,BR,"[{""cover"": ""OVC"", ""base_ft_agl"": 400.0}]",METAR KY19 131055Z AUTO 05007KT 3SM BR OVC004 05/05 A2979 RMK AO2
KY23,2026-04-13 10:55:00+00:00,2026-04-13 10:55:00+00:00,8.6,8.2,0.0,0.0,,1.25,1007.4510250000001,IFR,BR,"[{""cover"": ""SCT"", ""base_ft_agl"": 7500.0}, {""cover"": ""BKN"", ""base_ft_agl"": 9000.0}]",METAR KY23 131055Z AUTO 00000KT 1 1/4SM BR SCT075 BKN090 09/08 A2975 RMK AO2 VIS 1/2V5 T00860082
KY31,2026-04-13 10:55:00+00:00,2026-04-13 10:55:00+00:00,13.8,13.5,240.0,8.0,,10.0,1005.75783,MVFR,,"[{""cover"": ""SCT"", ""base_ft_agl"": 700.0}, {""cover"": ""OVC"", ""base_ft_agl"": 1000.0}]",METAR KY31 131055Z AUTO 24008KT 10SM SCT007 OVC010 14/14 A2970 RMK AO2 T01380135
KY49,2026-04-13 10:55:00+00:00,2026-04-13 10:55:00+00:00,4.5,2.8,360.0,3.0,,7.0,1008.805581,LIFR,,"[{""cover"": ""OVC"", ""base_ft_agl"": 400.0}]",METAR KY49 131055Z AUTO 36003KT 7SM OVC004 05/03 A2979 RMK AO2 T00450028
KY50,2026-04-13 10:56:00+00:00,2026-04-13 10:56:00+00:00,15.0,13.9,230.0,5.0,,10.0,1007.4510250000001,VFR,,,METAR KY50 131056Z AUTO 23005KT 10SM CLR 15/14 A2975 RMK AO2 SLP071 T01500139
KY51,2026-04-13 10:55:00+00:00,2026-04-13 10:55:00+00:00,14.2,14.2,220.0,3.0,,7.0,1008.805581,VFR,,,METAR KY51 131055Z AUTO 22003KT 7SM CLR 14/14 A2979 RMK AO1 T01420142
KY63,2026-04-13 10:55:00+00:00,2026-04-13 10:55:00+00:00,8.0,7.0,350.0,4.0,,10.0,1008.805581,IFR,,"[{""cover"": ""OVC"", ""base_ft_agl"": 500.0}]",METAR KY63 131055Z AUTO 35004KT 10SM OVC005 08/07 A2979 RMK AO2 T00800070
KY70,2026-04-13 10:55:00+00:00,2026-04-13 10:55:00+00:00,15.0,15.0,240.0,12.0,,4.0,1009.821498,IFR,BR,"[{""cover"": ""OVC"", ""base_ft_agl"": 600.0}]",METAR KY70 131055Z AUTO 24012KT 4SM BR OVC006 15/15 A2982 RMK AO2 P0001
KYIP,2026-04-13 10:53:00+00:00,2026-04-13 10:53:00+00:00,17.8,14.4,250.0,14.0,24.0,10.0,1011.176054,MVFR,,"[{""cover"": ""BKN"", ""base_ft_agl"": 2500.0}, {""cover"": ""BKN"", ""base_ft_agl"": 3000.0}, {""cover"": ""OVC"", ""base_ft_agl"": 3900.0}]",METAR KYIP 131053Z AUTO 25014G24KT 10SM BKN025 BKN030 OVC039 18/14 A2986 RMK AO2 PK WND 23033/0955 RAE0954 SLP105 P0000 T01780144
KYKM,2026-04-13 10:53:00+00:00,2026-04-13 10:53:00+00:00,7.2,2.8,330.0,5.0,,10.0,1008.466942,VFR,,,METAR KYKM 131053Z AUTO 33005KT 10SM CLR 07/03 A2978 RMK AO2 SLP086 T00720028 $
KYKN,2026-04-13 10:56:00+00:00,2026-04-13 10:56:00+00:00,10.6,5.6,90.0,3.0,,10.0,1005.4191910000001,VFR,,,METAR KYKN 131056Z AUTO 09003KT 10SM CLR 11/06 A2969 RMK AO2 SLP061 T01060056
KYNG,2026-04-13 10:51:00+00:00,2026-04-13 10:51:00+00:00,20.0,9.4,220.0,19.0,30.0,10.0,1013.885166,VFR,-RA,"[{""cover"": ""FEW"", ""base_ft_agl"": 5000.0}, {""cover"": ""BKN"", ""base_ft_agl"": 10000.0}, {""cover"": ""OVC"", ""base_ft_agl"": 19000.0}]",METAR KYNG 131051Z 22019G30KT 10SM -RA FEW050 BKN100 OVC190 20/09 A2994 RMK AO2 PK WND 19030/1048 SLP133 RAB14 P0000 T02000094 $
KZER,2026-04-13 10:55:00+00:00,2026-04-13 10:55:00+00:00,9.0,9.0,160.0,8.0,,5.0,1019.980668,LIFR,BR,"[{""cover"": ""OVC"", ""base_ft_agl"": 300.0}]",METAR KZER 131055Z AUTO 16008KT 5SM BR OVC003 09/09 A3012 RMK AO2
KZPH,2026-04-13 10:55:00+00:00,2026-04-13 10:55:00+00:00,12.7,12.0,30.0,3.0,,10.0,1025.737531,VFR,,,METAR KZPH 131055Z AUTO 03003KT 10SM CLR 13/12 A3029 RMK A02 T0127////
KZZV,2026-04-13 10:53:00+00:00,2026-04-13 10:53:00+00:00,22.2,8.9,250.0,19.0,30.0,10.0,1017.271556,VFR,,"[{""cover"": ""OVC"", ""base_ft_agl"": 6000.0}]",METAR KZZV 131053Z AUTO 25019G30KT 10SM OVC060 22/09 A3004 RMK AO2 PK WND 24030/1053 SLP165 T02220089
PAAD,2026-04-13 10:55:00+00:00,2026-04-13 10:55:00+00:00,-13.8,-15.1,80.0,3.0,,10.0,1015.239722,IFR,,"[{""cover"": ""OVC"", ""base_ft_agl"": 600.0}]",METAR PAAD 131055Z AUTO 08003KT 10SM OVC006 M14/M15 A2998 RMK AO2 T11381151 FZRANO
PAAK,2026-04-13 10:56:00+00:00,2026-04-13 10:56:00+00:00,5.0,4.4,180.0,10.0,16.0,10.0,1018.2874730000001,IFR,-RA,"[{""cover"": ""OVC"", ""base_ft_agl"": 800.0}]",METAR PAAK 131056Z AUTO 18010G16KT 10SM -RA OVC008 05/04 A3007 RMK AO2 SLP181 T00500044 TSNO PNO $
PAAQ,2026-04-13 10:53:00+00:00,2026-04-13 10:53:00+00:00,1.1,-0.6,350.0,4.0,,10.0,999.3236890000001,VFR,,"[{""cover"": ""OVC"", ""base_ft_agl"": 6000.0}]",METAR PAAQ 131053Z AUTO 35004KT 10SM OVC060 01/M01 A2951 RMK AO2 SLP998 T00111006 TSNO $
PABA,2026-04-13 10:56:00+00:00,2026-04-13 10:56:00+00:00,-13.3,-15.0,80.0,4.0,,10.0,1014.223805,IFR,,"[{""cover"": ""OVC"", ""base_ft_agl"": 900.0}]",METAR PABA 131056Z AUTO 08004KT 10SM OVC009 M13/M15 A2995 RMK AO2 SNE40 SLP163 P0000 T11331150 FZRANO TSNO
PABE,2026-04-13 10:53:00+00:00,2026-04-13 10:53:00+00:00,-7.8,-8.3,300.0,13.0,,10.0,1015.239722,VFR,,,METAR PABE 131053Z 30013KT 10SM CLR M08/M08 A2998 RMK AO2 SLP156 T10781083 $
PABI,2026-04-13 10:53:00+00:00,2026-04-13 10:53:00+00:00,-1.1,-2.2,290.0,10.0,,7.0,1000.339606,VFR,-SN,,METAR PABI 131053Z AUTO 29010KT 7SM -SN M01/M02 A2954 RMK AO2 SNE15B44 SLP028 P0000 T10111022 TSNO $
PABL,2026-04-13 10:56:00+00:00,2026-04-13 10:56:00+00:00,-6.1,-6.7,0.0,4.0,,10.0,1013.885166,MVFR,,"[{""cover"": ""SCT"", ""base_ft_agl"": 700.0}, {""cover"": ""BKN"", ""base_ft_agl"": 2100.0}, {""cover"": ""OVC"", ""base_ft_agl"": 4200.0}]",METAR PABL 131056Z AUTO VRB04KT 10SM SCT007 BKN021 OVC042 M06/M07 A2994 RMK AO2 SLP141 T10611067 FZRANO
PABR,2026-04-13 10:53:00+00:00,2026-04-13 10:53:00+00:00,-11.7,-13.9,30.0,6.0,,10.0,1017.948834,VFR,,"[{""cover"": ""OVC"", ""base_ft_agl"": 5000.0}]",METAR PABR 131053Z AUTO 03006KT 10SM OVC050 M12/M14 A3006 RMK AO2 SLP182 T11171139 TSNO $
PABT,2026-04-13 10:53:00+00:00,2026-04-13 10:53:00+00:00,-1.1,-7.8,340.0,4.0,,10.0,1006.0964690000001,VFR,,"[{""cover"": ""BKN"", ""base_ft_agl"": 7000.0}]",METAR PABT 131053Z 34004KT 10SM BKN070 M01/M08 A2971 RMK AO2 SLP074 T10111078 PNO $
PABV,2026-04-13 10:56:00+00:00,2026-04-13 10:56:00+00:00,1.1,-2.2,200.0,7.0,,10.0,1000.6782450000001,VFR,,"[{""cover"": ""BKN"", ""base_ft_agl"": 5500.0}, {""cover"": ""OVC"", ""base_ft_agl"": 8500.0}]",METAR PABV 131056Z AUTO 20007KT 10SM BKN055 OVC085 01/M02 A2955 RMK AO2 SLP008 T00111022 FZRANO $
PACD,2026-04-13 10:53:00+00:00,2026-04-13 10:53:00+00:00,-0.6,-2.8,290.0,11.0,,10.0,1020.996585,MVFR,,"[{""cover"": ""OVC"", ""base_ft_agl"": 3000.0}]",METAR PACD 131053Z AUTO 29011KT 10SM OVC030 M01/M03 A3015 RMK AO2 SLP211 T10061028 TSNO $
PACV,2026-04-13 10:53:00+00:00,2026-04-13 10:53:00+00:00,-1.1,-1.7,0.0,0.0,,10.0,997.9691329999999,VFR,,"[{""cover"": ""OVC"", ""base_ft_agl"": 21000.0}]",METAR PACV 131053Z 00000KT 10SM OVC210 M01/M02 A2947 RMK AO2 SLP980 I1000 T10111017
PACX,2026-04-13 10:56:00+00:00,2026-04-13 10:56:00+00:00,-2.2,-8.3,10.0,15.0,,10.0,1005.4191910000001,VFR,,"[{""cover"": ""OVC"", ""base_ft_agl"": 7500.0}]",METAR PACX 131056Z AUTO 01015KT 10SM OVC075 M02/M08 A2969 RMK AO2 SLP685 T10221083 FZRANO
PACZ,2026-04-13 10:55:00+00:00,2026-04-13 10:55:00+00:00,-6.9,-7.7,0.0,0.0,,1.25,1016.2556390000001,LIFR,BR,"[{""cover"": ""OVC"", ""base_ft_agl"": 300.0}]",METAR PACZ 131055Z AUTO 00000KT 1 1/4SM BR OVC003 M07/M08 A3001 RMK AO2 SLP175 T10691077;
PADE,2026-04-13 10:53:00+00:00,2026-04-13 10:53:00+00:00,-5.0,-6.1,270.0,22.0,28.0,10.0,1014.223805,IFR,UP,"[{""cover"": ""OVC"", ""base_ft_agl"": 700.0}]",METAR PADE 131053Z AUTO 27022G28KT 10SM UP OVC007 M05/M06 A2995 RMK AO2 PK WND 27030/0955 UPB53 SLP143 P0000 T10501061 TSNO $
PADK,2026-04-13 10:56:00+00:00,2026-04-13 10:56:00+00:00,6.1,4.4,,,,10.0,1013.546527,MVFR,-RA,"[{""cover"": ""OVC"", ""base_ft_agl"": 1200.0}]",METAR PADK 131056Z AUTO 10SM -RA OVC012 06/04 A2993 RMK AO2 SLP134 P0000 T00610044 $
PADL,2026-04-13 10:56:00+00:00,2026-04-13 10:56:00+00:00,-2.8,-6.1,280.0,5.0,,10.0,1011.853332,VFR,,"[{""cover"": ""SCT"", ""base_ft_agl"": 7500.0}]",METAR PADL 131056Z AUTO 28005KT 10SM SCT075 M03/M06 A2988 RMK AO2 SLP123 T10281061 FZRANO $
PADM,2026-04-13 10:56:00+00:00,2026-04-13 10:56:00+00:00,-2.2,-3.3,320.0,7.0,,10.0,1016.594278,MVFR,,"[{""cover"": ""OVC"", ""base_ft_agl"": 2100.0}]",METAR PADM 131056Z AUTO 32007KT 10SM OVC021 M02/M03 A3002 RMK AO2 SLP170 T10221033 FZRANO
PADQ,2026-04-13 10:53:00+00:00,2026-04-13 10:53:00+00:00,0.0,-7.8,260.0,11.0,24.0,10.0,1005.4191910000001,VFR,,"[{""cover"": ""SCT"", ""base_ft_agl"": 4800.0}, {""cover"": ""SCT"", ""base_ft_agl"": 6000.0}]",METAR PADQ 131053Z 26011G24KT 10SM SCT048 SCT060 00/M08 A2969 RMK AO2 PK WND 28026/1034 SNB02E13 SLP055 P0000 T00001078 $
PADU,2026-04-13 10:56:00+00:00,2026-04-13 10:56:00+00:00,2.8,0.0,0.0,0.0,,10.0,1023.367058,VFR,,,METAR PADU 131056Z AUTO 00000KT 10SM CLR 03/00 A3022 RMK AO2 SLP233 T00280000
PAEG,2026-04-13 10:53:00+00:00,2026-04-13 10:53:00+00:00,0.6,-2.8,290.0,4.0,,10.0,998.646411,VFR,,"[{""cover"": ""OVC"", ""base_ft_agl"": 4600.0}]",METAR PAEG 131053Z AUTO 29004KT 10SM OVC046 01/M03 A2949 RMK AO2 SLP995 T00061028 TSNO $
PAEH,2026-04-13 10:55:00+00:00,2026-04-13 10:55:00+00:00,-2.9,-4.4,340.0,23.0,,10.0,1015.578361,IFR,,"[{""cover"": ""OVC"", ""base_ft_agl"": 800.0}]",METAR PAEH 131055Z AUTO 34023KT 280V050 10SM OVC008 M03/M04 A2999 RMK AO2 PK WND 34030/1027 SLP167 T10291044 $;
PAEI,2026-04-13 10:55:00+00:00,2026-04-13 10:55:00+00:00,0.7,-0.3,290.0,4.0,,3.0,1001.3555230000001,MVFR,-SN,"[{""cover"": ""OVC"", ""base_ft_agl"": 4400.0}]",METAR PAEI 131055Z 29004KT 3SM -SN OVC044 01/M00 A2957 RMK AO2A SLP022 T00071003 CHINO RWY14 $
PAEM,2026-04-13 10:56:00+00:00,2026-04-13 10:56:00+00:00,,,,,,10.0,1016.9329170000001,MVFR,-SN,"[{""cover"": ""OVC"", ""base_ft_agl"": 2800.0}]",METAR PAEM 131056Z AUTO 10SM -SN OVC028 A3003 RMK AO2 SNB29 SLPNO P0000 FZRANO $
PAEN,2026-04-13 10:53:00+00:00,2026-04-13 10:53:00+00:00,1.1,-5.0,260.0,5.0,,10.0,1001.016884,VFR,,"[{""cover"": ""OVC"", ""base_ft_agl"": 6500.0}]",METAR PAEN 131053Z AUTO 26005KT 10SM OVC065 01/M05 A2956 RMK AO2 SLP013 T00111050
PAFA,2026-04-13 10:53:00+00:00,2026-04-13 10:53:00+00:00,1.1,-1.1,350.0,6.0,,9.0,1002.3714400000001,VFR,-SN,"[{""cover"": ""BKN"", ""base_ft_agl"": 5000.0}, {""cover"": ""OVC"", ""base_ft_agl"": 7000.0}]",METAR PAFA 131053Z 35006KT 9SM -SN BKN050 OVC070 01/M01 A2960 RMK AO2 SLP032 PCPN VRY LGT T00111011 $
PAFB,2026-04-13 10:55:00+00:00,2026-04-13 10:55:00+00:00,1.9,-0.2,290.0,5.0,,10.0,1002.0328010000001,VFR,,"[{""cover"": ""FEW"", ""base_ft_agl"": 3400.0}, {""cover"": ""BKN"", ""base_ft_agl"": 5000.0}, {""cover"": ""OVC"", ""base_ft_agl"": 7000.0}]",METAR PAFB 131055Z 29005KT 10SM FEW034 BKN050 OVC070 02/M00 A2959 RMK AO2A SLP029 T00191002
PAFM,2026-04-13 10:56:00+00:00,2026-04-13 10:56:00+00:00,-2.2,-8.3,10.0,5.0,,10.0,1010.498776,VFR,,,METAR PAFM 131056Z AUTO 01005KT 10SM CLR M02/M08 A2984 RMK AO2 SLP110 T10221083 FZRANO $
PAFR,2026-04-13 10:55:00+00:00,2026-04-13 10:55:00+00:00,1.0,-1.2,210.0,3.0,,10.0,1000.0009670000001,MVFR,,"[{""cover"": ""BKN"", ""base_ft_agl"": 3000.0}, {""cover"": ""OVC"", ""base_ft_agl"": 3500.0}]",METAR PAFR 131055Z AUTO 21003KT 10SM BKN030 OVC035 01/M01 A2953 RMK AO2 SLP005 T00101012 $
PAFS,2026-04-13 11:01:00+00:00,2026-04-13 11:01:00+00:00,,,310.0,4.0,,10.0,1007.112386,VFR,-RA,"[{""cover"": ""BKN"", ""base_ft_agl"": 4600.0}, {""cover"": ""BKN"", ""base_ft_agl"": 6000.0}]",METAR PAFS 131101Z AUTO 31004KT 10SM -RA BKN046 BKN060 A2974 RMK AO2 RAB1057 SLPNO P0000 FZRANO $
PAGA,2026-04-13 10:56:00+00:00,2026-04-13 10:56:00+00:00,-1.7,-3.9,300.0,7.0,,10.0,1010.160137,VFR,,"[{""cover"": ""FEW"", ""base_ft_agl"": 4000.0}]",METAR PAGA 131056Z AUTO 30007KT 10SM FEW040 M02/M04 A2983 RMK AO2 SLP106 T10171039 FZRANO TSNO
PAGH,2026-04-13 10:56:00+00:00,2026-04-13 10:56:00+00:00,-4.4,-7.2,270.0,5.0,,10.0,1009.482859,VFR,,,METAR PAGH 131056Z AUTO 27005KT 10SM CLR M04/M07 A2981 RMK AO2 SLP099 T10441072 FZRANO
PAGK,2026-04-13 10:53:00+00:00,2026-04-13 10:53:00+00:00,-1.1,-3.3,330.0,5.0,,10.0,996.614577,VFR,,"[{""cover"": ""OVC"", ""base_ft_agl"": 7000.0}]",METAR PAGK 131053Z AUTO 33005KT 10SM OVC070 M01/M03 A2943 RMK AO2 SLP992 T10111033 TSNO $
PAGL,2026-04-13 11:04:00+00:00,2026-04-13 11:04:00+00:00,-8.0,-9.0,330.0,9.0,,10.0,1016.2556390000001,VFR,,"[{""cover"": ""SCT"", ""base_ft_agl"": 1600.0}, {""cover"": ""SCT"", ""base_ft_agl"": 2400.0}]",SPECI PAGL 131104Z AUTO 33009KT 10SM SCT016 SCT024 M08/M09 A3001 RMK AO2 FZRANO $
PAGM,2026-04-13 10:56:00+00:00,2026-04-13 10:56:00+00:00,-8.3,-11.1,30.0,19.0,,10.0,1024.382975,MVFR,,"[{""cover"": ""OVC"", ""base_ft_agl"": 2400.0}]",METAR PAGM 131056Z AUTO 03019KT 10SM OVC024 M08/M11 A3025 RMK AO2 PK WND 02027/0957 SLP248 T10831111 FZRANO
PAGS,2026-04-13 10:56:00+00:00,2026-04-13 10:56:00+00:00,0.0,0.0,0.0,0.0,,10.0,1000.6782450000001,MVFR,UP,"[{""cover"": ""FEW"", ""base_ft_agl"": 1900.0}, {""cover"": ""OVC"", ""base_ft_agl"": 3000.0}]",METAR PAGS 131056Z AUTO 00000KT 10SM UP FEW019 OVC030 00/00 A2955 RMK AO2 UPB54 SLPNO P0001 T00000000 FZRANO $
PAGY,2026-04-13 10:53:00+00:00,2026-04-13 10:53:00+00:00,2.8,1.1,0.0,0.0,,10.0,998.307772,MVFR,-RA,"[{""cover"": ""OVC"", ""base_ft_agl"": 1700.0}]",METAR PAGY 131053Z AUTO 00000KT 10SM -RA OVC017 03/01 A2948 RMK AO2 WSHFT 0942 RAB08SNE08 SLP982 P0006 T00280011 TSNO $
PAHC,2026-04-13 09:56:00+00:00,2026-04-13 09:56:00+00:00,-1.7,-5.0,0.0,0.0,,10.0,1012.53061,VFR,,,METAR PAHC 130956Z AUTO 00000KT 10SM CLR M02/M05 A2990 RMK AO2 SLP128 T10171050 FZRANO
PAHL,2026-04-13 10:56:00+00:00,2026-04-13 10:56:00+00:00,-3.3,-4.4,310.0,5.0,,10.0,1009.14422,VFR,,,METAR PAHL 131056Z AUTO 31005KT 10SM CLR M03/M04 A2980 RMK AO2 SLP095 T10331044 FZRANO TSNO $
PAHN,2026-04-13 11:01:00+00:00,2026-04-13 11:01:00+00:00,2.8,1.1,70.0,9.0,18.0,10.0,998.646411,MVFR,,"[{""cover"": ""BKN"", ""base_ft_agl"": 1200.0}, {""cover"": ""BKN"", ""base_ft_agl"": 3800.0}, {""cover"": ""OVC"", ""base_ft_agl"": 4600.0}]",SPECI PAHN 131101Z AUTO 07009G18KT 10SM BKN012 BKN038 OVC046 03/01 A2949 RMK AO2 T00280011 TSNO $
PAHO,2026-04-13 10:53:00+00:00,2026-04-13 10:53:00+00:00,0.0,-3.3,0.0,0.0,,10.0,1002.0328010000001,VFR,,"[{""cover"": ""OVC"", ""base_ft_agl"": 6500.0}]",METAR PAHO 131053Z AUTO 00000KT 10SM OVC065 00/M03 A2959 RMK AO2 SLP021 T00001033 TSNO
PAHP,2026-04-13 10:56:00+00:00,2026-04-13 10:56:00+00:00,-5.6,-6.1,320.0,18.0,,10.0,1018.964751,IFR,,"[{""cover"": ""OVC"", ""base_ft_agl"": 700.0}]",METAR PAHP 131056Z AUTO 32018KT 10SM OVC007 M06/M06 A3009 RMK AO2 SLP188 T10561061 FZRANO
PAHX,2026-04-13 11:02:00+00:00,2026-04-13 11:02:00+00:00,-5.6,-6.7,270.0,3.0,,10.0,1012.8692490000001,VFR,,,METAR PAHX 131102Z AUTO 27003KT 10SM CLR M06/M07 A2991 RMK AO2 SLP131 T10561067 FZRANO
PAHY,2026-04-13 10:56:00+00:00,2026-04-13 10:56:00+00:00,2.2,0.6,220.0,3.0,,,1007.4510250000001,,,"[{""cover"": ""FEW"", ""base_ft_agl"": 2200.0}, {""cover"": ""BKN"", ""base_ft_agl"": 3600.0}, {""cover"": ""OVC"", ""base_ft_agl"": 9500.0}]",METAR PAHY 131056Z AUTO 22003KT FEW022 BKN036 OVC095 02/01 A2975 RMK AO2 SLP071 P0003 T00220006 PWINO FZRANO $
PAIG,2026-04-13 10:56:00+00:00,2026-04-13 10:56:00+00:00,-1.1,-3.9,270.0,10.0,,10.0,1009.482859,VFR,,"[{""cover"": ""OVC"", ""base_ft_agl"": 7500.0}]",METAR PAIG 131056Z AUTO 27010KT 10SM OVC075 M01/M04 A2981 RMK AO2 SLP104 T10111039 FZRANO
PAII,2026-04-13 10:56:00+00:00,2026-04-13 10:56:00+00:00,-3.3,-3.9,290.0,8.0,,10.0,1012.8692490000001,VFR,,"[{""cover"": ""SCT"", ""base_ft_agl"": 900.0}]",METAR PAII 131056Z AUTO 29008KT 10SM SCT009 M03/M04 A2991 RMK AO2 SLP125 T10331039 FZRANO
PAIK,2026-04-13 10:56:00+00:00,2026-04-13 10:56:00+00:00,-5.6,-6.7,320.0,4.0,,10.0,1012.8692490000001,VFR,,,METAR PAIK 131056Z AUTO 32004KT 10SM CLR M06/M07 A2991 RMK AO2 SLP129 T10561067 FZRANO
PAIL,2026-04-13 10:53:00+00:00,2026-04-13 10:53:00+00:00,-0.6,-6.1,300.0,11.0,21.0,10.0,1007.4510250000001,VFR,,"[{""cover"": ""OVC"", ""base_ft_agl"": 7500.0}]",METAR PAIL 131053Z AUTO 30011G21KT 10SM OVC075 M01/M06 A2975 RMK AO2 SLP079 T10061061 TSNO
PAIN,2026-04-13 10:56:00+00:00,2026-04-13 10:56:00+00:00,-2.2,-3.9,0.0,0.0,,4.0,1002.0328010000001,MVFR,-SN BR,"[{""cover"": ""OVC"", ""base_ft_agl"": 3700.0}]",METAR PAIN 131056Z AUTO 00000KT 4SM -SN BR OVC037 M02/M04 A2959 RMK AO2 SLP046 P0000 T10221039 FZRANO TSNO $
PAIW,2026-04-13 10:56:00+00:00,2026-04-13 10:56:00+00:00,-9.4,-9.4,360.0,18.0,24.0,1.0,1022.68978,IFR,BR UP,"[{""cover"": ""OVC"", ""base_ft_agl"": 1200.0}]",METAR PAIW 131056Z AUTO 36018G24KT 1SM UP BR OVC012 M09/M09 A3020 RMK AO2 UPB09E17B33SNE09B17E33B44E53 SLP226 P0000 T10941094 FZRANO
PAJC,2026-04-13 09:56:00+00:00,2026-04-13 09:56:00+00:00,-0.6,-4.4,260.0,20.0,26.0,7.0,1015.917,MVFR,-SN,"[{""cover"": ""OVC"", ""base_ft_agl"": 2400.0}]",METAR PAJC 130956Z AUTO 26020G26KT 7SM -SN OVC024 M01/M04 A3000 RMK AO2 PK WND 24033/0941 SLPNO P0000 T10061044 FZRANO
PAJN,2026-04-13 10:53:00+00:00,2026-04-13 10:53:00+00:00,1.1,0.6,60.0,7.0,,10.0,1001.016884,MVFR,,"[{""cover"": ""SCT"", ""base_ft_agl"": 600.0}, {""cover"": ""BKN"", ""base_ft_agl"": 2500.0}, {""cover"": ""OVC"", ""base_ft_agl"": 5500.0}]",METAR PAJN 131053Z 06007KT 10SM SCT006 BKN025 OVC055 01/01 A2956 RMK AO2 RAE30 SLP011 P0000 T00110006 $
PAKH,2026-04-13 11:06:00+00:00,2026-04-13 11:06:00+00:00,,,320.0,18.0,26.0,,1010.160137,,,"[{""cover"": ""SCT"", ""base_ft_agl"": 1900.0}, {""cover"": ""SCT"", ""base_ft_agl"": 3700.0}]",SPECI PAKH 131106Z AUTO 32018G26KT SCT019 SCT037 A2983 RMK AO2 PK WND 32026/1103 PWINO FZRANO $
PAKI,2026-04-13 10:56:00+00:00,2026-04-13 10:56:00+00:00,-2.8,-3.3,340.0,15.0,,10.0,1018.2874730000001,MVFR,,"[{""cover"": ""OVC"", ""base_ft_agl"": 2700.0}]",METAR PAKI 131056Z AUTO 34015KT 10SM OVC027 M03/M03 A3007 RMK AO2 SLP185 T10281033 FZRANO
PAKK,2026-04-13 10:56:00+00:00,2026-04-13 10:56:00+00:00,-3.3,-5.0,340.0,8.0,14.0,10.0,1012.53061,MVFR,,"[{""cover"": ""OVC"", ""base_ft_agl"": 1200.0}]",METAR PAKK 131056Z AUTO 34008G14KT 10SM OVC012 M03/M05 A2990 RMK AO2 SLP135 T10331050 FZRANO $
PAKN,2026-04-13 10:54:00+00:00,2026-04-13 10:54:00+00:00,-1.7,-3.9,290.0,8.0,,10.0,1009.821498,VFR,,"[{""cover"": ""FEW"", ""base_ft_agl"": 5000.0}, {""cover"": ""OVC"", ""base_ft_agl"": 7000.0}]",METAR PAKN 131054Z 29008KT 10SM FEW050 OVC070 M02/M04 A2982 RMK AO2 SLP100 T10171039
PAKP,2026-04-13 10:56:00+00:00,2026-04-13 10:56:00+00:00,-10.6,-12.2,50.0,11.0,,9.0,1008.128303,VFR,-SN,"[{""cover"": ""FEW"", ""base_ft_agl"": 2500.0}, {""cover"": ""SCT"", ""base_ft_agl"": 3500.0}, {""cover"": ""OVC"", ""base_ft_agl"": 4800.0}]",METAR PAKP 131056Z AUTO 05011KT 9SM -SN FEW025 SCT035 OVC048 M11/M12 A2977 RMK AO2 SLP133 P0000 T11061122 FZRANO $
PAKT,2026-04-13 10:53:00+00:00,2026-04-13 10:53:00+00:00,3.3,1.1,290.0,9.0,,3.0,1006.7737470000001,MVFR,BR,"[{""cover"": ""BKN"", ""base_ft_agl"": 2200.0}, {""cover"": ""BKN"", ""base_ft_agl"": 2600.0}, {""cover"": ""OVC"", ""base_ft_agl"": 3700.0}]",METAR PAKT 131053Z AUTO 29009KT 3SM BR BKN022 BKN026 OVC037 03/01 A2973 RMK AO2 SLP070 T00330011 TSNO $
PAKV,2026-04-13 10:53:00+00:00,2026-04-13 10:53:00+00:00,1.1,-6.1,0.0,4.0,,10.0,1011.176054,VFR,,"[{""cover"": ""OVC"", ""base_ft_agl"": 4900.0}]",METAR PAKV 131053Z AUTO VRB04KT 10SM OVC049 01/M06 A2986 RMK AO2 SLP117 T00111061 TSNO $
PAKW,2026-04-13 10:53:00+00:00,2026-04-13 10:53:00+00:00,4.4,1.1,170.0,6.0,,10.0,1006.0964690000001,VFR,,"[{""cover"": ""SCT"", ""base_ft_agl"": 3200.0}, {""cover"": ""BKN"", ""base_ft_agl"": 3900.0}, {""cover"": ""OVC"", ""base_ft_agl"": 10000.0}]",METAR PAKW 131053Z AUTO 17006KT 10SM SCT032 BKN039 OVC100 04/01 A2971 RMK AO2 RAE10 SLP060 P0000 T00440011 TSNO
PAKX,2026-04-13 10:55:00+00:00,2026-04-13 10:55:00+00:00,0.0,-5.0,170.0,5.0,,10.0,1006.0964690000001,VFR,,"[{""cover"": ""OVC"", ""base_ft_agl"": 5000.0}]",METAR PAKX 131055Z AUTO 17005KT 10SM OVC050 00/M05 A2971 RMK AO2
PALG,2026-04-13 10:56:00+00:00,2026-04-13 10:56:00+00:00,-5.6,-6.7,0.0,0.0,,10.0,1013.546527,VFR,,"[{""cover"": ""FEW"", ""base_ft_agl"": 8000.0}]",METAR PALG 131056Z AUTO 00000KT 10SM FEW080 M06/M07 A2993 RMK AO2 SLP137 T10561067 FZRANO
PALH,2026-04-13 10:53:00+00:00,2026-04-13 10:53:00+00:00,1.1,-1.1,180.0,4.0,,10.0,1000.339606,VFR,,"[{""cover"": ""OVC"", ""base_ft_agl"": 6000.0}]",METAR PALH 131053Z AUTO 18004KT 10SM OVC060 01/M01 A2954 RMK AO2 SLP005 T00111011 TSNO $
PALU,2026-04-13 10:55:00+00:00,2026-04-13 10:55:00+00:00,-1.0,-1.6,20.0,2.0,,10.0,1019.30339,IFR,-SN,"[{""cover"": ""OVC"", ""base_ft_agl"": 700.0}]",METAR PALU 131055Z AUTO 02002KT 10SM -SN OVC007 M01/M02 A3010 RMK AO2 SNB1049 SLP194 P0000 T10101016;
PAMB,2026-04-13 10:56:00+00:00,2026-04-13 10:56:00+00:00,-2.8,-5.6,280.0,7.0,,10.0,1012.53061,VFR,,,METAR PAMB 131056Z AUTO 28007KT 10SM CLR M03/M06 A2990 RMK AO2 SLP129 T10281056 FZRANO
PAMC,2026-04-13 10:53:00+00:00,2026-04-13 10:53:00+00:00,-0.6,-3.9,280.0,4.0,,10.0,1008.128303,VFR,,"[{""cover"": ""FEW"", ""base_ft_agl"": 2900.0}, {""cover"": ""OVC"", ""base_ft_agl"": 5000.0}]",METAR PAMC 131053Z AUTO 28004KT 10SM FEW029 OVC050 M01/M04 A2977 RMK AO2 SLP088 T10061039 TSNO
PAMD,2026-04-13 10:56:00+00:00,2026-04-13 10:56:00+00:00,2.2,0.0,30.0,5.0,,10.0,997.6304940000001,MVFR,,"[{""cover"": ""OVC"", ""base_ft_agl"": 2800.0}]",METAR PAMD 131056Z AUTO 03005KT 10SM OVC028 02/00 A2946 RMK AO2 SLP976 T00220000 FZRANO $
PAMH,2026-04-13 10:56:00+00:00,2026-04-13 10:56:00+00:00,-1.1,-3.3,0.0,0.0,,10.0,1005.4191910000001,VFR,,"[{""cover"": ""OVC"", ""base_ft_agl"": 4700.0}]",METAR PAMH 131056Z AUTO 00000KT 10SM OVC047 M01/M03 A2969 RMK AO2 SLP901 T10111033 FZRANO $
PAMK,2026-04-13 10:56:00+00:00,2026-04-13 10:56:00+00:00,-2.8,-3.3,320.0,9.0,,10.0,1014.901083,VFR,,"[{""cover"": ""SCT"", ""base_ft_agl"": 300.0}, {""cover"": ""OVC"", ""base_ft_agl"": 3800.0}]",METAR PAMK 131056Z AUTO 32009KT 10SM SCT003 OVC038 M03/M03 A2997 RMK AO2 SLPNO T10281033 PWINO FZRANO
PAMR,2026-04-13 10:53:00+00:00,2026-04-13 10:53:00+00:00,1.1,-1.1,180.0,3.0,,10.0,1000.339606,VFR,,"[{""cover"": ""OVC"", ""base_ft_agl"": 6000.0}]",METAR PAMR 131053Z 18003KT 10SM OVC060 01/M01 A2954 RMK AO2 SLP004 T00111011
PANC,2026-04-13 10:53:00+00:00,2026-04-13 10:53:00+00:00,1.1,-1.7,190.0,8.0,22.0,10.0,1000.339606,VFR,,"[{""cover"": ""BKN"", ""base_ft_agl"": 6000.0}]",METAR PANC 131053Z 19008G22KT 10SM BKN060 01/M02 A2954 RMK AO2 SLP004 T00111017 $
PANI,2026-04-13 10:56:00+00:00,2026-04-13 10:56:00+00:00,-6.1,-6.7,0.0,0.0,,10.0,1012.53061,VFR,,,METAR PANI 131056Z AUTO 00000KT 10SM CLR M06/M07 A2990 RMK AO2 SLP129 T10611067 FZRANO $
PANN,2026-04-13 11:02:00+00:00,2026-04-13 11:02:00+00:00,0.0,-0.6,310.0,5.0,,3.0,1002.7100790000001,IFR,-SN BR,"[{""cover"": ""OVC"", ""base_ft_agl"": 500.0}]",SPECI PANN 131102Z AUTO 31005KT 3SM -SN BR OVC005 00/M01 A2961 RMK AO2 P0000 T00001006 TSNO $
PANU,2026-04-13 10:56:00+00:00,2026-04-13 10:56:00+00:00,-1.1,-4.4,340.0,9.0,,10.0,1011.176054,VFR,,"[{""cover"": ""SCT"", ""base_ft_agl"": 4900.0}, {""cover"": ""BKN"", ""base_ft_agl"": 8000.0}]",METAR PANU 131056Z AUTO 34009KT 10SM SCT049 BKN080 M01/M04 A2986 RMK AO2 SLP024 T10111044 FZRANO
PANV,2026-04-13 10:56:00+00:00,2026-04-13 10:56:00+00:00,-2.8,-5.0,300.0,6.0,,10.0,1012.1919710000001,VFR,,,METAR PANV 131056Z AUTO 30006KT 10SM CLR M03/M05 A2989 RMK AO2 SLP219 T10281050 FZRANO TSNO
PANW,2026-04-13 10:56:00+00:00,2026-04-13 10:56:00+00:00,-2.8,-6.7,300.0,7.0,,10.0,1011.176054,VFR,,"[{""cover"": ""OVC"", ""base_ft_agl"": 8000.0}]",METAR PANW 131056Z AUTO 30007KT 10SM OVC080 M03/M07 A2986 RMK AO2 SLP120 T10281067 FZRANO
PAOH,2026-04-13 10:56:00+00:00,2026-04-13 10:56:00+00:00,0.6,0.6,360.0,3.0,,10.0,1001.016884,VFR,,"[{""cover"": ""FEW"", ""base_ft_agl"": 3800.0}, {""cover"": ""BKN"", ""base_ft_agl"": 5500.0}, {""cover"": ""OVC"", ""base_ft_agl"": 7000.0}]",METAR PAOH 131056Z AUTO 36003KT 10SM FEW038 BKN055 OVC070 01/01 A2956 RMK AO2 SLP010 T00060006 FZRANO $
PAOM,2026-04-13 10:53:00+00:00,2026-04-13 10:53:00+00:00,-5.0,-9.4,350.0,16.0,,10.0,1016.594278,VFR,,"[{""cover"": ""BKN"", ""base_ft_agl"": 8000.0}, {""cover"": ""OVC"", ""base_ft_agl"": 10000.0}]",METAR PAOM 131053Z AUTO 35016KT 10SM BKN080 OVC100 M05/M09 A3002 RMK AO2 SLP166 T10501094 TSNO
PAOO,2026-04-13 10:56:00+00:00,2026-04-13 10:56:00+00:00,-3.3,-5.0,330.0,15.0,,10.0,1018.964751,IFR,,"[{""cover"": ""OVC"", ""base_ft_agl"": 900.0}]",METAR PAOO 131056Z AUTO 33015KT 10SM OVC009 M03/M05 A3009 RMK AO2 SLP195 T10331050 FZRANO TSNO $
PAOR,2026-04-13 11:00:00+00:00,2026-04-13 11:00:00+00:00,-1.7,-1.7,310.0,7.0,,,,,,"[{""cover"": ""BKN"", ""base_ft_agl"": 600.0}, {""cover"": ""BKN"", ""base_ft_agl"": 2200.0}]",SPECI PAOR 131100Z 31007KT BKN006 BKN022 M02/M02 RMK AO2 T10171017 $
PAOT,2026-04-13 10:53:00+00:00,2026-04-13 10:53:00+00:00,-6.1,-7.2,300.0,9.0,,10.0,1012.8692490000001,VFR,,"[{""cover"": ""SCT"", ""base_ft_agl"": 4200.0}]",METAR PAOT 131053Z AUTO 30009KT 10SM SCT042 M06/M07 A2991 RMK AO2 SLP129 T10611072 TSNO
PAOU,2026-04-13 10:56:00+00:00,2026-04-13 10:56:00+00:00,-2.2,-3.9,260.0,12.0,,10.0,1019.980668,MVFR,,"[{""cover"": ""OVC"", ""base_ft_agl"": 1900.0}]",METAR PAOU 131056Z AUTO 26012KT 10SM OVC019 M02/M04 A3012 RMK AO2 SLP199 T10221039 FZRANO
PAPB,2026-04-13 10:53:00+00:00,2026-04-13 10:53:00+00:00,-1.7,-3.9,70.0,4.0,,10.0,1022.012502,VFR,,,METAR PAPB 131053Z AUTO 07004KT 10SM CLR M02/M04 A3018 RMK AO2 SLP206 T10171039 TSNO $
PAPE,2026-04-13 10:56:00+00:00,2026-04-13 10:56:00+00:00,-1.1,-4.4,310.0,12.0,19.0,3.0,1017.271556,MVFR,-SN,"[{""cover"": ""OVC"", ""base_ft_agl"": 2500.0}]",METAR PAPE 131056Z AUTO 31012G19KT 3SM -SN OVC025 M01/M04 A3004 RMK AO2 SLP170 P0000 T10111044 FZRANO
PAPG,2026-04-13 10:56:00+00:00,2026-04-13 10:56:00+00:00,2.8,0.0,0.0,5.0,,10.0,1004.064635,MVFR,,"[{""cover"": ""FEW"", ""base_ft_agl"": 2200.0}, {""cover"": ""BKN"", ""base_ft_agl"": 2800.0}, {""cover"": ""OVC"", ""base_ft_agl"": 9500.0}]",METAR PAPG 131056Z AUTO VRB05KT 10SM FEW022 BKN028 OVC095 03/00 A2965 RMK AO2 RAE28UPB0958E03 SLP043 P0000 T00280000 TSNO $
PAPH,2026-04-13 10:56:00+00:00,2026-04-13 10:56:00+00:00,-1.7,-1.7,280.0,16.0,,4.0,1015.578361,IFR,-SN BR,"[{""cover"": ""OVC"", ""base_ft_agl"": 700.0}]",METAR PAPH 131056Z AUTO 28016KT 4SM -SN BR OVC007 M02/M02 A2999 RMK AO2 CIG 006V011 SLP157 P0000 T10171017 FZRANO
PAPM,2026-04-13 10:56:00+00:00,2026-04-13 10:56:00+00:00,-1.7,-2.2,340.0,14.0,,5.0,1015.578361,IFR,-SN BR,"[{""cover"": ""OVC"", ""base_ft_agl"": 700.0}]",METAR PAPM 131056Z AUTO 34014KT 5SM -SN BR OVC007 M02/M02 A2999 RMK AO2 CIG 005V009 SLP159 P0000 T10171022 FZRANO TSNO
PAPN,2026-04-13 10:56:00+00:00,2026-04-13 10:56:00+00:00,,,280.0,11.0,,10.0,1013.2078880000001,MVFR,,"[{""cover"": ""OVC"", ""base_ft_agl"": 1800.0}]",METAR PAPN 131056Z AUTO 28011KT 10SM OVC018 A2992 RMK AO2 SLPNO FZRANO $
PAPO,2026-04-13 10:56:00+00:00,2026-04-13 10:56:00+00:00,-7.8,-8.9,340.0,17.0,,,1019.30339,,,"[{""cover"": ""OVC"", ""base_ft_agl"": 1000.0}]",METAR PAPO 131056Z AUTO 34017KT OVC010 M08/M09 A3010 RMK AO2 SLP192 T10781089 PWINO FZRANO $
PAQH,2026-04-13 10:56:00+00:00,2026-04-13 10:56:00+00:00,-4.4,-4.4,310.0,7.0,,0.5,1016.2556390000001,LIFR,FZFG,"[{""cover"": ""OVC"", ""base_ft_agl"": 300.0}]",METAR PAQH 131056Z AUTO 31007KT 1/2SM FZFG OVC003 M04/M04 A3001 RMK AO2 SLP163 T10441044 FZRANO
PAQT,2026-04-13 10:53:00+00:00,2026-04-13 10:53:00+00:00,-9.4,-12.8,40.0,7.0,,10.0,1016.594278,MVFR,UP,"[{""cover"": ""OVC"", ""base_ft_agl"": 1100.0}]",METAR PAQT 131053Z AUTO 04007KT 10SM UP OVC011 M09/M13 A3002 RMK AO2 SLP167 P0000 T10941128 TSNO $
PARC,2026-04-13 10:56:00+00:00,2026-04-13 10:56:00+00:00,-9.4,-11.7,60.0,3.0,,10.0,1003.725996,VFR,,,METAR PARC 131056Z AUTO 06003KT 10SM CLR M09/M12 A2964 RMK AO2 SLP093 T10941117 FZRANO TSNO
PARS,2026-04-13 10:56:00+00:00,2026-04-13 10:56:00+00:00,-3.3,-5.0,250.0,4.0,,10.0,1014.223805,VFR,,,METAR PARS 131056Z AUTO 25004KT 10SM CLR M03/M05 A2995 RMK AO2 SLP144 T10331050 FZRANO $
PASA,2026-04-13 10:56:00+00:00,2026-04-13 10:56:00+00:00,-7.2,-8.3,10.0,8.0,,10.0,1024.382975,IFR,,"[{""cover"": ""OVC"", ""base_ft_agl"": 900.0}]",METAR PASA 131056Z AUTO 01008KT 10SM OVC009 M07/M08 A3025 RMK AO2 SLP244 T10721083 FZRANO
PASC,2026-04-13 10:53:00+00:00,2026-04-13 10:53:00+00:00,-12.8,-14.4,50.0,8.0,,10.0,1015.239722,IFR,,"[{""cover"": ""OVC"", ""base_ft_agl"": 700.0}]",METAR PASC 131053Z 05008KT 10SM OVC007 M13/M14 A2998 RMK AO2 SLP156 T11281144 $
PASD,2026-04-13 10:56:00+00:00,2026-04-13 10:56:00+00:00,-0.6,-5.6,310.0,12.0,,10.0,1019.980668,VFR,,,METAR PASD 131056Z AUTO 31012KT 10SM CLR M01/M06 A3012 RMK AO2 SLP203 T10061056 FZRANO $
PASH,2026-04-13 10:56:00+00:00,2026-04-13 10:56:00+00:00,-8.3,-9.4,320.0,23.0,,7.0,1019.30339,MVFR,-SN,"[{""cover"": ""BKN"", ""base_ft_agl"": 1100.0}, {""cover"": ""OVC"", ""base_ft_agl"": 2400.0}]",METAR PASH 131056Z AUTO 32023KT 7SM -SN BKN011 OVC024 M08/M09 A3010 RMK AO2 PK WND 32026/1000 SLP193 P0000 T10831094 FZRANO
PASI,2026-04-13 10:53:00+00:00,2026-04-13 10:53:00+00:00,,,190.0,5.0,,7.0,1002.3714400000001,VFR,,"[{""cover"": ""FEW"", ""base_ft_agl"": 1800.0}, {""cover"": ""BKN"", ""base_ft_agl"": 3100.0}, {""cover"": ""OVC"", ""base_ft_agl"": 5500.0}]",METAR PASI 131053Z 19005KT 7SM FEW018 BKN031 OVC055 A2960 RMK AO2 UPB43E46SNB46E48 SLPNO P0000 $
PASK,2026-04-13 10:56:00+00:00,2026-04-13 10:56:00+00:00,-7.8,-8.3,250.0,8.0,,10.0,1012.8692490000001,VFR,,,METAR PASK 131056Z AUTO 25008KT 10SM CLR M08/M08 A2991 RMK AO2 SLP126 T10781083 FZRANO
PASL,2026-04-13 10:56:00+00:00,2026-04-13 10:56:00+00:00,-1.7,-5.0,0.0,4.0,,10.0,1011.176054,VFR,,,METAR PASL 131056Z AUTO VRB04KT 10SM CLR M02/M05 A2986 RMK AO2 SLP105 T10171050 FZRANO
PASN,2026-04-13 10:53:00+00:00,2026-04-13 10:53:00+00:00,-4.4,-6.1,40.0,7.0,,10.0,1022.012502,VFR,,"[{""cover"": ""SCT"", ""base_ft_agl"": 12000.0}]",METAR PASN 131053Z AUTO 04007KT 10SM SCT120 M04/M06 A3018 RMK AO2 SLP221 T10441061 TSNO $
PASO,2026-04-13 10:53:00+00:00,2026-04-13 10:53:00+00:00,1.1,-2.8,0.0,0.0,,10.0,1002.3714400000001,VFR,,"[{""cover"": ""OVC"", ""base_ft_agl"": 6500.0}]",METAR PASO 131053Z AUTO 00000KT 10SM OVC065 01/M03 A2960 RMK AO2 SLP023 T00111028 TSNO $
PASV,2026-04-13 10:55:00+00:00,2026-04-13 10:55:00+00:00,-4.8,-7.3,340.0,12.0,21.0,7.0,1005.75783,VFR,-SN,"[{""cover"": ""FEW"", ""base_ft_agl"": 3300.0}, {""cover"": ""OVC"", ""base_ft_agl"": 11000.0}]",METAR PASV 131055Z AUTO 34012G21KT 310V040 7SM -SN FEW033 OVC110 M05/M07 A2970 RMK AO2 SHSNB0855E1035 SLP086 P0000 T10481073;
PASX,2026-04-13 10:56:00+00:00,2026-04-13 10:56:00+00:00,1.1,-1.7,230.0,6.0,,10.0,1001.3555230000001,VFR,,"[{""cover"": ""OVC"", ""base_ft_agl"": 6500.0}]",METAR PASX 131056Z AUTO 23006KT 10SM OVC065 01/M02 A2957 RMK AO2 SLP019 T00111017 FZRANO TSNO
PASY,2026-04-13 10:55:00+00:00,2026-04-13 10:55:00+00:00,4.8,4.4,250.0,10.0,,6.0,1003.048718,LIFR,BR,"[{""cover"": ""OVC"", ""base_ft_agl"": 400.0}]",METAR PASY 131055Z 25010KT 6SM BR OVC004 05/04 A2962 RMK AO2A SLP034 T00480044 RVRNO PNO FZRANO $
PATA,2026-04-13 10:52:00+00:00,2026-04-13 10:52:00+00:00,1.1,-3.9,0.0,3.0,,10.0,1005.75783,VFR,,"[{""cover"": ""OVC"", ""base_ft_agl"": 6500.0}]",METAR PATA 131052Z AUTO VRB03KT 10SM OVC065 01/M04 A2970 RMK AO2 SLP060 T00111039 TSNO $
PATG,2026-04-13 10:56:00+00:00,2026-04-13 10:56:00+00:00,-3.3,-5.6,290.0,11.0,,10.0,1013.546527,VFR,,,METAR PATG 131056Z AUTO 29011KT 10SM CLR M03/M06 A2993 RMK AO2 SLP134 T10331056 FZRANO
PATK,2026-04-13 10:53:00+00:00,2026-04-13 10:53:00+00:00,2.8,-6.7,320.0,3.0,,10.0,999.662328,VFR,,,METAR PATK 131053Z 32003KT 10SM CLR 03/M07 A2952 RMK AO2 SLP001 T00281067 $
PATL,2026-04-13 10:55:00+00:00,2026-04-13 10:55:00+00:00,-0.1,-3.6,0.0,6.0,,10.0,1008.466942,VFR,-SHRA,"[{""cover"": ""BKN"", ""base_ft_agl"": 5500.0}]",METAR PATL 131055Z AUTO VRB06KT 10SM -SHRA BKN055 00/M04 A2978 RMK AO2 SNB0914E1007SHSNB1026E1029SHRAB1029 SLP098 P0000 T10011036;
PATO,2026-04-13 10:53:00+00:00,2026-04-13 10:53:00+00:00,0.6,-0.6,280.0,5.0,,10.0,999.3236890000001,VFR,,"[{""cover"": ""OVC"", ""base_ft_agl"": 3900.0}]",METAR PATO 131053Z AUTO 28005KT 10SM OVC039 01/M01 A2951 RMK AO2 SLP994 T00061006 TSNO
PATQ,2026-04-13 10:56:00+00:00,2026-04-13 10:56:00+00:00,-11.7,-12.2,30.0,9.0,,8.0,1017.6101950000001,LIFR,-SN,"[{""cover"": ""OVC"", ""base_ft_agl"": 400.0}]",METAR PATQ 131056Z AUTO 03009KT 8SM -SN OVC004 M12/M12 A3005 RMK AO2 SLP183 P0000 T11171122 FZRANO TSNO
PAUN,2026-04-13 10:56:00+00:00,2026-04-13 10:56:00+00:00,-3.3,-3.9,240.0,6.0,,6.0,1014.223805,LIFR,-SN BR,"[{""cover"": ""OVC"", ""base_ft_agl"": 300.0}]",METAR PAUN 131056Z AUTO 24006KT 6SM -SN BR OVC003 M03/M04 A2995 RMK AO2 SLP147 T10331039 FZRANO PNO $
PAVA,2026-04-13 10:56:00+00:00,2026-04-13 10:56:00+00:00,-6.1,-6.7,350.0,21.0,,10.0,1018.964751,VFR,,"[{""cover"": ""FEW"", ""base_ft_agl"": 1300.0}, {""cover"": ""SCT"", ""base_ft_agl"": 4400.0}]",METAR PAVA 131056Z AUTO 35021KT 10SM FEW013 SCT044 M06/M07 A3009 RMK AO2 SLP191 T10611067 FZRANO $
PAVC,2026-04-13 10:56:00+00:00,2026-04-13 10:56:00+00:00,0.0,-6.1,300.0,13.0,20.0,10.0,1021.335224,VFR,,"[{""cover"": ""OVC"", ""base_ft_agl"": 3100.0}]",METAR PAVC 131056Z AUTO 30013G20KT 10SM OVC031 00/M06 A3016 RMK AO2 UPB11E34SNB15E29 SLP214 P0000 T00001061 FZRANO $
PAVD,2026-04-13 10:56:00+00:00,2026-04-13 10:56:00+00:00,1.1,1.1,0.0,0.0,,10.0,1000.6782450000001,MVFR,-RA,"[{""cover"": ""OVC"", ""base_ft_agl"": 1100.0}]",METAR PAVD 131056Z AUTO 00000KT 10SM -RA OVC011 01/01 A2955 RMK AO2 SLP004 P0000 T00110011 FZRANO TSNO $
PAVL,2026-04-13 10:53:00+00:00,2026-04-13 10:53:00+00:00,-5.6,-7.8,280.0,14.0,27.0,10.0,1015.239722,VFR,,,METAR PAVL 131053Z AUTO 28014G27KT 10SM CLR M06/M08 A2998 RMK AO2 PK WND 32027/1044 SLP153 T10561078 PWINO FZRANO TSNO $
PAWD,2026-04-13 10:53:00+00:00,2026-04-13 10:53:00+00:00,3.3,-2.8,330.0,10.0,19.0,10.0,999.3236890000001,VFR,,"[{""cover"": ""FEW"", ""base_ft_agl"": 4300.0}, {""cover"": ""FEW"", ""base_ft_agl"": 5000.0}, {""cover"": ""OVC"", ""base_ft_agl"": 7000.0}]",METAR PAWD 131053Z AUTO 33010G19KT 10SM FEW043 FEW050 OVC070 03/M03 A2951 RMK AO2 PK WND 32027/1030 SLP991 T00331028 TSNO
PAWG,2026-04-13 10:56:00+00:00,2026-04-13 10:56:00+00:00,3.3,0.6,180.0,13.0,18.0,10.0,1004.7419130000001,MVFR,-RA,"[{""cover"": ""BKN"", ""base_ft_agl"": 2100.0}, {""cover"": ""BKN"", ""base_ft_agl"": 2700.0}, {""cover"": ""OVC"", ""base_ft_agl"": 7000.0}]",METAR PAWG 131056Z AUTO 18013G18KT 10SM -RA BKN021 BKN027 OVC070 03/01 A2967 RMK AO2 RAB24 SLP048 P0000 T00330006 TSNO $
PAWM,2026-04-13 10:56:00+00:00,2026-04-13 10:56:00+00:00,-7.2,-8.9,340.0,15.0,,9.0,1015.578361,VFR,,"[{""cover"": ""OVC"", ""base_ft_agl"": 9000.0}]",METAR PAWM 131056Z AUTO 34015KT 9SM OVC090 M07/M09 A2999 RMK AO2 SLP159 T10721089 FZRANO $
PAWS,2026-04-13 10:56:00+00:00,2026-04-13 10:56:00+00:00,-0.6,-0.6,0.0,0.0,,10.0,1000.339606,VFR,,"[{""cover"": ""FEW"", ""base_ft_agl"": 7000.0}, {""cover"": ""OVC"", ""base_ft_agl"": 8500.0}]",METAR PAWS 131056Z AUTO 00000KT 10SM FEW070 OVC085 M01/M01 A2954 RMK AO2 SLP976 T10061006 FZRANO $
PAYA,2026-04-13 10:53:00+00:00,2026-04-13 10:53:00+00:00,0.6,0.0,100.0,6.0,,10.0,997.6304940000001,IFR,,"[{""cover"": ""BKN"", ""base_ft_agl"": 500.0}, {""cover"": ""OVC"", ""base_ft_agl"": 2600.0}]",METAR PAYA 131053Z AUTO 10006KT 10SM BKN005 OVC026 01/00 A2946 RMK AO2 UPB16E22B40E51SNB22E40B51E52 SLP977 P0000 T00060000 FZRANO TSNO $
PAZK,2026-04-13 10:56:00+00:00,2026-04-13 10:56:00+00:00,,,330.0,11.0,,3.0,995.260021,MVFR,-SN,"[{""cover"": ""BKN"", ""base_ft_agl"": 2300.0}, {""cover"": ""OVC"", ""base_ft_agl"": 2800.0}]",METAR PAZK 131056Z AUTO 33011KT 3SM -SN BKN023 OVC028 A2939 RMK AO2 SLPNO P0000 FZRANO $
PFCB,2026-04-13 10:30:00+00:00,2026-04-13 10:30:00+00:00,2.4,2.2,0.0,0.0,,10.0,998.646411,VFR,,"[{""cover"": ""SCT"", ""base_ft_agl"": 6500.0}, {""cover"": ""BKN"", ""base_ft_agl"": 8000.0}, {""cover"": ""OVC"", ""base_ft_agl"": 8500.0}]",METAR PFCB 131030Z AUTO 00000KT 10SM SCT065 BKN080 OVC085 02/02 A2949 RMK AO2 T00240022
PFCL,2026-04-13 10:56:00+00:00,2026-04-13 10:56:00+00:00,-3.3,-4.4,260.0,7.0,,10.0,1012.53061,VFR,,,METAR PFCL 131056Z AUTO 26007KT 10SM CLR M03/M04 A2990 RMK AO2 SLP117 T10331044 FZRANO
PFEL,2026-04-13 10:56:00+00:00,2026-04-13 10:56:00+00:00,-4.4,-5.6,300.0,8.0,,10.0,1014.223805,VFR,,"[{""cover"": ""FEW"", ""base_ft_agl"": 3000.0}, {""cover"": ""SCT"", ""base_ft_agl"": 10000.0}]",METAR PFEL 131056Z AUTO 30008KT 10SM FEW030 SCT100 M04/M06 A2995 RMK AO2 SLP146 T10441056 FZRANO $
PFKO,2026-04-13 10:56:00+00:00,2026-04-13 10:56:00+00:00,-2.8,-3.9,340.0,10.0,,10.0,1015.917,MVFR,,"[{""cover"": ""OVC"", ""base_ft_agl"": 1400.0}]",METAR PFKO 131056Z AUTO 34010KT 10SM OVC014 M03/M04 A3000 RMK AO2 SNE06 SLP160 P0000 T10281039 FZRANO $
PFKT,2026-04-13 10:56:00+00:00,2026-04-13 10:56:00+00:00,-8.9,-11.1,260.0,8.0,19.0,2.0,1020.657946,IFR,-SN BR,"[{""cover"": ""SCT"", ""base_ft_agl"": 700.0}, {""cover"": ""OVC"", ""base_ft_agl"": 1400.0}]",METAR PFKT 131056Z AUTO 26008G19KT 220V280 2SM -SN BR SCT007 OVC014 M09/M11 A3014 RMK AO2 VIS 1 1/2V4 SLP206 P0000 T10891111 FZRANO $
PFNO,2026-04-13 10:56:00+00:00,2026-04-13 10:56:00+00:00,-7.2,-8.3,320.0,6.0,,10.0,1012.8692490000001,VFR,,,METAR PFNO 131056Z AUTO 32006KT 10SM CLR M07/M08 A2991 RMK AO2 SLP128 T10721083 FZRANO $
PFSH,2026-04-13 10:56:00+00:00,2026-04-13 10:56:00+00:00,-1.7,-2.2,360.0,14.0,,10.0,1014.223805,MVFR,UP,"[{""cover"": ""SCT"", ""base_ft_agl"": 800.0}, {""cover"": ""OVC"", ""base_ft_agl"": 1700.0}]",METAR PFSH 131056Z AUTO 36014KT 10SM UP SCT008 OVC017 M02/M02 A2995 RMK AO2 UPB35SNE35B38E48 SLP143 P0000 T10171022 FZRANO $
PFTO,2026-04-13 11:05:00+00:00,2026-04-13 11:05:00+00:00,-2.0,-2.0,300.0,10.0,,2.0,996.614577,IFR,-SN BR,"[{""cover"": ""SCT"", ""base_ft_agl"": 700.0}, {""cover"": ""OVC"", ""base_ft_agl"": 1500.0}]",SPECI PFTO 131105Z AUTO 30010KT 2SM -SN BR SCT007 OVC015 M02/M02 A2943 RMK AO2 P0000 FZRANO $
PFWS,2026-04-13 10:56:00+00:00,2026-04-13 10:56:00+00:00,-1.7,-2.8,280.0,7.0,,10.0,1011.5146930000001,VFR,,"[{""cover"": ""OVC"", ""base_ft_agl"": 4900.0}]",METAR PFWS 131056Z AUTO 28007KT 10SM OVC049 M02/M03 A2987 RMK AO2 SNE28 SLP117 P0000 T10171028 FZRANO
PFYU,2026-04-13 10:56:00+00:00,2026-04-13 10:56:00+00:00,-2.2,-6.7,30.0,9.0,,10.0,1004.403274,VFR,,,METAR PFYU 131056Z AUTO 03009KT 10SM CLR M02/M07 A2966 RMK AO2 SLP057 T10221067 FZRANO TSNO
PFZK,2026-04-13 10:56:00+00:00,2026-04-13 10:56:00+00:00,-6.1,-7.2,320.0,8.0,,10.0,1014.901083,VFR,,"[{""cover"": ""BKN"", ""base_ft_agl"": 7500.0}]",METAR PFZK 131056Z AUTO 32008KT 10SM BKN075 M06/M07 A2997 RMK AO2 SLP144 T10611072 FZRANO $
PHBK,2026-04-13 10:51:00+00:00,2026-04-13 10:51:00+00:00,21.7,18.3,150.0,9.0,24.0,10.0,1014.901083,VFR,-RA,"[{""cover"": ""SCT"", ""base_ft_agl"": 11000.0}]",METAR PHBK 131051Z AUTO 15009G24KT 10SM -RA SCT110 22/18 A2997 RMK AO2 RAE0959B25 SLP151 P0000 T02170183 $
PHHI,2026-04-13 10:38:00+00:00,2026-04-13 10:38:00+00:00,20.0,18.0,0.0,0.0,,10.0,1018.2874730000001,VFR,,,SPECI PHHI 131038Z AUTO 00000KT 10SM CLR 20/18 A3007 RMK AO2 RAE38 SLP174 $
PHJR,2026-04-13 10:53:00+00:00,2026-04-13 10:53:00+00:00,20.6,19.4,40.0,3.0,,10.0,1017.6101950000001,VFR,-RA,"[{""cover"": ""BKN"", ""base_ft_agl"": 11000.0}]",METAR PHJR 131053Z AUTO 04003KT 10SM -RA BKN110 21/19 A3005 RMK AO2 SLP183 P0001 T02060194 TSNO
PHKO,2026-04-13 11:02:00+00:00,2026-04-13 11:02:00+00:00,24.4,23.3,320.0,7.0,,10.0,1016.594278,MVFR,,"[{""cover"": ""FEW"", ""base_ft_agl"": 700.0}, {""cover"": ""BKN"", ""base_ft_agl"": 2800.0}, {""cover"": ""OVC"", ""base_ft_agl"": 5000.0}]",SPECI PHKO 131102Z AUTO 32007KT 10SM FEW007 BKN028 OVC050 24/23 A3002 RMK AO2 T02440233
PHLI,2026-04-13 10:53:00+00:00,2026-04-13 10:53:00+00:00,20.0,19.4,0.0,0.0,,9.0,1016.594278,MVFR,-RA,"[{""cover"": ""OVC"", ""base_ft_agl"": 1100.0}]",METAR PHLI 131053Z AUTO 00000KT 9SM -RA OVC011 20/19 A3002 RMK AO2 CIG 008V014 SLP164 P0004 T02000194 TSNO $
PHMK,2026-04-13 10:54:00+00:00,2026-04-13 10:54:00+00:00,21.1,20.0,40.0,3.0,,10.0,1017.6101950000001,VFR,,"[{""cover"": ""OVC"", ""base_ft_agl"": 6500.0}]",METAR PHMK 131054Z AUTO 04003KT 10SM OVC065 21/20 A3005 RMK AO2 SLP177 T02110200 TSNO $
PHNG,2026-04-13 09:57:00+00:00,2026-04-13 09:57:00+00:00,21.1,19.4,0.0,0.0,,,1017.271556,,-RA,"[{""cover"": ""SCT"", ""base_ft_agl"": 9500.0}, {""cover"": ""BKN"", ""base_ft_agl"": 12000.0}]",METAR PHNG 130957Z AUTO 00000KT -RA SCT095 BKN120 21/19 A3004 RMK AO2 RAE31B43 SLP166 P0000 T02110194 402500211 $
PHNL,2026-04-13 10:53:00+00:00,2026-04-13 10:53:00+00:00,21.1,20.0,350.0,3.0,,10.0,1017.6101950000001,VFR,-RA,"[{""cover"": ""FEW"", ""base_ft_agl"": 1200.0}, {""cover"": ""FEW"", ""base_ft_agl"": 2400.0}, {""cover"": ""BKN"", ""base_ft_agl"": 8500.0}]",METAR PHNL 131053Z 35003KT 10SM -RA FEW012 FEW024 BKN085 21/20 A3005 RMK AO2 SLP174 P0006 T02110200 $
PHNY,2026-04-13 10:56:00+00:00,2026-04-13 10:56:00+00:00,20.0,17.8,50.0,6.0,,10.0,1018.964751,VFR,,"[{""cover"": ""BKN"", ""base_ft_agl"": 4700.0}, {""cover"": ""OVC"", ""base_ft_agl"": 6000.0}]",METAR PHNY 131056Z AUTO 05006KT 10SM BKN047 OVC060 20/18 A3009 RMK AO2 SLP169 T02000178 $
PHOG,2026-04-13 10:54:00+00:00,2026-04-13 10:54:00+00:00,21.1,20.0,0.0,0.0,,10.0,1017.948834,MVFR,,"[{""cover"": ""SCT"", ""base_ft_agl"": 1600.0}, {""cover"": ""BKN"", ""base_ft_agl"": 2300.0}, {""cover"": ""OVC"", ""base_ft_agl"": 2800.0}]",METAR PHOG 131054Z AUTO 00000KT 10SM SCT016 BKN023 OVC028 21/20 A3006 RMK AO2 RAE0955B34E43 SLP184 P0000 T02110200 TSNO $
PHSF,2026-04-13 10:00:00+00:00,2026-04-13 10:00:00+00:00,14.0,13.0,0.0,0.0,,8.0,1029.123921,MVFR,,"[{""cover"": ""BKN"", ""base_ft_agl"": 1300.0}]",SPECI PHSF 131000Z AUTO 00000KT 8SM BKN013 14/13 A3039 RMK AO2 CIG 013V170 BKN V SCT SLP179 $
PHTO,2026-04-13 10:53:00+00:00,2026-04-13 10:53:00+00:00,21.7,20.6,160.0,4.0,,10.0,1017.6101950000001,VFR,,,METAR PHTO 131053Z AUTO 16004KT 10SM CLR 22/21 A3005 RMK AO2 SLP173 T02170206 TSNO
